{"type":"Feature","properties":{"GID_2":"NIC.4.7_1","GID_0":"NIC","country":"Nicaragua","GID_1":"NIC.4_1","province":"Carazo","NL_NAME_1":"NA","county":"SanMarcos","VARNAME_2":"NA","NL_NAME_2":"NA","TYPE_2":"Municipio","ENGTYPE_2":"Municipality","CC_2":"NA","HASC_2":"NI.CA.SM","name":"San_Marcos.county"},
"geometry":{"type": "MultiPolygon","coordinates": [[[[-86.2195,11.8878,655.8043],[-86.198,11.8953,555.297],[-86.1902,11.8997,534.4843],[-86.1958,11.9171,516.726],[-86.2067,11.923,532.7261],[-86.2503,11.9341,670.4594],[-86.2599,11.9382,734.7579],[-86.2757,11.9482,812.5763],[-86.284,11.9511,828.6245],[-86.3659,11.8372,245.6349],[-86.3711,11.8246,205.7464],[-86.3739,11.813,158.5091],[-86.3507,11.8244,247.8944],[-86.3365,11.8491,344.6468],[-86.3314,11.854,361.2777],[-86.3165,11.8619,451.891],[-86.2727,11.879,591.236],[-86.2581,11.8924,659.793],[-86.255,11.8939,671.8984],[-86.2511,11.8928,667.7558],[-86.2438,11.8875,657.252],[-86.2403,11.8868,646.1384],[-86.2195,11.8878,655.8043]]]]}}