{"type":"Feature","properties":{"GID_2":"NIC.6.1_1","GID_0":"NIC","country":"Nicaragua","GID_1":"NIC.6_1","province":"Chontales","NL_NAME_1":"NA","county":"Acoyapa","VARNAME_2":"NA","NL_NAME_2":"NA","TYPE_2":"Municipio","ENGTYPE_2":"Municipality","CC_2":"NA","HASC_2":"NI.CO.AC","name":"Acoyapa.county"},
"geometry":{"type": "MultiPolygon","coordinates": [[[[-85.2168,11.7158,31.0],[-85.2164,11.7197,31.0],[-85.2223,11.7216,31.0],[-85.2221,11.7164,31.0],[-85.2168,11.7158,31.0]]],
[[[-85.2108,11.7271,31.0],[-85.2129,11.7279,31.0],[-85.2171,11.726,31.0],[-85.2125,11.7216,31.0],[-85.2107,11.7238,31.0],[-85.2108,11.7271,31.0]]],
[[[-85.2228,11.7294,31.0],[-85.2227,11.7263,31.0],[-85.2208,11.7243,31.0],[-85.2185,11.7245,31.0],[-85.2179,11.7279,31.0],[-85.22,11.7299,31.0],[-85.2228,11.7294,31.0]]],
[[[-85.2204,11.7329,31.0],[-85.2173,11.7326,31.0],[-85.2182,11.7362,31.0],[-85.2206,11.7384,31.0],[-85.2239,11.7384,31.0],[-85.2241,11.7346,31.0],[-85.2204,11.7329,31.0]]],
[[[-85.2111,11.7182,31.0],[-85.2137,11.715,31.0],[-85.2127,11.7129,31.0],[-85.2078,11.7147,31.0],[-85.2082,11.7174,31.0],[-85.2111,11.7182,31.0]]],
[[[-85.206,11.7259,31.0],[-85.2077,11.7227,31.0],[-85.2047,11.7183,31.0],[-85.2029,11.7197,31.0],[-85.2032,11.7219,31.0],[-85.206,11.7259,31.0]]],
[[[-85.2068,11.7434,31.0],[-85.2104,11.741,31.0],[-85.2084,11.7387,37.9095],[-85.2061,11.7387,31.0],[-85.2068,11.7434,31.0]]],
[[[-85.2105,11.7488,31.0],[-85.2144,11.749,39.4443],[-85.2153,11.7461,31.0],[-85.211,11.745,31.0],[-85.2105,11.7488,31.0]]],
[[[-85.2112,11.738,39.848],[-85.2154,11.7378,31.0],[-85.215,11.7343,34.0347],[-85.212,11.7341,31.0],[-85.2105,11.736,31.0],[-85.2112,11.738,39.848]]],
[[[-85.231,11.729,31.0],[-85.2283,11.7322,31.0],[-85.2281,11.7355,31.0],[-85.2324,11.7434,31.0],[-85.2362,11.7473,31.0],[-85.2411,11.7472,31.0],[-85.2419,11.7425,31.0],[-85.2354,11.737,31.0],[-85.2329,11.7297,31.0],[-85.231,11.729,31.0]]],
[[[-84.9726,11.9586,311.2786],[-84.972,11.9638,287.2053],[-84.9756,11.9616,268.05],[-85.0007,11.9564,360.9158],[-85.0603,11.9502,134.4396],[-85.1055,11.9771,187.3324],[-85.1304,11.9872,158.5656],[-85.149,11.9927,109.874],[-85.16,11.994,97.7591],[-85.1669,11.9915,93.5329],[-85.1816,11.9912,91.394],[-85.2059,11.9867,102.4242],[-85.2386,11.9895,166.2176],[-85.2623,11.9986,99.0334],[-85.2701,12.0052,132.3871],[-85.2818,12.0208,98.4728],[-85.2886,12.0253,100.5132],[-85.2909,12.0252,105.9261],[-85.2933,12.0097,86.9014],[-85.2939,11.9864,66.7581],[-85.2978,11.9769,60.8974],[-85.3064,11.9639,54.3935],[-85.3066,11.9546,50.7825],[-85.3039,11.9478,48.1688],[-85.3051,11.932,42.9524],[-85.303,11.9085,41.0318],[-85.3048,11.9058,39.9913],[-85.3113,11.9039,39.9938],[-85.3162,11.8947,47.6024],[-85.334,11.8867,53.626],[-85.3531,11.8853,39.3505],[-85.3676,11.8809,31.0],[-85.3782,11.8823,31.0],[-85.3791,11.8766,31.0],[-85.377,11.8666,31.0],[-85.3709,11.8651,31.0],[-85.3545,11.8522,31.0],[-85.3436,11.8451,31.0],[-85.3342,11.8421,31.0],[-85.3285,11.8376,31.0],[-85.3139,11.8229,31.0],[-85.3071,11.8102,31.0],[-85.2929,11.792,31.0],[-85.2708,11.7686,31.0],[-85.2513,11.7638,31.0],[-85.2354,11.7522,31.4902],[-85.2297,11.7512,31.0],[-85.2169,11.7526,35.5708],[-85.2106,11.7508,31.0],[-85.2018,11.7447,31.0],[-85.1945,11.7349,31.0],[-85.1921,11.7212,31.0],[-85.1835,11.7139,31.0],[-85.1825,11.7107,31.0],[-85.1856,11.7054,31.0],[-85.1839,11.7026,31.0],[-85.1792,11.7014,31.0],[-85.1744,11.6944,31.0],[-85.1719,11.6951,31.0],[-85.171,11.6982,31.0],[-85.1652,11.6995,31.0],[-85.1522,11.6861,31.0],[-85.15,11.6807,31.0],[-85.1516,11.6684,31.0],[-85.1507,11.6641,31.0],[-85.1357,11.6574,31.0],[-85.1295,11.6523,31.0],[-85.1235,11.6386,31.0],[-85.1186,11.6193,31.0],[-85.1164,11.6153,31.0],[-85.1133,11.6153,31.0],[-85.1147,11.6247,31.0],[-85.1059,11.6324,31.0],[-85.1067,11.639,31.0],[-85.1014,11.6412,31.0],[-85.0985,11.6448,33.5381],[-85.0986,11.6521,33.2193],[-85.0964,11.6567,34.507],[-85.0725,11.6607,74.2548],[-85.0619,11.6715,40.241],[-85.0557,11.6743,42.6088],[-85.0545,11.677,42.4214],[-85.0558,11.6826,40.1104],[-85.0507,11.6832,43.4086],[-85.0507,11.6886,39.9505],[-85.0479,11.6896,41.5846],[-85.0366,11.6861,48.5901],[-85.0308,11.6796,50.9886],[-85.028,11.6798,71.6672],[-85.0258,11.6818,101.6243],[-85.0234,11.6884,49.0079],[-85.0159,11.6883,45.3242],[-85.0118,11.6926,40.8227],[-85.0041,11.7096,55.6106],[-84.9986,11.7132,48.8187],[-84.9849,11.7143,45.1125],[-84.9836,11.7189,48.8684],[-84.9765,11.7231,48.3865],[-84.9754,11.7315,49.1783],[-84.9795,11.7369,54.2364],[-84.9799,11.7425,62.2469],[-84.9787,11.7444,52.8377],[-84.9691,11.748,56.4305],[-84.9665,11.7596,53.6558],[-84.9639,11.7632,56.5296],[-84.9591,11.7657,59.3278],[-84.944,11.7675,66.8771],[-84.9394,11.7708,66.3283],[-84.9292,11.7735,67.4769],[-84.9233,11.7787,79.8665],[-84.9197,11.785,69.398],[-84.9185,11.7887,69.2552],[-84.9194,11.8121,78.6104],[-84.9264,11.8307,86.7669],[-84.9295,11.8492,115.0335],[-84.9275,11.8571,111.4551],[-84.9216,11.8682,119.5122],[-84.9212,11.8781,145.4407],[-84.9259,11.8818,163.5681],[-84.9491,11.8852,176.9544],[-84.9664,11.8917,142.8127],[-84.9752,11.9023,229.7495],[-84.9767,11.9094,234.3635],[-84.974,11.9287,234.0479],[-84.9726,11.9586,311.2786]]]]}}