{"type": "Feature","bbox": [-85.6532,11.3773,-85.4619,11.5769],"geometry": {"type": "MultiPolygon","coordinates": [[[[-85.6375,11.5675,175.335],[-85.6446,11.5655,164.0442],[-85.6532,11.5424,265.601],[-85.6524,11.5371,322.9887],[-85.6466,11.5238,304.578],[-85.6489,11.4714,31.0],[-85.6414,11.4703,31.0],[-85.6354,11.4638,31.0],[-85.6308,11.4676,31.0],[-85.626,11.4684,31.0],[-85.6267,11.4741,31.0],[-85.6255,11.4783,31.0],[-85.6039,11.4788,31.0],[-85.5932,11.475,31.0],[-85.583,11.4681,31.0],[-85.575,11.4614,31.0],[-85.5702,11.453,31.0],[-85.5751,11.4408,31.0],[-85.5756,11.4337,31.0],[-85.5676,11.4103,31.0],[-85.5538,11.3987,31.0],[-85.5449,11.3862,31.0],[-85.5333,11.38,31.0],[-85.5199,11.3773,31.0],[-85.5077,11.3781,31.0],[-85.4789,11.3895,31.0],[-85.4691,11.3965,31.0],[-85.463,11.4099,31.0],[-85.4619,11.4199,50.359],[-85.4632,11.4355,68.9543],[-85.4665,11.4488,123.6363],[-85.4771,11.4603,242.8969],[-85.4787,11.4709,191.6969],[-85.4811,11.4759,160.0193],[-85.485,11.4784,141.2385],[-85.487,11.4775,143.7009],[-85.4874,11.4716,236.1537],[-85.492,11.4686,329.3766],[-85.5101,11.4755,246.8096],[-85.5151,11.475,285.5075],[-85.5285,11.47,315.0682],[-85.5342,11.473,235.1905],[-85.5451,11.471,147.7847],[-85.5522,11.4728,70.5135],[-85.5613,11.4837,33.9135],[-85.5679,11.5102,82.4821],[-85.5699,11.5321,72.8713],[-85.5644,11.5528,46.9999],[-85.5675,11.5611,50.9338],[-85.5877,11.5769,63.1694],[-85.6068,11.576,106.9637],[-85.6174,11.5688,174.615],[-85.6269,11.5696,190.766],[-85.6375,11.5675,175.335]]],
[[[-85.5586,11.5299,31.0],[-85.5613,11.5305,35.8372],[-85.5615,11.5244,47.1249],[-85.5596,11.5224,37.3746],[-85.5568,11.5224,31.0],[-85.5556,11.5256,31.0],[-85.5586,11.5299,31.0]]]]}
,"properties": {"GID_2": "NIC.18.1_1","GID_0": "NIC","country": "Nicaragua","GID_1": "NIC.18_1","province": "Rivas","NL_NAME_1": "NA","county": "Altagracia","VARNAME_2": "NA","NL_NAME_2": "NA","TYPE_2": "Municipio","ENGTYPE_2": "Municipality","CC_2": "NA","HASC_2": "NI.RI.AL","name": "Altagracia.county","area_km2": 207.1413,"hist_schema_id": "Elevation0-9000","hist_area_km2": {"25": 51.726,"50": 16.685,"75": 12.8404,"100": 10.6379,"125": 11.1987,"150": 9.4952,"175": 7.272,"200": 6.7732,"225": 6.233,"250": 5.215,"275": 4.9449,"300": 4.5295,"325": 4.3632,"350": 3.5737,"375": 3.5944,"400": 3.1167,"425": 2.4933,"450": 2.8465,"475": 2.4725,"500": 2.0154,"525": 2.057,"550": 2.057,"575": 1.8492,"600": 1.683,"625": 1.3298,"650": 1.6207,"675": 1.2675,"700": 1.4544,"725": 1.4752,"750": 1.0805,"775": 1.0597,"800": 1.1636,"825": 1.496,"850": 1.1636,"875": 0.9558,"900": 1.0182,"925": 1.2883,"950": 1.1844,"975": 1.0597,"1000": 1.3298,"1025": 0.8104,"1050": 0.7896,"1075": 0.748,"1100": 0.6441,"1125": 0.748,"1150": 0.4363,"1175": 0.5195,"1200": 0.4571,"1225": 0.2078,"1250": 0.4363,"1275": 0.2701,"1300": 0.3324,"1325": 0.2078,"1350": 0.1662,"1375": 0.1246,"1400": 0.0208,"1425": 0.1039,"1450": 0.1246,"1475": 0.1246,"1525": 0.0623,"1550": 0.0208,"1575": 0.0831,"1600": 0.0623,"1625": 0.0208}}}