{"type": "Feature","bbox": [-85.9237,12.6703,-85.7937,12.8398],"geometry": {"type": "MultiPolygon","coordinates": [[[[-85.7942,12.7278,381.7221],[-85.7956,12.7341,358.2092],[-85.7947,12.7567,465.7909],[-85.8012,12.7667,482.8175],[-85.8118,12.7766,839.528],[-85.8158,12.7857,816.0309],[-85.8166,12.8008,1052.8676],[-85.8102,12.8207,722.7479],[-85.8301,12.8367,568.3947],[-85.837,12.8398,566.9336],[-85.8416,12.839,614.8616],[-85.8491,12.8341,536.0414],[-85.8685,12.8277,521.9515],[-85.8753,12.8236,585.4239],[-85.8939,12.807,600.78],[-85.9185,12.8016,613.8652],[-85.9211,12.7675,880.0531],[-85.9195,12.7441,732.5929],[-85.9237,12.7258,622.4237],[-85.9226,12.7223,581.7438],[-85.9194,12.7201,526.7187],[-85.9139,12.7184,598.6766],[-85.8935,12.7186,731.4737],[-85.888,12.7202,882.726],[-85.8826,12.7243,787.3194],[-85.8789,12.7232,857.5682],[-85.8458,12.6991,716.2263],[-85.8349,12.6858,402.2842],[-85.823,12.6747,320.3799],[-85.8162,12.6703,340.6678],[-85.8159,12.6804,318.6368],[-85.8121,12.6856,359.4359],[-85.8093,12.7022,423.6369],[-85.8064,12.7061,429.7123],[-85.7975,12.7128,556.6658],[-85.7937,12.7237,462.0908],[-85.7942,12.7278,381.7221]]]]}
,"properties": {"GID_2": "NIC.15.8_1","GID_0": "NIC","country": "Nicaragua","GID_1": "NIC.15_1","province": "Matagalpa","NL_NAME_1": "NA","county": "SanDionisio","VARNAME_2": "NA","NL_NAME_2": "NA","TYPE_2": "Municipio","ENGTYPE_2": "Municipality","CC_2": "NA","HASC_2": "NI.MT.SD","name": "San_Dionisio.county","area_km2": 163.9599,"hist_schema_id": "Elevation0-9000","hist_area_km2": {"300": 1.3443,"325": 5.8945,"350": 6.5562,"375": 7.0313,"400": 7.7135,"425": 8.9542,"450": 10.608,"475": 11.2487,"500": 10.6694,"525": 10.0904,"550": 9.8835,"575": 7.4439,"600": 7.6301,"625": 7.2993,"650": 6.8653,"675": 5.2937,"700": 6.2037,"725": 4.6527,"750": 4.8595,"775": 4.2805,"800": 3.598,"825": 2.6468,"850": 2.3987,"875": 2.1712,"900": 1.9438,"925": 1.6543,"950": 1.3648,"975": 1.0132,"1000": 1.1166,"1025": 0.3929,"1050": 0.2274,"1075": 0.1861,"1100": 0.124,"1125": 0.3101,"1150": 0.2688,"1175": 0.0207}}}