{"type":"Feature","properties":{"GID_2":"NIC.6.8_1","GID_0":"NIC","country":"Nicaragua","GID_1":"NIC.6_1","province":"Chontales","NL_NAME_1":"NA","county":"VillaSandino","VARNAME_2":"NA","NL_NAME_2":"NA","TYPE_2":"Municipio","ENGTYPE_2":"Municipality","CC_2":"NA","HASC_2":"NI.CO.VS","name":"Villa_Sandino.county"},
"geometry":{"type": "MultiPolygon","coordinates": [[[[-84.7718,12.1405,370.264],[-84.7873,12.1361,273.2673],[-84.7964,12.1353,276.7376],[-84.7993,12.1355,229.3282],[-84.8122,12.1464,202.5581],[-84.8155,12.1459,174.3309],[-84.8199,12.1402,185.077],[-84.8231,12.1387,186.6615],[-84.8273,12.139,225.1638],[-84.8313,12.1473,199.1777],[-84.8359,12.145,212.7533],[-84.847,12.1448,243.7274],[-84.8505,12.1437,207.9904],[-84.8591,12.1351,332.3297],[-84.8664,12.1322,277.5165],[-84.8698,12.1291,224.9783],[-84.8726,12.123,271.1443],[-84.8776,12.1185,290.3513],[-84.8981,12.1129,205.7018],[-84.9186,12.112,399.2047],[-84.9683,12.1018,309.6212],[-84.9858,12.0794,293.8093],[-85.0105,12.0413,321.1005],[-85.0097,12.0317,411.8563],[-85.0037,12.014099999999999,263.3065],[-84.9745,11.9699,371.3989],[-84.972,11.9638,287.2053],[-84.974,11.9287,234.0479],[-84.9767,11.9094,234.3635],[-84.9752,11.9023,229.7495],[-84.9664,11.8917,142.8127],[-84.9491,11.8852,176.9544],[-84.9259,11.8818,163.5681],[-84.9212,11.8781,145.4407],[-84.9216,11.8682,119.5122],[-84.9275,11.8571,111.4551],[-84.9295,11.8492,115.0335],[-84.9264,11.8307,86.7669],[-84.9194,11.8121,78.6104],[-84.9185,11.7887,69.2552],[-84.9215,11.7814,68.1328],[-84.9184,11.7798,80.0454],[-84.9133,11.78,72.8985],[-84.9055,11.7846,101.915],[-84.8965,11.7856,165.1493],[-84.8832,11.7997,83.1634],[-84.8796,11.8073,81.0274],[-84.8681,11.8116,83.9209],[-84.82,11.8388,132.1911],[-84.7933,11.8478,177.2442],[-84.782,11.8491,176.4701],[-84.7679,11.8476,171.3454],[-84.7376,11.8582,149.8248],[-84.732,11.8581,165.957],[-84.716,11.8573,154.3553],[-84.7068,11.8543,142.2064],[-84.6934,11.8572,143.4848],[-84.6807,11.8569,124.504],[-84.6721,11.8527,116.9577],[-84.6572,11.8493,114.0143],[-84.6439,11.8473,121.0237],[-84.61,11.8462,144.2768],[-84.6157,11.8598,115.5651],[-84.6217,11.8667,113.5606],[-84.6273,11.877,109.9753],[-84.63,11.8904,105.1977],[-84.6281,11.8949,96.7977],[-84.6016,11.9044,88.9432],[-84.5738,11.9061,147.1342],[-84.5721,11.9089,185.5743],[-84.5771,11.9136,107.7463],[-84.6189,11.9329,98.9236],[-84.6553,11.9462,115.6333],[-84.6802,11.9576,132.6539],[-84.7084,11.9674,111.3493],[-84.7231,11.9786,127.847],[-84.7311,11.9893,121.4624],[-84.7329,11.9966,119.7839],[-84.7399,12.0732,229.8684],[-84.7434,12.0921,126.319],[-84.7524,12.1096,270.9966],[-84.7669,12.1288,427.1134],[-84.7718,12.1405,370.264]]]]}}