{"type": "Feature","bbox": [-85.8624,12.7938,-85.5884,13.046],"geometry": {"type": "MultiPolygon","coordinates": [[[[-85.6705,12.8124,367.9606],[-85.6622,12.8091,301.3607],[-85.6571,12.8118,290.4833],[-85.651,12.8104,417.0554],[-85.6339,12.7959,292.4569],[-85.6263,12.7938,423.2379],[-85.6175,12.8011,336.1273],[-85.6108,12.8167,321.1707],[-85.5979,12.8167,273.4499],[-85.5884,12.8257,275.1091],[-85.6113,12.8948,302.2379],[-85.6176,12.9073,342.4411],[-85.6239,12.9192,392.2041],[-85.6541,12.951,689.5815],[-85.6576,12.9594,1002.637],[-85.6616,12.974,1116.884],[-85.6622,12.9876,950.2314],[-85.6575,13.0287,659.1022],[-85.6508,13.0443,522.7487],[-85.6677,13.046,561.4745],[-85.6864,13.0423,478.1614],[-85.7249,13.0388,636.7474],[-85.7634,13.0428,411.7424],[-85.8028,13.0367,715.1986],[-85.8616,12.9625,1032.7238],[-85.8624,12.8739,671.4233],[-85.8599,12.8661,620.1622],[-85.8518,12.8594,574.1199],[-85.8431,12.8556,635.3643],[-85.82,12.8509,579.4163],[-85.799,12.8487,671.8967],[-85.7857,12.8447,559.4482],[-85.7806,12.8408,531.7578],[-85.776,12.8328,516.8057],[-85.7719,12.8297,485.9283],[-85.7559,12.8336,659.7299],[-85.7403,12.8313,519.0104],[-85.7299,12.8336,585.9474],[-85.7261,12.8282,463.1058],[-85.7199,12.8249,448.4882],[-85.7048,12.8257,514.3335],[-85.6925,12.822,565.8797],[-85.6875,12.8276,455.1589],[-85.6852,12.8272,428.2938],[-85.6705,12.8124,367.9606]]]]}
,"properties": {"GID_2": "NIC.15.10_1","GID_0": "NIC","country": "Nicaragua","GID_1": "NIC.15_1","province": "Matagalpa","NL_NAME_1": "NA","county": "SanRamón","VARNAME_2": "NA","NL_NAME_2": "NA","TYPE_2": "Municipio","ENGTYPE_2": "Municipality","CC_2": "NA","HASC_2": "NI.MT.SR","name": "San_Ramón.county","area_km2": 555.0043,"hist_schema_id": "Elevation0-9000","hist_area_km2": {"250": 3.5349,"275": 18.8325,"300": 14.9659,"325": 12.1751,"350": 9.3019,"375": 8.3094,"400": 9.301,"425": 8.1227,"450": 9.0937,"475": 14.3637,"500": 18.7864,"525": 19.1167,"550": 20.6865,"575": 24.9026,"600": 23.6412,"625": 21.6985,"650": 20.4999,"675": 18.3916,"700": 18.9906,"725": 18.0191,"750": 20.1883,"775": 20.374,"800": 17.9561,"825": 16.7576,"850": 15.0632,"875": 13.3069,"900": 13.1828,"925": 12.4184,"950": 14.4018,"975": 15.8482,"1000": 15.8687,"1025": 14.3604,"1050": 12.5626,"1075": 11.3021,"1100": 9.2357,"1125": 6.715,"1150": 4.8556,"1175": 2.8307,"1200": 1.9217,"1225": 1.1159,"1250": 0.8886,"1275": 0.7439,"1300": 0.3513,"1325": 0.0207}}}