{"type": "Feature","bbox": [-86.7474,13.0764,-86.4558,13.2965],"geometry": {"type": "MultiPolygon","coordinates": [[[[-86.7377,13.0955,167.4102],[-86.7285,13.095,166.8973],[-86.7116,13.0998,170.5473],[-86.6926,13.0982,156.3884],[-86.6819,13.0942,160.0865],[-86.6618,13.0788,231.0898],[-86.6576,13.077,240.8188],[-86.6468,13.0764,335.6487],[-86.6372,13.0781,426.2034],[-86.627,13.0825,404.2444],[-86.5938,13.1035,660.1992],[-86.5545,13.1144,655.9863],[-86.5407,13.1158,780.9191],[-86.51,13.1114,1042.5334],[-86.4854,13.1107,1209.4495],[-86.4764,13.108,1037.0139],[-86.4738,13.1144,1162.7725],[-86.4729,13.1232,1255.8406],[-86.4743,13.1975,808.5808],[-86.4723,13.2061,962.6605],[-86.4558,13.2348,1264.3417],[-86.4617,13.2593,1183.5176],[-86.4648,13.2943,870.9568],[-86.4726,13.2902,1029.6682],[-86.5039,13.281,1344.0945],[-86.5228,13.2704,1155.3805],[-86.537,13.269,969.8995],[-86.5444,13.273,1026.308],[-86.5544,13.2818,598.234],[-86.5699,13.2885,891.1617],[-86.5871,13.2929,887.5425],[-86.6191,13.2965,1459.1128],[-86.6236,13.289,1437.6677],[-86.6318,13.2801,1178.9146],[-86.6486,13.2658,978.8771],[-86.7057,13.2082,320.4328],[-86.7162,13.201599999999999,286.9436],[-86.7305,13.1877,261.6258],[-86.7421,13.1667,252.9636],[-86.7472,13.1497,198.4324],[-86.7474,13.1329,310.9226],[-86.7453,13.1148,162.2943],[-86.7377,13.0955,167.4102]]]]}
,"properties": {"GID_2": "NIC.7.5_1","GID_0": "NIC","country": "Nicaragua","GID_1": "NIC.7_1","province": "Estelí","NL_NAME_1": "NA","county": "SanJuandeLimay","VARNAME_2": "NA","NL_NAME_2": "NA","TYPE_2": "Municipio","ENGTYPE_2": "Municipality","CC_2": "NA","HASC_2": "NI.ES.SJ","name": "San_Juande_Limay.county","area_km2": 535.4249,"hist_schema_id": "Elevation0-9000","hist_area_km2": {"100": 0.3924,"125": 2.1682,"150": 6.1123,"175": 5.6992,"200": 6.6491,"225": 9.3125,"250": 11.8104,"275": 23.1234,"300": 38.7918,"325": 32.5151,"350": 28.5305,"375": 24.5046,"400": 19.9007,"425": 17.3819,"450": 17.3609,"475": 16.411,"500": 15.5437,"525": 15.5854,"550": 15.7504,"575": 15.2754,"600": 13.7273,"625": 13.1491,"650": 12.3646,"675": 12.7364,"700": 13.1698,"725": 11.3737,"750": 10.7342,"775": 9.8876,"800": 10.2797,"825": 9.5365,"850": 8.6072,"875": 7.5544,"900": 6.3162,"925": 6.4194,"950": 5.5936,"975": 4.4791,"1000": 4.3344,"1025": 4.2932,"1050": 3.9629,"1075": 3.7358,"1100": 3.6326,"1125": 4.2106,"1150": 4.0041,"1175": 4.5614,"1200": 3.9834,"1225": 4.1281,"1250": 3.2198,"1275": 3.2819,"1300": 2.5181,"1325": 1.8782,"1350": 1.5274,"1375": 0.8876,"1400": 0.5985,"1425": 0.3509,"1450": 0.2476,"1475": 0.2476,"1500": 0.2476,"1525": 0.227,"1550": 0.2682,"1575": 0.1857,"1600": 0.1444}}}