{"type": "Feature","bbox": [-86.4421,12.7613,-86.2696,12.8917],"geometry": {"type": "MultiPolygon","coordinates": [[[[-86.4221,12.8917,644.9622],[-86.4303,12.8821,817.2448],[-86.4421,12.8516,639.3893],[-86.426,12.8418,688.4996],[-86.4368,12.8252,578.4517],[-86.4183,12.7877,427.5131],[-86.4113,12.7613,255.7132],[-86.2721,12.7617,450.0008],[-86.2696,12.7841,487.7247],[-86.2738,12.8159,709.5748],[-86.2721,12.8491,902.9393],[-86.2752,12.8476,899.1945],[-86.292,12.8481,1033.5974],[-86.3525,12.861,571.6882],[-86.4221,12.8917,644.9622]]]]}
,"properties": {"GID_2": "NIC.11.9_1","GID_0": "NIC","country": "Nicaragua","GID_1": "NIC.11_1","province": "León","NL_NAME_1": "NA","county": "SantaRosadelPeñón","VARNAME_2": "NA","NL_NAME_2": "NA","TYPE_2": "Municipio","ENGTYPE_2": "Municipality","CC_2": "NA","HASC_2": "NI.LE.SR","name": "Santa_Rosadel_Peñón.county","area_km2": 194.4391,"hist_schema_id": "Elevation0-9000","hist_area_km2": {"125": 0.0827,"150": 1.4681,"175": 4.6935,"200": 7.5051,"225": 9.097,"250": 9.2005,"275": 10.1512,"300": 11.495,"325": 11.3088,"350": 10.1302,"375": 7.7733,"400": 8.4349,"425": 7.7319,"450": 8.5384,"475": 8.3936,"500": 8.5385,"525": 8.0008,"550": 7.9594,"575": 8.1041,"600": 7.0703,"625": 6.2847,"650": 5.5404,"675": 4.5481,"700": 3.4111,"725": 3.7832,"750": 2.9356,"775": 2.7909,"800": 2.2327,"825": 1.4885,"850": 1.0336,"875": 0.6409,"900": 0.7029,"925": 1.137,"950": 0.8889,"975": 0.4755,"1000": 0.6615,"1025": 0.124,"1050": 0.0413,"1075": 0.0413}}}