{"type":"Feature","properties":{"GID_2":"NIC.11.3_1","GID_0":"NIC","country":"Nicaragua","GID_1":"NIC.11_1","province":"León","NL_NAME_1":"NA","county":"ElSauce","VARNAME_2":"NA","NL_NAME_2":"NA","TYPE_2":"Municipio","ENGTYPE_2":"Municipality","CC_2":"NA","HASC_2":"NI.LE.ES","name":"El_Sauce.county"},
"geometry":{"type": "MultiPolygon","coordinates": [[[[-86.674,12.7834,54.9182],[-86.6671,12.7762,53.7811],[-86.633,12.751,67.654],[-86.5429,12.7619,92.6892],[-86.5151,12.787,245.2481],[-86.4851,12.7616,158.048],[-86.4113,12.7613,255.7132],[-86.4183,12.7877,427.5131],[-86.4368,12.8252,578.4517],[-86.426,12.8418,688.4996],[-86.4421,12.8516,639.3893],[-86.4303,12.8821,817.2448],[-86.4221,12.8917,644.9622],[-86.4334,12.9047,999.563],[-86.4367,12.9139,1006.8627],[-86.4373,12.9233,988.7469],[-86.4322,12.9377,853.7202],[-86.4202,12.9572,657.1935],[-86.4153,12.9686,729.2368],[-86.4082,13.0085,1144.1322],[-86.4112,13.0154,926.7604],[-86.4178,13.0244,1057.3782],[-86.4459,13.0564,1171.3114],[-86.4512,13.066,811.4725],[-86.4583,13.0865,901.2015],[-86.4635,13.0957,792.4167],[-86.4702,13.0824,594.9953],[-86.4831,13.0634,496.2258],[-86.4842,13.0593,498.5205],[-86.4822,13.0458,513.3824],[-86.4828,13.0384,451.8665],[-86.4971,13.0221,468.6276],[-86.4986,13.0121,494.0879],[-86.5008,13.0114,551.9517],[-86.5075,13.0136,429.2604],[-86.5153,13.0093,421.8727],[-86.5247,13.014099999999999,554.5325],[-86.5272,13.0129,632.4851],[-86.5269,13.0058,602.3247],[-86.5227,12.9987,523.297],[-86.5187,12.9869,425.7462],[-86.5193,12.9812,353.851],[-86.5252,12.981,356.0521],[-86.5314,12.9838,341.5027],[-86.5337,12.9801,375.8527],[-86.5388,12.9814,344.4819],[-86.5419,12.9787,383.1476],[-86.546,12.9791,334.0257],[-86.559,12.9862,241.8959],[-86.5628,12.9868,243.0477],[-86.5732,12.9842,236.268],[-86.5781,12.9915,216.7248],[-86.5834,12.9954,209.3506],[-86.5956,12.9993,249.2225],[-86.604,12.9997,240.7169],[-86.6239,12.9907,140.0011],[-86.6252,12.9875,137.7927],[-86.6244,12.983,167.2712],[-86.6267,12.9823,141.3996],[-86.6315,12.9843,133.9012],[-86.6336,12.9828,141.6456],[-86.6321,12.9762,134.2249],[-86.6331,12.9745,133.5502],[-86.641,12.975,112.2893],[-86.6634,12.9618,147.1185],[-86.6698,12.9561,121.3875],[-86.6756,12.9358,161.5095],[-86.6756,12.9096,141.9312],[-86.6721,12.8896,100.3906],[-86.6685,12.8766,137.7392],[-86.6601,12.8558,165.7494],[-86.6571,12.8388,96.3376],[-86.6617,12.8101,188.853],[-86.674,12.7834,54.9182]]]]}}