{"type": "Feature","bbox": [-86.2314,13.8001,-85.91,14.0771],"geometry": {"type": "MultiPolygon","coordinates": [[[[-86.2314,13.9097,1211.6821],[-86.2161,13.8797,919.2599],[-86.1816,13.8293,673.9218],[-86.1772,13.8177,626.0101],[-86.1778,13.8056,600.1434],[-86.1596,13.802,693.7864],[-86.1395,13.8004,738.2535],[-86.1149,13.8004,831.1873],[-86.0817,13.8031,778.6797],[-86.0694,13.8111,780.0609],[-86.0576,13.8001,1006.6527],[-86.0043,13.8318,987.3179],[-86.003,13.8337,907.1816],[-86.0066,13.8632,990.2986],[-86.0051,13.8665,966.6665],[-86.0021,13.8684,914.9167],[-85.9712,13.8741,564.0981],[-85.9504,13.8728,502.8876],[-85.947,13.8794,483.5718],[-85.9471,13.9004,539.8488],[-85.9435,13.9075,473.7993],[-85.927,13.9036,438.5986],[-85.9189,13.9073,426.1022],[-85.91,13.9037,610.4031],[-85.92,13.9079,426.1022],[-85.9284,13.9209,645.0316],[-85.9476,13.9388,618.9993],[-86.0154,13.9898,622.806],[-86.0217,13.9997,726.0983],[-86.0233,14.0076,704.6531],[-86.0211,14.023,819.3578],[-86.0095,14.0443,679.7371],[-86.0049,14.0593,680.9635],[-86.0065,14.0708,687.4877],[-86.0086,14.0752,699.3325],[-86.0121,14.0771,716.2942],[-86.0178,14.0765,709.1191],[-86.0344,14.0688,695.3423],[-86.0639,14.0693,738.9747],[-86.0719,14.0654,754.1974],[-86.0924,14.0639,753.9517],[-86.1028,14.0593,790.7194],[-86.1219,14.0442,841.529],[-86.139,14.0386,1005.6981],[-86.1505,14.0325,1147.0084],[-86.1518,14.0206,1346.1521],[-86.1468,14.0152,1251.4927],[-86.1359,14.0085,1255.4882],[-86.1357,14.004,1374.4152],[-86.1375,14.0009,1426.2103],[-86.1404,13.998,1397.6725],[-86.1489,13.9948,1339.2147],[-86.1553,13.9878,1260.566],[-86.1587,13.9862,1340.1506],[-86.1699,13.9832,1394.3535],[-86.1861,13.9821,1576.217],[-86.1884,13.9795,1552.4099],[-86.19,13.9731,1199.3528],[-86.1859,13.9613,1416.4171],[-86.1859,13.9551,1398.8297],[-86.1954,13.9503,1499.5695],[-86.2021,13.9376,1645.1873],[-86.2186,13.9305,1570.0753],[-86.2222,13.9274,1476.1449],[-86.2314,13.9097,1211.6821]]]]}
,"properties": {"GID_2": "NIC.16.4_1","GID_0": "NIC","country": "Nicaragua","GID_1": "NIC.16_1","province": "NuevaSegovia","NL_NAME_1": "NA","county": "Jalapa","VARNAME_2": "NA","NL_NAME_2": "NA","TYPE_2": "Municipio","ENGTYPE_2": "Municipality","CC_2": "NA","HASC_2": "NI.NS.JA","name": "Jalapa.county","area_km2": 608.403,"hist_schema_id": "Elevation0-9000","hist_area_km2": {"400": 0.1235,"425": 0.1235,"450": 0.638,"475": 2.3664,"500": 5.0622,"525": 7.5728,"550": 10.3512,"575": 12.2448,"600": 12.0805,"625": 34.5782,"650": 93.0117,"675": 66.3584,"700": 42.2684,"725": 36.9019,"750": 33.5689,"775": 29.0412,"800": 25.6861,"825": 21.775,"850": 20.9721,"875": 18.2761,"900": 15.7853,"925": 12.0391,"950": 9.7134,"975": 6.9555,"1000": 7.758,"1025": 6.8112,"1050": 6.5849,"1075": 6.1524,"1100": 5.885,"1125": 5.3087,"1150": 5.247,"1175": 5.1853,"1200": 6.173,"1225": 5.8847,"1250": 5.5762,"1275": 5.103,"1300": 3.9919,"1325": 3.3746,"1350": 2.6956,"1375": 2.1605,"1400": 1.8724,"1425": 1.358,"1450": 0.9465,"1475": 0.6173,"1500": 0.3292,"1525": 0.3087,"1550": 0.2675,"1575": 0.1852,"1600": 0.2469,"1625": 0.1852,"1650": 0.2058,"1675": 0.2058,"1700": 0.1646,"1725": 0.0823,"1750": 0.0412}}}