{"type": "Feature","bbox": [-86.1349,11.6009,-85.786,11.8243],"geometry": {"type": "MultiPolygon","coordinates": [[[[-86.114,11.6081,59.1586],[-86.1135,11.6048,66.1713],[-86.1003,11.6062,76.1879],[-86.0954,11.6052,81.3262],[-86.0922,11.6023,109.1879],[-86.0853,11.6009,69.8719],[-86.0679,11.6131,100.8181],[-86.0567,11.616,91.9994],[-86.0323,11.6169,109.5258],[-86.0268,11.6192,91.0893],[-86.0241,11.6224,93.9289],[-86.0205,11.6358,138.9142],[-86.0176,11.641,160.8787],[-86.004,11.6515,106.7286],[-85.9943,11.6532,71.3023],[-85.9805,11.6465,56.9631],[-85.9648,11.6453,52.863],[-85.962,11.6509,53.1271],[-85.9397,11.6573,46.6771],[-85.9199,11.6591,43.8246],[-85.9099,11.6646,55.5968],[-85.899,11.6733,61.2274],[-85.8977,11.6761,53.7167],[-85.8991,11.679,31.726],[-85.9105,11.681,43.5784],[-85.9157,11.6875,61.9475],[-85.9205,11.6972,39.0608],[-85.9175,11.707,33.4707],[-85.9233,11.7156,43.6905],[-85.921,11.7197,34.1936],[-85.9088,11.7277,31.0],[-85.913,11.7306,31.0],[-85.9337,11.7384,39.3863],[-85.9674,11.7603,75.6072],[-85.9826,11.7652,99.3698],[-85.9997,11.7661,112.3883],[-86.0099,11.7691,114.1434],[-86.0127,11.7715,117.8373],[-86.0154,11.7765,129.5],[-86.0167,11.7854,149.074],[-86.0144,11.8196,278.9213],[-86.0318,11.8046,195.6993],[-86.0435,11.8011,181.4431],[-86.0513,11.8035,184.9994],[-86.0565,11.8096,206.3067],[-86.0596,11.8158,252.8335],[-86.0581,11.8238,240.9332],[-86.0656,11.8202,226.9977],[-86.0783,11.8195,272.8147],[-86.0868,11.8216,278.7253],[-86.0881,11.8243,286.5908],[-86.0937,11.814,274.5332],[-86.1083,11.7977,306.8761],[-86.111,11.7933,305.8839],[-86.1121,11.7868,289.4816],[-86.1089,11.7618,215.1752],[-86.0973,11.7305,139.9993],[-86.0969,11.7218,124.7375],[-86.099,11.7148,126.198],[-86.1031,11.7093,135.5369],[-86.1064,11.7079,142.1421],[-86.1229,11.7075,160.3826],[-86.13,11.7056,174.1956],[-86.1331,11.7019,189.3685],[-86.1338,11.6982,204.7359],[-86.1289,11.6676,374.59],[-86.1291,11.6613,276.3202],[-86.1349,11.6451,305.0175],[-86.1348,11.6405,290.3766],[-86.13,11.6326,133.1217],[-86.1226,11.6246,127.7956],[-86.114,11.6081,59.1586]]],
[[[-85.9052,11.7161,31.0],[-85.9022,11.7135,31.0],[-85.8998,11.7146,31.0],[-85.8997,11.7196,31.0],[-85.9016,11.7207,31.0],[-85.9054,11.7176,31.0],[-85.9052,11.7161,31.0]]],
[[[-85.864,11.7571,38.0269],[-85.8655,11.7619,32.8464],[-85.8699,11.7602,31.0],[-85.8707,11.7577,31.0],[-85.8663,11.7564,31.6389],[-85.864,11.7571,38.0269]]],
[[[-85.8717,11.6865,34.1947],[-85.8636,11.6883,31.0],[-85.8492,11.6963,31.0],[-85.8381,11.6964,31.0],[-85.8028,11.6901,31.0],[-85.7934,11.6916,31.0],[-85.7884,11.6952,31.0],[-85.7862,11.7005,31.0],[-85.786,11.7131,31.0],[-85.7933,11.7241,128.0425],[-85.7948,11.7286,150.6891],[-85.7931,11.7388,86.3218],[-85.7992,11.7478,108.4202],[-85.8034,11.7507,156.0201],[-85.8077,11.7506,152.4007],[-85.808,11.7437,329.0881],[-85.8096,11.7421,358.8434],[-85.8189,11.7439,490.9393],[-85.8402,11.7433,128.5263],[-85.8507,11.7525,138.185],[-85.854,11.7534,177.3129],[-85.8594,11.7481,189.9055],[-85.8656,11.7491,84.2514],[-85.8677,11.748,64.5255],[-85.8654,11.7375,137.8658],[-85.8756,11.7274,31.0],[-85.8762,11.7229,31.0],[-85.8823,11.7188,31.0],[-85.8822,11.7168,31.0],[-85.87,11.709,88.2962],[-85.8645,11.7,31.0],[-85.8642,11.6964,31.0],[-85.8663,11.6945,31.0],[-85.8693,11.695,118.4105],[-85.872,11.7014,31.0],[-85.8747,11.7017,31.0],[-85.8769,11.6984,31.0],[-85.8773,11.6907,31.0],[-85.8744,11.6871,33.7114],[-85.8717,11.6865,34.1947]]],
[[[-85.8221,11.7573,76.7999],[-85.8256,11.7607,52.2942],[-85.8285,11.7579,83.4526],[-85.824,11.7518,179.7604],[-85.8221,11.7573,76.7999]]],
[[[-85.8575,11.7736,31.0],[-85.8603,11.7698,54.2277],[-85.8577,11.7672,41.2851],[-85.8531,11.7673,85.6945],[-85.8518,11.7694,70.6627],[-85.8526,11.7737,33.7005],[-85.8547,11.775,31.0],[-85.8575,11.7736,31.0]]]]}
,"properties": {"GID_2": "NIC.8.4_1","GID_0": "NIC","country": "Nicaragua","GID_1": "NIC.8_1","province": "Granada","NL_NAME_1": "NA","county": "Nandaime","VARNAME_2": "NA","NL_NAME_2": "NA","TYPE_2": "Municipio","ENGTYPE_2": "Municipality","CC_2": "NA","HASC_2": "NI.GR.NA","name": "Nandaime.county","area_km2": 425.3533,"hist_schema_id": "Elevation0-9000","hist_area_km2": {"25": 26.9271,"50": 54.5232,"75": 62.2858,"100": 69.7569,"125": 47.8966,"150": 42.457,"175": 34.1512,"200": 26.1372,"225": 18.4344,"250": 15.9633,"275": 11.5829,"300": 5.584,"325": 2.6781,"350": 1.91,"375": 1.2872,"400": 0.9965,"425": 0.7058,"450": 0.4359,"475": 0.4152,"500": 0.3737,"525": 0.2491,"550": 0.3321,"575": 0.1246,"600": 0.1038,"625": 0.0415}}}