{"type":"Feature","properties":{"featurecla":"River","scalerank":12,"rivernum":22180,"dissolve":"22180River","name":"null977","name_alt":null,"note":"ID is link back to CEC data","name_full":null,"min_zoom":7.0,"strokeweig":0.15,"uident":2056801,"min_label":8.0},
"geometry":{"type": "LineString","coordinates": [[-86.631174282937067,13.740016994264877,942.5464],[-86.633412238666224,13.659450588014877,755.6359],[-86.620350715228724,13.639675197389877,961.3987],[-86.575510220437067,13.636989650514877,660.0337],[-86.476429816791224,13.636745509889877,615.9559]]}}