{"type":"Feature","properties":{"GID_2":"NIC.18.8_1","GID_0":"NIC","country":"Nicaragua","GID_1":"NIC.18_1","province":"Rivas","NL_NAME_1":"NA","county":"Tola","VARNAME_2":"NA","NL_NAME_2":"NA","TYPE_2":"Municipio","ENGTYPE_2":"Municipality","CC_2":"NA","HASC_2":"NI.RI.TO","name":"Tola.county"},
"geometry":{"type": "MultiPolygon","coordinates": [[[[-85.6239,11.196,118.1034],[-85.6217,11.1998,74.6019],[-85.6249,11.2256,59.5401],[-85.6347,11.227,78.4266],[-85.6593,11.2523,66.4516],[-85.6762,11.2648,57.2025],[-85.6926,11.2899,48.7886],[-85.7017,11.3023,42.2451],[-85.7063,11.3062,41.8179],[-85.7124,11.3159,36.7891],[-85.7293,11.323,56.4953],[-85.7489,11.3442,48.0643],[-85.7539,11.3544,41.3175],[-85.7648,11.3689,41.9855],[-85.7688,11.3807,45.0507],[-85.7743,11.3826,44.2967],[-85.7775,11.3807,45.3111],[-85.7969,11.3495,43.319],[-85.8079,11.3411,62.7209],[-85.8241,11.3325,55.8061],[-85.8333,11.3291,58.1986],[-85.8469,11.3278,77.5374],[-85.8644,11.3314,69.8844],[-85.8829,11.341,77.5195],[-85.8854,11.341,135.5692],[-85.8987,11.3267,70.8655],[-85.9154,11.3405,74.3114],[-85.9262,11.3523,84.7866],[-85.928,11.3558,72.175299999999993],[-85.9296,11.3741,75.4501],[-85.9289,11.3771,47.9521],[-85.916,11.3799,124.9484],[-85.9114,11.3832,150.2378],[-85.9072,11.3895,142.0516],[-85.9062,11.4019,31.5585],[-85.9039,11.4045,24.6795],[-85.8918,11.4099,221.4023],[-85.8891,11.4126,100.924],[-85.8897,11.4189,109.6724],[-85.8962,11.4267,164.1201],[-85.8982,11.4323,193.6202],[-85.8939,11.4447,201.302],[-85.914,11.4607,117.6047],[-85.9329,11.4719,80.5616],[-85.9743,11.5013,245.7402],[-85.9892,11.5074,226.9452],[-86.0046,11.5086,210.3473],[-86.0158,11.5143,150.881],[-86.0201,11.5181,138.4516],[-86.0245,11.5267,157.8535],[-86.0245,11.5433,92.7995],[-86.026,11.5475,215.5479],[-86.0412,11.5649,111.4869],[-86.0468,11.5661,169.8607],[-86.0608,11.5651,95.1491],[-86.0877,11.5589,84.4591],[-86.0918,11.5621,144.2211],[-86.094,11.5769,168.9515],[-86.0954,11.5797,172.0418],[-86.0974,11.5801,173.8639],[-86.1442,11.5736,55.2996],[-86.1466,11.5712,29.1895],[-86.1506,11.5557,21.9377],[-86.1575,11.5503,21.29],[-86.1559,11.5423,14.0163],[-86.157,11.5392,12.6752],[-86.1619,11.5355,10.6784],[-86.1621,11.5279,16.8423],[-86.1665,11.5231,5.6968],[-86.174,11.5187,0.0],[-86.169,11.5154,3.844],[-86.1657,11.5076,0.0],[-86.1721,11.5032,0.0],[-86.1738,11.4996,0.0],[-86.1718,11.4987,0.0],[-86.1732,11.496,0.0],[-86.1696,11.4965,1.2022],[-86.1698,11.4941,0.0],[-86.1679,11.4935,0.0],[-86.1668,11.4946,9.1457],[-86.1604,11.4869,2.6723],[-86.1624,11.4829,0.0],[-86.1601,11.4824,0.9376],[-86.1607,11.4799,0.0],[-86.1596,11.4807,0.2879],[-86.1576,11.4782,0.0],[-86.1574,11.4821,9.498],[-86.1518,11.4815,1.7621],[-86.1485,11.4793,0.0],[-86.1482,11.4765,0.0],[-86.1426,11.4771,8.2262],[-86.1415,11.4746,0.0],[-86.136,11.4726,0.0],[-86.131,11.474,3.181],[-86.1187,11.4671,5.0089],[-86.1104,11.459,16.8237],[-86.1054,11.4565,0.0],[-86.1046,11.4547,0.0],[-86.1062,11.4518,0.0],[-86.1018,11.4527,6.5049],[-86.0887,11.4441,5.5961],[-86.0849,11.4329,0.0],[-86.0818,11.4338,45.0208],[-86.0779,11.4271,3.6919],[-86.0754,11.4276,45.7525],[-86.0729,11.4255,42.1865],[-86.0721,11.4146,7.4554],[-86.0687,11.4143,19.9522],[-86.0665,11.4115,0.0],[-86.0604,11.4137,0.0],[-86.0599,11.4118,0.0],[-86.046,11.4051,0.0],[-86.0454,11.4007,0.0],[-86.0426,11.4024,14.7589],[-86.0379,11.3991,7.8573],[-86.0346,11.3949,7.841],[-86.0357,11.3924,0.0],[-86.0335,11.391,0.0],[-86.0326,11.3862,1.8012],[-86.0385,11.384,0.0],[-86.0373,11.3829,0.0],[-86.0315,11.3838,16.1168],[-86.0298,11.3819,32.2187],[-86.0326,11.3796,0.0],[-86.031,11.3779,0.0],[-86.0287,11.3788,24.5488],[-86.0254,11.3754,0.0],[-86.0198,11.3754,16.3321],[-86.0207,11.3721,2.0289],[-86.0146,11.3743,21.1914],[-86.0118,11.3738,26.086],[-86.0074,11.3685,0.0],[-86.0113,11.3621,0.0],[-86.0085,11.3599,0.0],[-86.0048,11.361,35.1809],[-86.0027,11.3568,0.0],[-86.0035,11.3543,0.0],[-86.0013,11.3565,0.0],[-85.9993,11.3565,1.9142],[-85.9995,11.3549,0.0],[-85.9976,11.356,0.0],[-85.9954,11.3547,17.1718],[-85.9957,11.3499,10.3897],[-85.9932,11.3482,12.056],[-85.9932,11.346,2.2774],[-85.9885,11.3476,2.8641],[-85.9838,11.3454,13.4477],[-85.981,11.3412,0.0],[-85.9793,11.3471,9.587],[-85.9782,11.3454,0.0],[-85.9723,11.3449,3.5223],[-85.9504,11.3291,13.2621],[-85.9498,11.3257,0.0],[-85.9471,11.3249,0.0],[-85.9476,11.3215,0.0],[-85.9446,11.3215,36.6112],[-85.944,11.3185,0.0],[-85.939,11.3165,0.0],[-85.9371,11.3129,0.0],[-85.9335,11.3112,24.6789],[-85.9335,11.3096,44.0267],[-85.9362,11.3093,0.0],[-85.934,11.3063,0.0],[-85.9321,11.3065,12.4482],[-85.9268,11.3029,0.0],[-85.9265,11.3071,31.7244],[-85.9215,11.3074,4.2034],[-85.9199,11.3054,19.1893],[-85.9212,11.3021,0.0],[-85.919,11.3032,0.0],[-85.9154,11.2996,13.1406],[-85.9201,11.2954,0.0],[-85.9146,11.2974,11.8978],[-85.9112,11.2926,0.1412],[-85.9079,11.2921,18.1907],[-85.9076,11.2868,0.0],[-85.9037,11.2865,0.0],[-85.9032,11.2829,9.407],[-85.9051,11.2832,0.0],[-85.9054,11.2807,15.216],[-85.8996,11.2763,0.0],[-85.9013,11.2746,15.9764],[-85.9035,11.276,0.0],[-85.9035,11.2732,0.0],[-85.8999,11.2727,6.3923],[-85.8976,11.2696,0.0],[-85.8949,11.2721,19.9578],[-85.8921,11.2713,0.0],[-85.891,11.269,4.1795],[-85.8887,11.271,1.6773],[-85.8865,11.2701,0.7702],[-85.8876,11.2663,10.1111],[-85.8938,11.2663,0.0],[-85.8938,11.2629,0.0],[-85.8921,11.2629,0.0],[-85.8893,11.2588,6.4782],[-85.8867,11.2596,4.6962],[-85.8835,11.2565,0.0],[-85.8796,11.2613,3.3321],[-85.8752,11.2598,0.0],[-85.8734,11.2574,7.8399],[-85.8732,11.2513,4.084],[-85.8793,11.2499,3.9933],[-85.8812,11.2421,12.5513],[-85.8793,11.2415,0.0],[-85.8768,11.2435,14.1039],[-85.8763,11.2407,7.1639],[-85.8732,11.239,3.6769],[-85.8715,11.2421,24.7195],[-85.8673,11.2374,1.9513],[-85.8688,11.2363,0.0],[-85.8682,11.2343,8.9155],[-85.866,11.2357,22.9057],[-85.8629,11.2346,2.4221],[-85.854,11.2254,26.3662],[-85.8526,11.2204,0.0],[-85.8509,11.2215,2.9728],[-85.8468,11.2207,22.6931],[-85.849,11.2171,0.0],[-85.8424,11.2126,3.9204],[-85.8429,11.2066,0.5157],[-85.839,11.2082,2.9614],[-85.8351,11.206,9.5543],[-85.8288,11.196,27.8473],[-85.8246,11.1935,4.562],[-85.8246,11.1901,0.0],[-85.8193,11.1871,3.2399],[-85.8193,11.1829,0.0],[-85.8171,11.1835,8.6094],[-85.8142,11.1796,2.8222],[-85.8129,11.1726,20.1149],[-85.8096,11.1713,3.0713],[-85.8074,11.1679,0.0],[-85.8079,11.1626,0.0],[-85.806,11.1599,0.0],[-85.8026,11.159,24.4782],[-85.8013,11.1563,3.929],[-85.7999,11.1485,12.873],[-85.8021,11.146,10.0116],[-85.799,11.1446,0.0],[-85.796,11.1462,2.5655],[-85.7946,11.144,0.0],[-85.794,11.1343,14.4676],[-85.799,11.1327,0.0],[-85.799,11.1288,0.0],[-85.7957,11.1268,0.0],[-85.7962,11.1246,0.0],[-85.789,11.1199,0.0],[-85.7896,11.116,4.8929],[-85.786,11.1143,0.0],[-85.7857,11.1165,0.0],[-85.7793,11.1169,0.0],[-85.779,11.1124,0.0],[-85.7812,11.1115,0.0],[-85.7787,11.1082,0.0],[-85.7776,11.1079,0.0],[-85.7757,11.1113,9.8896],[-85.7737,11.1107,40.5359],[-85.7701,11.1057,0.0],[-85.7657,11.109,6.0473],[-85.7631,11.1088,8.4911],[-85.7577,11.1029,5.2141],[-85.7582,11.101,15.5822],[-85.7599,11.1007,0.0],[-85.7588,11.0987,0.0],[-85.7538,11.0993,8.8959],[-85.7532,11.0971,0.0],[-85.7454,11.0968,0.0],[-85.7426,11.0874,11.5695],[-85.7396,11.0885,0.0],[-85.7393,11.0915,3.0614],[-85.736,11.0918,0.0],[-85.7332,11.0885,0.0],[-85.7199,11.0885,0.0],[-85.7171,11.0854,0.0],[-85.7142,11.086,13.6459],[-85.709,11.0799,0.0],[-85.693,11.0789,5.97],[-85.6239,11.196,118.1034]]],
[[[-86.0029,11.3526,3.9471],[-86.0046,11.3518,0.0],[-86.0024,11.3504,0.0],[-86.0021,11.3518,0.0],[-86.0029,11.3526,3.9471]]]]}}