{"type": "Feature","bbox": [-84.63,11.3762,-84.0312,11.9841],"geometry": {"type": "MultiPolygon","coordinates": [[[[-84.0765,11.7197,30.2461],[-84.0834,11.7268,29.486],[-84.1105,11.7622,142.4201],[-84.1429,11.7967,99.5882],[-84.1683,11.8338,254.3382],[-84.1849,11.8517,369.2584],[-84.2111,11.8887,157.4699],[-84.2294,11.9077,225.9695],[-84.2566,11.9434,25.4149],[-84.2588,11.9437,23.6459],[-84.2637,11.9394,32.9849],[-84.2713,11.9384,55.8789],[-84.2793,11.9342,38.4158],[-84.2835,11.9297,38.189],[-84.2872,11.9283,23.6311],[-84.2933,11.9296,24.347],[-84.2952,11.9327,27.3284],[-84.292,11.9431,25.4939],[-84.2964,11.9504,46.0635],[-84.3067,11.9567,64.0634],[-84.3087,11.9605,62.0466],[-84.307,11.9746,32.9848],[-84.3111,11.9803,68.5391],[-84.3357,11.9816,128.1969],[-84.3472,11.9801,120.2319],[-84.3496,11.9808,122.6629],[-84.3515,11.9841,118.7138],[-84.3563,11.9826,96.1063],[-84.3606,11.9774,41.1328],[-84.3673,11.9635,108.1327],[-84.3844,11.96,68.949],[-84.3914,11.9547,55.6024],[-84.3965,11.953,56.5435],[-84.4203,11.9594,78.6385],[-84.4549,11.9617,69.3496],[-84.4642,11.9644,99.6221],[-84.469,11.9683,104.2928],[-84.4758,11.9796,116.3856],[-84.4812,11.9819,115.9814],[-84.4992,11.9796,74.9449],[-84.5005,11.9772,70.8652],[-84.4981,11.9664,92.5574],[-84.4988,11.9596,86.0922],[-84.5063,11.9433,88.5463],[-84.5092,11.9411,86.5125],[-84.52,11.9396,90.6003],[-84.5305,11.9411,135.1047],[-84.5421,11.94,201.2292],[-84.5514,11.9329,79.7186],[-84.562,11.9276,84.672],[-84.573,11.9108,161.0593],[-84.5721,11.9089,185.5743],[-84.5738,11.9061,147.1342],[-84.6016,11.9044,88.9432],[-84.6246,11.8971,102.2368],[-84.6281,11.8949,96.7977],[-84.63,11.8904,105.1977],[-84.6258,11.8732,113.9396],[-84.6157,11.8598,115.5651],[-84.61,11.8462,144.2768],[-84.6015,11.808,234.6444],[-84.5833,11.7582,192.2387],[-84.5785,11.7524,207.8466],[-84.5662,11.7534,213.046],[-84.562,11.7515,197.4927],[-84.5601,11.7483,201.2958],[-84.56,11.7385,207.8543],[-84.5699,11.7091,215.6828],[-84.5713,11.7003,196.3995],[-84.5706,11.6901,199.1145],[-84.5671,11.6809,204.2688],[-84.5425,11.6505,243.1959],[-84.5378,11.6383,243.8796],[-84.5398,11.6172,281.0993],[-84.5586,11.5885,362.8292],[-84.564,11.5777,255.443],[-84.5683,11.5656,251.5155],[-84.5711,11.5489,167.4557],[-84.5709,11.5188,180.2947],[-84.5629,11.4822,225.1427],[-84.5629,11.4518,147.6728],[-84.5612,11.4419,161.3394],[-84.5579,11.4355,150.653],[-84.5436,11.4255,132.9367],[-84.5273,11.42,204.0537],[-84.497,11.4152,227.3275],[-84.4865,11.411,227.049],[-84.4615,11.3944,167.8324],[-84.4545,11.3873,195.7735],[-84.4342,11.3762,257.1022],[-84.4272,11.3815,236.9824],[-84.4049,11.3811,220.67],[-84.3946,11.3836,209.9997],[-84.3719,11.3967,224.8698],[-84.3504,11.4181,240.6815],[-84.3156,11.4269,197.9059],[-84.301,11.4433,166.0364],[-84.2916,11.4503,206.511],[-84.2578,11.4607,99.9467],[-84.2549,11.4639,175.713],[-84.2481,11.481,233.1041],[-84.2309,11.5095,61.1987],[-84.2215,11.5195,98.3018],[-84.2172,11.5287,80.957],[-84.2031,11.5407,65.8073],[-84.1915,11.5543,163.4812],[-84.1769,11.5597,167.2249],[-84.1645,11.5591,157.4813],[-84.1557,11.5635,179.3594],[-84.1529,11.5575,172.5296],[-84.1456,11.5633,156.4102],[-84.1297,11.5641,143.5833],[-84.122,11.5613,76.1556],[-84.1218,11.55,57.5325],[-84.1155,11.5488,34.2604],[-84.112,11.5506,32.8967],[-84.1064,11.5603,35.8635],[-84.1021,11.5637,18.3363],[-84.095,11.5628,23.4253],[-84.0834,11.5678,38.9985],[-84.0758,11.5683,123.8566],[-84.0689,11.5657,97.142],[-84.0592,11.5583,10.9032],[-84.0559,11.5579,10.3332],[-84.0521,11.5611,10.0787],[-84.050299999999993,11.5711,74.8723],[-84.0435,11.5729,27.093],[-84.0398,11.5779,18.4192],[-84.0312,11.5807,23.6885],[-84.0365,11.6053,38.4121],[-84.0492,11.6459,28.8024],[-84.0649,11.6865,17.5429],[-84.07,11.7109,22.9254],[-84.0765,11.7197,30.2461]]]]}
,"properties": {"GID_2": "NIC.2.8_1","GID_0": "NIC","country": "Nicaragua","GID_1": "NIC.2_1","province": "AtlánticoSur","NL_NAME_1": "NA","county": "NuevaGuinea","VARNAME_2": "NA","NL_NAME_2": "NA","TYPE_2": "Municipio","ENGTYPE_2": "Municipality","CC_2": "NA","HASC_2": "NI.AS.NG","name": "Nueva_Guinea.county","area_km2": 2764.106,"hist_schema_id": "Elevation0-9000","hist_area_km2": {"0": 5.109,"25": 130.311,"50": 185.466,"75": 191.036,"100": 260.177,"125": 216.193,"150": 267.951,"175": 483.847,"200": 395.459,"225": 267.356,"250": 168.964,"275": 93.66,"300": 48.002,"325": 22.007,"350": 11.564,"375": 5.211,"400": 2.741,"425": 2.221,"450": 1.952,"475": 1.889,"500": 1.059,"525": 0.664,"550": 0.436,"575": 0.332,"600": 0.457,"625": 0.042}}}