{"type": "Feature","bbox": [-86.7492,13.201599999999999,-86.627,13.3087],"geometry": {"type": "MultiPolygon","coordinates": [[[[-86.7492,13.2677,900.0961],[-86.7386,13.2636,686.5229],[-86.7226,13.2681,551.711],[-86.7171,13.2649,499.5267],[-86.7079,13.2331,353.2613],[-86.7128,13.216,294.1087],[-86.7181,13.2064,298.0571],[-86.7162,13.201599999999999,286.9436],[-86.7057,13.2082,320.4328],[-86.6486,13.2658,978.8771],[-86.627,13.2854,1478.215],[-86.644,13.3052,1095.8882],[-86.6539,13.3087,1075.4475],[-86.6739,13.3087,1147.5358],[-86.6902,13.3054,895.3593],[-86.703,13.3066,1134.2026],[-86.7065,13.2954,939.0656],[-86.7405,13.2711,638.3139],[-86.7492,13.2677,900.0961]]]]}
,"properties": {"GID_2": "NIC.12.3_1","GID_0": "NIC","country": "Nicaragua","GID_1": "NIC.12_1","province": "Madriz","NL_NAME_1": "NA","county": "SanJosédeCusmapa","VARNAME_2": "NA","NL_NAME_2": "NA","TYPE_2": "Municipio","ENGTYPE_2": "Municipality","CC_2": "NA","HASC_2": "NI.MD.SC","name": "San_Joséde_Cusmapa.county","area_km2": 66.81976,"hist_schema_id": "Elevation0-9000","hist_area_km2": {"275": 0.2477,"300": 0.61923,"325": 0.94944,"350": 1.09388,"375": 1.63043,"400": 2.08445,"425": 2.00188,"450": 1.89866,"475": 1.32081,"500": 1.44461,"525": 1.50651,"550": 1.48587,"575": 1.6716,"600": 1.91923,"625": 1.50649,"650": 2.14619,"675": 2.06364,"700": 1.65091,"725": 2.29059,"750": 1.89852,"775": 1.96044,"800": 2.31125,"825": 2.04294,"850": 2.16675,"875": 2.2906,"900": 1.71276,"925": 1.71273,"950": 1.63019,"975": 1.4032,"1000": 1.07304,"1025": 1.21746,"1050": 1.11426,"1075": 1.50628,"1100": 1.36185,"1125": 1.42374,"1150": 1.11424,"1175": 1.1555,"1200": 1.48566,"1225": 1.11425,"1250": 1.15552,"1275": 1.46504,"1300": 0.84602,"1325": 0.39206,"1350": 0.26825,"1375": 0.39206,"1400": 0.14444,"1425": 0.28889,"1450": 0.24762,"1475": 0.20635,"1500": 0.12381,"1525": 0.0619}}}