{"type": "Feature","bbox": [-85.3905,12.778,-84.7172,13.3741],"geometry": {"type": "MultiPolygon","coordinates": [[[[-85.1018,13.2906,148.8504],[-85.1252,13.2704,185.5516],[-85.1382,13.2523,251.2054],[-85.1438,13.2412,370.4222],[-85.1469,13.2294,168.2074],[-85.1466,13.2071,219.4699],[-85.1498,13.1948,162.5922],[-85.1539,13.1867,121.1537],[-85.1705,13.1654,223.7394],[-85.1886,13.1468,148.1744],[-85.1905,13.1458,134.1537],[-85.1985,13.1496,345.5745],[-85.2037,13.1468,394.3747],[-85.2115,13.1346,318.9961],[-85.2297,13.1344,216.4078],[-85.2336,13.1322,210.2196],[-85.2401,13.1195,163.0546],[-85.2444,13.1183,188.2724],[-85.2497,13.1204,176.2833],[-85.2571,13.1266,260.093],[-85.2656,13.1275,340.7065],[-85.2711,13.1373,299.2319],[-85.283,13.1401,228.4394],[-85.287,13.1464,152.1237],[-85.2921,13.1451,187.3556],[-85.2979,13.1367,164.2046],[-85.3023,13.1343,178.8427],[-85.3195,13.1398,332.9105],[-85.3252,13.1367,386.4366],[-85.3364,13.124,333.2659],[-85.3482,13.117,418.5754],[-85.3642,13.1128,348.6149],[-85.3784,13.1123,172.7041],[-85.3805,13.1087,248.8202],[-85.3829,13.0919,338.574],[-85.3905,13.0784,209.962],[-85.3886,13.0731,167.9484],[-85.3878,13.0606,432.0365],[-85.3817,13.0504,246.8088],[-85.3757,13.045,434.3752],[-85.3543,13.0345,339.3742],[-85.3435,13.0187,417.3217],[-85.3332,12.9984,241.6276],[-85.3244,12.9928,233.9547],[-85.3059,12.9845,239.7919],[-85.3007,12.9798,295.0927],[-85.3007,12.9748,275.3733],[-85.3031,12.9695,324.3058],[-85.3175,12.9647,277.7431],[-85.3219,12.9586,279.0439],[-85.3243,12.9321,297.6634],[-85.3233,12.924,289.9346],[-85.3193,12.917,361.6741],[-85.2917,12.8964,254.8435],[-85.2701,12.8736,230.2252],[-85.2522,12.8495,209.7745],[-85.2445,12.8302,204.9538],[-85.2381,12.8226,223.2161],[-85.2222,12.8104,183.8347],[-85.2168,12.8033,190.4859],[-85.2091,12.7992,184.1853],[-85.2075,12.7968,184.5303],[-85.2008,12.7952,194.2009],[-85.1857,12.7855,247.1615],[-85.1758,12.7835,180.2977],[-85.1676,12.778,173.2864],[-85.1616,12.7795,199.7569],[-85.1527,12.7882,161.7858],[-85.1364,12.8072,176.2119],[-85.1332,12.813,228.7554],[-85.1338,12.8199,219.6112],[-85.1424,12.8309,170.2967],[-85.1447,12.8352,172.5265],[-85.1438,12.8373,174.5054],[-85.1215,12.8346,268.0459],[-85.107,12.8306,221.9812],[-85.0893,12.8233,281.0925],[-85.0832,12.8231,331.2964],[-85.0735,12.8254,165.0362],[-85.0546,12.8346,317.1589],[-85.0313,12.8586,223.338],[-85.0209,12.8635,267.1553],[-84.9909,12.8515,158.3115],[-84.9739,12.8523,221.7651],[-84.9488,12.849,236.9615],[-84.9445,12.8507,311.5251],[-84.9371,12.8572,305.1923],[-84.9322,12.8669,147.5595],[-84.9281,12.8827,181.9682],[-84.9236,12.8886,319.321],[-84.9175,12.8907,211.2963],[-84.9038,12.8911,93.018],[-84.8892,12.8972,134.5565],[-84.867,12.9207,110.199],[-84.8527,12.9274,88.8084],[-84.8405,12.9381,144.8137],[-84.7893,12.9477,146.4326],[-84.7865,12.9459,112.6009],[-84.7817,12.9373,60.5201],[-84.7749,12.9369,65.9389],[-84.7651,12.9393,91.0203],[-84.7562,12.945,103.0415],[-84.7411,12.9491,109.7491],[-84.7396,12.9523,124.5303],[-84.7443,12.9621,102.2413],[-84.7443,12.9697,106.1104],[-84.7407,12.9742,94.3839],[-84.7306,12.9789,84.4004],[-84.7276,12.9853,80.0717],[-84.7341,13.0015,104.2411],[-84.7299,13.0162,75.2437],[-84.732,13.0237,86.8448],[-84.7313,13.0314,85.2746],[-84.7187,13.0468,73.0192],[-84.7172,13.0506,81.9945],[-84.7198,13.0515,82.6845],[-84.7309,13.0497,66.3128],[-84.7353,13.0518,52.9683],[-84.737799999999993,13.0601,66.1803],[-84.7529,13.0745,40.9041],[-84.7623,13.0947,64.4179],[-84.7728,13.1253,73.7227],[-84.7792,13.1306,65.1473],[-84.7923,13.1314,67.1687],[-84.792,13.1388,62.5232],[-84.7942,13.1416,83.3441],[-84.8002,13.1427,63.853],[-84.7437,13.2201,82.6505],[-84.8692,13.3741,91.7774],[-84.8781,13.3685,101.925],[-84.9081,13.3412,145.8015],[-84.9471,13.2996,109.1837],[-84.9647,13.2826,100.2644],[-84.9699,13.2801,102.1037],[-84.9804,13.2795,110.9814],[-85.0024,13.2839,105.8232],[-85.0603,13.2852,169.9451],[-85.0953,13.2924,172.0979],[-85.1018,13.2906,148.8504]]]]}
,"properties": {"GID_2": "NIC.15.7_1","GID_0": "NIC","country": "Nicaragua","GID_1": "NIC.15_1","province": "Matagalpa","NL_NAME_1": "NA","county": "RíoBlanco","VARNAME_2": "NA","NL_NAME_2": "NA","TYPE_2": "Municipio","ENGTYPE_2": "Municipality","CC_2": "NA","HASC_2": "NI.MT.RB","name": "Río_Blanco.county","area_km2": 2708.489,"hist_schema_id": "Elevation0-9000","hist_area_km2": {"25": 0.806,"50": 11.132,"75": 151.884,"100": 577.954,"125": 440.152,"150": 256.327,"175": 201.915,"200": 172.848,"225": 148.532,"250": 133.992,"275": 112.213,"300": 94.503,"325": 77.414,"350": 65.904,"375": 51.215,"400": 36.36,"425": 28.426,"450": 22.889,"475": 17.558,"500": 14.439,"525": 12.683,"550": 10.886,"575": 9.935,"600": 8.903,"625": 7.498,"650": 5.722,"675": 3.801,"700": 3.656,"725": 2.789,"750": 2.148,"775": 2.417,"800": 2.045,"825": 1.55,"850": 1.529,"875": 1.426,"900": 1.24,"925": 1.198,"950": 1.074,"975": 1.074,"1000": 0.806,"1025": 1.136,"1050": 0.888,"1075": 0.868,"1100": 0.826,"1125": 0.682,"1150": 0.578,"1175": 0.723,"1200": 0.723,"1225": 0.537,"1250": 0.537,"1275": 0.413,"1300": 0.475,"1325": 0.537,"1350": 0.31,"1375": 0.248,"1400": 0.124,"1425": 0.041}}}