{"type": "Feature","bbox": [-86.522,13.4184,-86.443,13.5277],"geometry": {"type": "MultiPolygon","coordinates": [[[[-86.485,13.4184,677.0238],[-86.486,13.4319,743.9385],[-86.4842,13.435,703.2836],[-86.4726,13.4379,666.2767],[-86.4689,13.4403,728.986],[-86.4634,13.4628,669.7787],[-86.4584,13.4748,584.8062],[-86.4517,13.4864,715.937],[-86.443,13.4955,647.5658],[-86.4534,13.5028,701.6342],[-86.4729,13.5121,721.4707],[-86.5164,13.5277,902.0679],[-86.5196,13.5241,927.9709],[-86.5205,13.5189,1045.7778],[-86.522,13.4899,688.1525],[-86.5153,13.4649,760.9359],[-86.5085,13.4523,724.8297],[-86.5109,13.4405,886.6097],[-86.5078,13.4257,737.9838],[-86.485,13.4184,677.0238]]]]}
,"properties": {"GID_2": "NIC.12.9_1","GID_0": "NIC","country": "Nicaragua","GID_1": "NIC.12_1","province": "Madriz","NL_NAME_1": "NA","county": "Yalagüina","VARNAME_2": "NA","NL_NAME_2": "NA","TYPE_2": "Municipio","ENGTYPE_2": "Municipality","CC_2": "NA","HASC_2": "NI.MD.YA","name": "Yalagüina.county","area_km2": 60.47347,"hist_schema_id": "Elevation0-9000","hist_area_km2": {"575": 0.04124,"600": 1.03092,"625": 2.84536,"650": 5.79386,"675": 8.18567,"700": 8.53621,"725": 8.47441,"750": 7.62876,"775": 6.32964,"800": 4.04102,"825": 2.18548,"850": 1.81433,"875": 1.1752,"900": 0.49479,"925": 0.43292,"950": 0.37106,"975": 0.26799,"1000": 0.18553,"1025": 0.24738,"1050": 0.08246,"1075": 0.16492,"1100": 0.08246,"1125": 0.06184}}}