{"type":"Feature","properties":{"GID_2":"NIC.6.3_1","GID_0":"NIC","country":"Nicaragua","GID_1":"NIC.6_1","province":"Chontales","NL_NAME_1":"NA","county":"Juigalpa","VARNAME_2":"NA","NL_NAME_2":"NA","TYPE_2":"Municipio","ENGTYPE_2":"Municipality","CC_2":"NA","HASC_2":"NI.CO.JU","name":"Juigalpa.county"},
"geometry":{"type": "MultiPolygon","coordinates": [[[[-85.4699,12.3089,467.0182],[-85.4719,12.2959,300.8043],[-85.4785,12.2752,399.1231],[-85.4792,12.2678,291.4812],[-85.4769,12.2509,214.7405],[-85.4699,12.2327,228.4582],[-85.4784,12.2199,297.3701],[-85.484,12.2006,198.6865],[-85.479,12.1742,201.5555],[-85.4691,12.1463,192.2563],[-85.4676,12.1363,155.072],[-85.468,12.1164,111.5565],[-85.475,12.077,323.3155],[-85.478,12.0345,220.0779],[-85.4813,12.0254,239.5234],[-85.487,12.0213,191.7177],[-85.4918,12.02,117.2067],[-85.5019,12.0213,77.1189],[-85.5139,12.0188,62.408],[-85.5184,12.013,37.8793],[-85.525,11.9983,33.0308],[-85.5297,11.9935,31.2392],[-85.5357,11.9825,31.0],[-85.5425,11.9785,31.0],[-85.5303,11.9673,31.0],[-85.5223,11.9562,31.0],[-85.4827,11.8907,31.0],[-85.4733,11.8811,31.0],[-85.4705,11.8801,31.0],[-85.4608,11.8813,31.0],[-85.4482,11.869,31.0],[-85.438,11.8629,31.0],[-85.4347,11.8654,31.0],[-85.4321,11.8766,31.0],[-85.4284,11.8786,31.0],[-85.4208,11.8772,31.0],[-85.4023,11.8679,31.0],[-85.377,11.8666,31.0],[-85.3791,11.8766,31.0],[-85.3782,11.8823,31.0],[-85.3676,11.8809,31.0],[-85.3531,11.8853,39.3505],[-85.334,11.8867,53.626],[-85.3162,11.8947,47.6024],[-85.3113,11.9039,39.9938],[-85.3048,11.9058,39.9913],[-85.303,11.9085,41.0318],[-85.3051,11.932,42.9524],[-85.3039,11.9478,48.1688],[-85.3066,11.9546,50.7825],[-85.3064,11.9639,54.3935],[-85.2978,11.9769,60.8974],[-85.2939,11.9864,66.7581],[-85.2922,12.0179,99.5107],[-85.2827,12.0637,199.3332],[-85.2741,12.0944,457.8049],[-85.2652,12.1438,644.7167],[-85.2659,12.152,507.3256],[-85.2778,12.1709,711.1635],[-85.2803,12.1996,410.2195],[-85.2782,12.2275,519.3382],[-85.267,12.2674,447.4899],[-85.2667,12.2802,453.3],[-85.2713,12.2862,468.3123],[-85.29,12.284,563.2472],[-85.2981,12.296,531.5847],[-85.3027,12.3168,352.6884],[-85.3015,12.326599999999999,356.8269],[-85.2985,12.3348,360.2204],[-85.3004,12.3374,351.6621],[-85.3172,12.3245,369.0549],[-85.3429,12.3221,537.0314],[-85.3982,12.3113,599.2863],[-85.4318,12.308,495.4422],[-85.4396,12.3098,459.4012],[-85.4455,12.3174,476.7638],[-85.4523,12.3184,442.2316],[-85.4699,12.3089,467.0182]]]]}}