{"type": "Feature","bbox": [-87.3774,12.8055,-86.7579,13.171],"geometry": {"type": "MultiPolygon","coordinates": [[[[-87.3115,12.9906,0.0],[-87.3118,12.989,0.0],[-87.3085,12.986,4.4919],[-87.311,12.9827,2.6214],[-87.2747,12.9772,7.2262],[-87.2601,12.9693,2.4242],[-87.2577,12.9659,0.3418],[-87.2604,12.9627,3.859],[-87.282,12.9561,1.0],[-87.2967,12.9482,1.0],[-87.3062,12.9355,2.0601],[-87.3113,12.9323,4.6709],[-87.3575,12.93,7.5219],[-87.3774,12.9318,0.0],[-87.3679,12.9265,0.0],[-87.3707,12.9132,4.1177],[-87.3763,12.9132,1.1942],[-87.3747,12.9075,7.8685],[-87.3692,12.8995,9.8081],[-87.3648,12.8851,7.3833],[-87.362799999999993,12.8859,5.3098],[-87.3619,12.8893,2.7444],[-87.362,12.8953,2.0],[-87.362799999999993,12.9007,0.0],[-87.3701,12.9152,0.0],[-87.3695,12.9173,0.0],[-87.3477,12.9184,0.0],[-87.3402,12.9139,1.2182],[-87.3396,12.9067,1.0],[-87.3219,12.8999,1.4541],[-87.3193,12.8973,1.0],[-87.32,12.8909,1.0],[-87.3148,12.8777,1.0],[-87.3119,12.8761,1.5945],[-87.3064,12.8769,1.0553],[-87.3067,12.8794,0.7341],[-87.3133,12.888,1.3976],[-87.3117,12.8926,6.6503],[-87.3155,12.8974,1.5703],[-87.3147,12.9021,1.9789],[-87.3269,12.9092,1.0],[-87.3355,12.9117,1.0],[-87.3356,12.9138,1.0],[-87.3315,12.917,2.1495],[-87.3307,12.9221,0.0],[-87.3281,12.9235,0.0],[-87.3153,12.9278,4.2165],[-87.3064,12.9277,0.0],[-87.285,12.9035,2.6124],[-87.2791,12.9,0.0],[-87.2647,12.9011,1.0],[-87.2587,12.9032,1.0],[-87.2473,12.9107,1.0],[-87.232,12.912,1.0],[-87.2267,12.9101,1.24],[-87.2204,12.8956,1.0],[-87.211,12.8943,0.0],[-87.1983,12.8985,1.0],[-87.1934,12.8981,1.0],[-87.1874,12.894,1.0],[-87.1715,12.8673,11.0226],[-87.1387,12.8499,0.5],[-87.1201,12.8432,2.0914],[-87.1139,12.8499,7.7564],[-87.1121,12.8577,2.8602],[-87.1131,12.8673,1.5],[-87.1106,12.8707,1.659],[-87.102,12.8708,1.5245],[-87.0942,12.8686,2.1878],[-87.0843,12.8691,2.6353],[-87.0776,12.8669,10.3049],[-87.0752,12.8677,6.6981],[-87.0709,12.8638,2.3159],[-87.0605,12.8656,2.9832],[-87.0581,12.8649,2.2649],[-87.0557,12.849,6.5964],[-87.0382,12.8329,4.921],[-87.0149,12.8324,6.4233],[-86.9951,12.8299,3.849],[-86.9893,12.831,3.4925],[-86.9828,12.8355,2.9002],[-86.9789,12.8355,3.0459],[-86.9734,12.8315,5.9656],[-86.9663,12.816,10.0147],[-86.961,12.8104,11.0091],[-86.9393,12.8056,5.1724],[-86.9284,12.8055,7.8163],[-86.9344,12.8151,8.4397],[-86.9436,12.8367,4.4954],[-86.9459,12.8493,7.0543],[-86.9431,12.8607,9.054],[-86.9189,12.8968,14.7175],[-86.9142,12.9083,18.4178],[-86.9159,12.9252,17.5567],[-86.9249,12.951599999999999,18.7988],[-86.9255,12.9653,22.4382],[-86.9207,12.9887,30.6165],[-86.9118,13.0139,37.9074],[-86.9078,13.0184,36.5273],[-86.9037,13.0186,42.2149],[-86.8917,13.016,42.312],[-86.88,13.0188,37.7295],[-86.8656,13.0143,56.0516],[-86.8619,13.017,68.0082],[-86.8564,13.0269,51.1716],[-86.8467,13.0327,61.792],[-86.8454,13.035,60.7035],[-86.85,13.0428,70.3409],[-86.8505,13.0468,77.16],[-86.8458,13.0522,60.8681],[-86.84,13.0549,71.796],[-86.8276,13.0533,79.1661],[-86.818,13.0547,65.3205],[-86.8072,13.0537,86.429],[-86.7993,13.0577,80.7516],[-86.79,13.0592,100.3451],[-86.7864,13.0617,97.413],[-86.7712,13.0773,94.093],[-86.7579,13.0858,97.8869],[-86.7644,13.1068,132.9682],[-86.7631,13.1139,140.1019],[-86.7581,13.122,196.8489],[-86.7584,13.1277,152.0449],[-86.7635,13.1327,159.1425],[-86.7679,13.1342,148.8454],[-86.7949,13.1385,124.6449],[-86.8064,13.1422,110.5706],[-86.8128,13.1472,133.8366],[-86.814,13.1512,153.6544],[-86.8106,13.1584,191.4585],[-86.8102,13.1618,148.5274],[-86.8122,13.1653,151.9468],[-86.824,13.1688,160.6184],[-86.8389,13.171,207.2213],[-86.8536,13.1705,414.5786],[-86.869,13.1678,377.0532],[-86.8798,13.1418,161.7743],[-86.8886,13.1336,111.5964],[-86.8955,13.1314,103.2297],[-86.9017,13.1315,171.9816],[-86.908,13.1339,87.1675],[-86.9141,13.139,76.8995],[-86.9183,13.1455,89.258],[-86.9224,13.1452,71.1206],[-86.926,13.1415,90.224],[-86.9234,13.1337,67.8762],[-86.9333,13.1211,70.1791],[-86.9275,13.1116,59.7656],[-86.9263,13.1024,48.6945],[-86.9179,13.0923,46.5978],[-86.9184,13.0893,61.0044],[-86.9283,13.079,48.2575],[-86.9481,13.0641,39.8753],[-86.9525,13.0589,37.0621],[-86.9561,13.0511,51.583],[-86.959,13.0322,24.7003],[-86.9604,13.0306,23.9765],[-86.9656,13.0299,22.9638],[-86.9684,13.0256,21.7684],[-86.9776,13.0201,18.1405],[-86.9787,13.0176,20.297],[-86.9773,13.0157,29.1973],[-86.9823,13.0151,24.5167],[-86.9907,13.0181,20.4372],[-86.9944,13.0165,20.9187],[-87.0079,13.0044,12.6723],[-87.0123,13.0025,11.6247],[-87.0219,13.006,13.7682],[-87.024,13.0046,13.8452],[-87.0277,12.9888,11.9499],[-87.0315,12.9867,10.4819],[-87.0488,12.9845,10.8672],[-87.0544,12.9865,11.0183],[-87.0667,12.9971,8.297],[-87.0853,12.9985,11.41],[-87.1227,12.9983,2.0191],[-87.2813,12.9852,5.4073],[-87.309,12.9878,5.2403],[-87.3115,12.9906,0.0]]]]}
,"properties": {"GID_2": "NIC.5.11_1","GID_0": "NIC","country": "Nicaragua","GID_1": "NIC.5_1","province": "Chinandega","NL_NAME_1": "NA","county": "Somotillo","VARNAME_2": "NA","NL_NAME_2": "NA","TYPE_2": "Municipio","ENGTYPE_2": "Municipality","CC_2": "NA","HASC_2": "NI.CI.SO","name": "Somotillo.county","area_km2": 853.3017,"hist_schema_id": "Elevation0-9000","hist_area_km2": {"0": 482.7065,"25": 135.9732,"50": 64.0321,"75": 54.8721,"100": 36.6958,"125": 31.6966,"150": 21.9293,"175": 11.1089,"200": 4.5837,"225": 3.1176,"250": 2.1472,"275": 1.5691,"300": 1.3626,"325": 0.6813,"350": 0.4542,"375": 0.1239,"400": 0.0826,"425": 0.0826,"450": 0.0619,"475": 0.0206}}}