{"type": "Feature","bbox": [-86.7945,12.2204,-86.409,12.6135],"geometry": {"type": "MultiPolygon","coordinates": [[[[-86.7646,12.2207,1.0],[-86.7646,12.2204,2.2369],[-86.7643,12.2206,1.0],[-86.7646,12.2207,1.0]]],
[[[-86.4868,12.3496,40.0],[-86.4835,12.3418,40.0],[-86.4817,12.3401,40.0],[-86.4795,12.3407,40.0],[-86.4685,12.3507,105.6514],[-86.4677,12.3553,89.8732],[-86.4697,12.3577,97.7347],[-86.4807,12.3604,40.0],[-86.4873,12.357,40.0],[-86.4868,12.3496,40.0]]],
[[[-86.4708,12.6125,61.7869],[-86.4728,12.6135,62.2033],[-86.4942,12.6071,66.9284],[-86.5008,12.602,71.9857],[-86.5064,12.5939,70.4983],[-86.5092,12.5928,73.8088],[-86.5239,12.5955,83.025],[-86.5397,12.5952,76.6172],[-86.5683,12.587,72.4226],[-86.6196,12.5662,89.4487],[-86.6221,12.5535,97.6098],[-86.6247,12.5129,167.2243],[-86.6298,12.4745,112.1528],[-86.6382,12.4678,206.1635],[-86.6755,12.4689,489.5973],[-86.7074,12.4413,266.0625],[-86.7397,12.4072,175.2745],[-86.7476,12.3623,98.5662],[-86.7629,12.3646,88.9608],[-86.7716,12.3612,83.3186],[-86.7823,12.3495,62.8457],[-86.7945,12.3249,43.0558],[-86.7885,12.2979,25.0052],[-86.7819,12.2815,20.3133],[-86.7819,12.2509,8.4713],[-86.7698,12.2276,0.9801],[-86.7665,12.2254,3.9378],[-86.7661,12.221,1.3238],[-86.7623,12.2219,4.8554],[-86.7555,12.2328,3.6176],[-86.7377,12.235,5.747],[-86.7251,12.2416,1.535],[-86.7123,12.2537,30.8476],[-86.7006,12.2687,40.8176],[-86.6667,12.2744,37.3011],[-86.6582,12.2774,37.7956],[-86.6468,12.2842,44.1642],[-86.6316,12.298,51.4372],[-86.6106,12.3131,58.0656],[-86.5992,12.3173,52.4206],[-86.6059,12.3394,57.7472],[-86.6186,12.3578,94.0539],[-86.6189,12.3621,56.1874],[-86.6132,12.3877,44.7975],[-86.619,12.3953,56.9258],[-86.621,12.3994,67.9365],[-86.6207,12.4037,60.4594],[-86.6064,12.417,41.1066],[-86.5961,12.4227,41.1555],[-86.5911,12.4227,40.0],[-86.588,12.4205,40.0],[-86.5845,12.4141,42.8086],[-86.5853,12.4112,40.0],[-86.5917,12.4104,40.0],[-86.5927,12.4081,40.0],[-86.5885,12.4045,40.0],[-86.5564,12.3921,40.0],[-86.5404,12.3835,40.0],[-86.5119,12.3819,40.0],[-86.5008,12.3868,40.0],[-86.4938,12.3928,40.0],[-86.4901,12.3979,40.0],[-86.478,12.4254,42.0493],[-86.4738,12.4308,41.7346],[-86.4635,12.4389,40.0],[-86.4402,12.4504,40.0],[-86.4113,12.456,40.0],[-86.409,12.4592,40.0],[-86.414,12.4636,40.0],[-86.413,12.472,40.2025],[-86.4146,12.4771,41.8301],[-86.4218,12.483,49.3287],[-86.4335,12.4885,46.9728],[-86.4347,12.4916,49.7395],[-86.4338,12.4935,54.4817],[-86.427,12.4993,50.9583],[-86.4311,12.504,51.0807],[-86.4369,12.5069,52.2493],[-86.4342,12.5116,56.1777],[-86.4355,12.514099999999999,56.0702],[-86.4397,12.5149,53.4963],[-86.4428,12.5105,53.7715],[-86.44,12.5,51.2564],[-86.4533,12.5018,53.0608],[-86.4562,12.5048,54.4921],[-86.4638,12.5342,51.1109],[-86.4594,12.5428,50.1807],[-86.4692,12.5494,51.712],[-86.4675,12.5521,50.3768],[-86.4617,12.5544,57.4391],[-86.4606,12.5567,55.7618],[-86.4672,12.572,57.1771],[-86.4752,12.5806,57.4471],[-86.471,12.5846,59.5126],[-86.4726,12.5892,60.7598],[-86.4664,12.5877,59.4762],[-86.4644,12.5893,60.0003],[-86.4739,12.6018,64.102],[-86.4741,12.6055,61.676],[-86.4694,12.6117,60.6976],[-86.4708,12.6125,61.7869]]]]}
,"properties": {"GID_2": "NIC.11.4_1","GID_0": "NIC","country": "Nicaragua","GID_1": "NIC.11_1","province": "León","NL_NAME_1": "NA","county": "LaPazCentro","VARNAME_2": "NA","NL_NAME_2": "NA","TYPE_2": "Municipio","ENGTYPE_2": "Municipality","CC_2": "NA","HASC_2": "NI.LE.LP","name": "La_Paz_Centro.county","area_km2": 742.647,"hist_schema_id": "Elevation0-9000","hist_area_km2": {"0": 20.9474,"25": 52.6619,"50": 183.4446,"75": 158.7209,"100": 102.8925,"125": 65.4667,"150": 45.3414,"175": 30.1868,"200": 20.7667,"225": 12.6297,"250": 8.0126,"275": 6.0871,"300": 4.5965,"325": 3.582,"350": 3.7477,"375": 3.6027,"400": 3.2921,"425": 2.8159,"450": 2.2362,"475": 1.5322,"500": 1.3251,"525": 0.8903,"550": 0.7454,"575": 0.6419,"600": 0.8075,"625": 0.6626,"650": 0.4762,"675": 0.3727,"700": 0.5383,"725": 0.3934,"750": 0.352,"775": 0.2071,"800": 0.3313,"825": 0.2485,"850": 0.2692,"875": 0.1864,"900": 0.1656,"925": 0.1449,"950": 0.2071,"975": 0.2278,"1000": 0.0828,"1025": 0.1449,"1050": 0.0828,"1075": 0.1242,"1100": 0.0828,"1125": 0.0414,"1150": 0.1656,"1175": 0.0207,"1200": 0.0621,"1225": 0.0621,"1275": 0.0207}}}