{"type":"Feature","properties":{"GID_2":"NIC.9.4_1","GID_0":"NIC","country":"Nicaragua","GID_1":"NIC.9_1","province":"Jinotega","NL_NAME_1":"NA","county":"SanRafaeldelNorte","VARNAME_2":"NA","NL_NAME_2":"NA","TYPE_2":"Municipio","ENGTYPE_2":"Municipality","CC_2":"NA","HASC_2":"NI.JI.SR","name":"San_Rafaeldel_Norte.county"},
"geometry":{"type": "MultiPolygon","coordinates": [[[[-86.1106,13.0306,698.4575],[-86.0998,13.0275,633.2365],[-86.0915,13.0291,642.5734],[-86.0814,13.0248,892.3295],[-86.0771,13.0298,693.1886],[-86.0717,13.0293,640.7176],[-86.0745,13.0446,588.1197],[-86.0752,13.0629,622.889],[-86.0685,13.0834,608.5106],[-86.0677,13.1229,1109.3818],[-86.0579,13.1562,971.8484],[-86.0468,13.1746,1162.9684],[-86.0457,13.1793,1173.2811],[-86.0493,13.2003,1095.7174],[-86.0487,13.2066,1175.8955],[-86.0379,13.2203,1311.4602],[-86.0381,13.2303,1245.7098],[-86.0286,13.2594,1048.2427],[-86.025,13.2639,987.9147],[-86.0142,13.2687,929.333],[-86.0086,13.2771,922.2939],[-86.0336,13.3143,1096.3083],[-86.038,13.3378,871.145],[-86.0367,13.3586,1045.4227],[-86.0324,13.3814,1035.6401],[-86.0146,13.4157,866.5243],[-86.0101,13.4318,644.4373],[-86.0084,13.4477,610.3462],[-86.0098,13.469,474.1108],[-86.0218,13.4972,411.2457],[-86.0568,13.493,414.2219],[-86.0611,13.494,389.1628],[-86.0625,13.496,384.8474],[-86.0657,13.4925,402.5288],[-86.0717,13.4904,384.882],[-86.0751,13.4857,366.4808],[-86.0766,13.4735,453.1344],[-86.0818,13.4674,393.3299],[-86.0833,13.4578,695.7878],[-86.0926,13.4507,599.4222],[-86.104,13.4462,456.7092],[-86.1124,13.4409,519.8491],[-86.11,13.4352,512.2482],[-86.0904,13.4189,742.0717],[-86.0818,13.4093,889.8789],[-86.0776,13.3991,726.0875],[-86.0777,13.3848,767.1891],[-86.0815,13.3756,838.1796],[-86.0892,13.3645,784.1736],[-86.0882,13.3566,807.5824],[-86.0915,13.3408,892.953],[-86.0904,13.3215,967.9456],[-86.0921,13.3045,1066.1005],[-86.0991,13.293,1040.6826],[-86.1109,13.2809,1408.4587],[-86.1214,13.2728,1565.5435],[-86.1245,13.2677,1457.0356],[-86.1244,13.2576,1310.7769],[-86.1197,13.2365,1257.7504],[-86.1217,13.2059,1059.7074],[-86.1208,13.1602,896.1996],[-86.1241,13.1383,808.2437],[-86.1285,13.1254,760.0966],[-86.1411,13.1041,781.6824],[-86.1493,13.0933,953.3787],[-86.1632,13.0817,816.9824],[-86.1448,13.0736,949.2444],[-86.1209,13.0656,958.2355],[-86.1149,13.062,882.4105],[-86.1119,13.0586,712.1465],[-86.1094,13.0497,745.241],[-86.1106,13.0306,698.4575]]]]}}