{"type":"Feature","properties":{"GID_2":"NIC.17.3_1","GID_0":"NIC","country":"Nicaragua","GID_1":"NIC.17_1","province":"RíoSanJuan","NL_NAME_1":"NA","county":"SanCarlos","VARNAME_2":"NA","NL_NAME_2":"NA","TYPE_2":"Municipio","ENGTYPE_2":"Municipality","CC_2":"NA","HASC_2":"NI.SJ.SC","name":"San_Carlos.county"},
"geometry":{"type": "MultiPolygon","coordinates": [[[[-84.8999,11.0787,31.0],[-84.906,11.0719,31.0],[-84.905,11.0668,31.0],[-84.9014,11.0683,31.0],[-84.898,11.0742,31.0],[-84.8978,11.0771,31.0],[-84.8999,11.0787,31.0]]],
[[[-84.9107,10.9438,41.2092],[-84.6804,11.0845,35.0901],[-84.6665,11.0726,40.7758],[-84.606,11.0384,57.1465],[-84.5745,11.0512,40.9],[-84.5644,11.0332,57.8327],[-84.4859,11.0008,81.1124],[-84.4506,10.961,37.1566],[-84.4203,10.9552,51.4408],[-84.3999,10.9751,49.7556],[-84.3764,10.9775,78.8525],[-84.3584,10.9959,36.671],[-84.3508,10.9882,30.277],[-84.3415,10.9728,24.0],[-84.3416,10.9712,24.767],[-84.3474,10.9665,30.9083],[-84.351,10.9512,28.8468],[-84.3362,10.946,23.0848],[-84.3319,10.9316,34.986],[-84.3236,10.9188,30.3118],[-84.317,10.9161,25.3385],[-84.3103,10.9218,27.6261],[-84.3062,10.9159,23.7755],[-84.2999,10.9166,26.9621],[-84.2917,10.911,19.0],[-84.2857,10.8966,18.0],[-84.2827,10.8937,41.4145],[-84.2639,10.8909,19.8875],[-84.2583,10.8915,18.9769],[-84.2441,10.885,25.4225],[-84.2373,10.8762,35.0492],[-84.2286,10.8753,22.1097],[-84.2251,10.8729,20.2953],[-84.2192,10.863,20.3987],[-84.2197,10.8555,19.1967],[-84.2149,10.8393,18.0437],[-84.2209,10.8249,19.548],[-84.2364,10.8199,17.9599],[-84.2376,10.8158,28.68],[-84.2355,10.8131,45.1725],[-84.2293,10.8112,41.0289],[-84.2266,10.8046,27.0815],[-84.2231,10.801,18.9203],[-84.2132,10.801,19.34],[-84.2062,10.7975,18.6456],[-84.2047,10.7947,18.5097],[-84.2077,10.7934,22.72],[-84.2081,10.7909,30.1558],[-84.2042,10.7827,19.1032],[-84.2005,10.7814,19.5927],[-84.193,10.7888,17.5],[-84.1895,10.7898,20.308],[-84.1752,10.786,20.5396],[-84.1658,10.7853,24.4141],[-84.1509,10.786,19.9756],[-84.1462,10.7876,17.0],[-84.137,10.7871,17.0],[-84.1314,10.7881,37.7224],[-84.1312,10.7917,45.3168],[-84.1338,10.7963,54.1821],[-84.138,10.7971,54.7329],[-84.1435,10.8125,36.7426],[-84.1413,10.8165,46.2056],[-84.1354,10.8203,57.5419],[-84.1404,10.8275,84.8685],[-84.152,10.8369,98.9695],[-84.1529,10.8445,70.0976],[-84.1482,10.8759,158.3078],[-84.1424,10.8923,207.6946],[-84.1348,10.9033,310.2935],[-84.1214,10.9121,244.9408],[-84.1178,10.9179,257.3433],[-84.1179,10.9234,252.7218],[-84.1314,10.9415,99.8735],[-84.1336,10.9515,92.2594],[-84.1292,10.9579,132.491],[-84.1029,10.9617,69.3822],[-84.0901,10.9659,71.4633],[-84.0837,10.9699,102.6293],[-84.0779,10.9765,56.1431],[-84.0767,10.9803,65.1254],[-84.0805,10.9859,86.3962],[-84.1,10.9935,168.4005],[-84.1084,10.9989,244.0411],[-84.1114,11.0083,104.6595],[-84.1103,11.0125,110.0105],[-84.1083,11.014099999999999,124.5504],[-84.0953,11.0177,150.3051],[-84.0838,11.0229,110.913],[-84.0792,11.0287,145.7839],[-84.0777,11.0369,109.4453],[-84.0815,11.0435,55.7102],[-84.1007,11.0519,113.9655],[-84.11,11.0587,178.5653],[-84.115,11.0649,254.9302],[-84.117,11.0701,358.9526],[-84.1171,11.0787,558.231],[-84.1147,11.0857,496.2306],[-84.1001,11.1155,81.1646],[-84.1054,11.1179,113.0489],[-84.123,11.1213,168.9205],[-84.1341,11.1187,156.0285],[-84.1446,11.1251,236.2765],[-84.149,11.1227,301.8149],[-84.1562,11.1273,267.3055],[-84.1632,11.1271,149.3861],[-84.166,11.1323,137.726],[-84.174,11.1321,191.7885],[-84.1902,11.1405,203.7107],[-84.2024,11.1623,250.6596],[-84.2087,11.1703,271.4004],[-84.2231,11.1975,308.7632],[-84.228,11.2049,196.959],[-84.2375,11.2143,302.0825],[-84.2472,11.2207,346.5094],[-84.2881,11.2411,245.1351],[-84.3188,11.2545,153.1946],[-84.3438,11.2625,178.2321],[-84.3516,11.2691,292.888],[-84.3597,11.2829,235.1787],[-84.3604,11.3011,240.1801],[-84.3562,11.3265,212.7331],[-84.3566,11.3323,188.8554],[-84.362799999999993,11.3431,193.7415],[-84.3708,11.3473,206.9062],[-84.3845,11.3503,196.567],[-84.3958,11.3573,276.1723],[-84.414,11.3637,149.6049],[-84.4545,11.3873,195.7735],[-84.4573,11.3858,179.9208],[-84.4782,11.3549,117.545],[-84.4912,11.3421,101.51],[-84.4939,11.3284,125.6115],[-84.4973,11.3219,120.1397],[-84.5154,11.3056,92.75],[-84.5232,11.3011,89.313],[-84.533,11.2989,114.0942],[-84.5447,11.3008,101.295],[-84.5497,11.3032,101.5894],[-84.5552,11.3024,88.5181],[-84.5634,11.3038,91.7468],[-84.5673,11.3022,74.8924],[-84.5771,11.2896,61.6121],[-84.5833,11.286,61.1819],[-84.5961,11.2739,62.5001],[-84.605,11.2697,100.8103],[-84.6135,11.2697,82.1472],[-84.6243,11.2748,104.4059],[-84.6252,11.2774,84.5389],[-84.6223,11.2904,64.4867],[-84.6255,11.2953,63.9054],[-84.6414,11.3056,61.8398],[-84.654,11.3099,75.1383],[-84.654,11.3154,75.594],[-84.6598,11.3215,164.6125],[-84.6674,11.3255,92.5799],[-84.6764,11.3272,99.0772],[-84.6767,11.3347,91.5325],[-84.6925,11.3337,55.7467],[-84.7119,11.3471,46.1651],[-84.7182,11.3497,45.5937],[-84.7248,11.3476,45.1932],[-84.7303,11.3437,53.3358],[-84.7411,11.3408,52.3119],[-84.7466,11.3369,49.6179],[-84.7563,11.3371,52.0342],[-84.7663,11.3277,39.9205],[-84.7785,11.327,41.4179],[-84.7879,11.3157,43.2735],[-84.797,11.3137,37.0649],[-84.7991,11.3065,35.1275],[-84.8019,11.3064,35.126],[-84.8055,11.31,33.9502],[-84.8095,11.3103,34.1007],[-84.8152,11.3057,35.8441],[-84.8189,11.3108,33.3505],[-84.8212,11.311,32.5307],[-84.8269,11.3031,31.0],[-84.8297,11.305,32.4446],[-84.8298,11.3109,32.9552],[-84.8321,11.3138,32.5962],[-84.8493,11.3176,31.0],[-84.846,11.322,32.7788],[-84.8481,11.3229,36.5871],[-84.8578,11.3162,31.0],[-84.854,11.3101,31.0],[-84.856,11.3085,31.0],[-84.8747,11.3068,31.0],[-84.8764,11.3106,31.0],[-84.8828,11.3096,31.0],[-84.8828,11.3053,31.0],[-84.88,11.3029,31.0],[-84.8638,11.2986,31.0],[-84.8496,11.2847,31.0],[-84.8366,11.2828,31.0],[-84.8186,11.273,31.0],[-84.8098,11.2262,31.0],[-84.8072,11.222,31.0],[-84.8,11.2182,31.0],[-84.8018,11.2116,31.0],[-84.8066,11.2066,31.0],[-84.8068,11.2042,31.0],[-84.8024,11.1996,31.0],[-84.8018,11.1967,31.0],[-84.8059,11.1909,31.0],[-84.8067,11.186,31.0],[-84.8041,11.171,31.0],[-84.8052,11.1621,31.0],[-84.8029,11.1531,31.0],[-84.8044,11.1301,31.0],[-84.8009,11.1155,31.0],[-84.7967,11.1112,31.0],[-84.7929,11.1107,31.0],[-84.7849,11.0956,31.0],[-84.7874,11.0865,31.0],[-84.7969,11.0665,31.9609],[-84.7882,11.0626,32.614],[-84.7864,11.0604,33.9419],[-84.793,11.059,32.916],[-84.8033,11.0614,32.4531],[-84.8176,11.0531,31.0],[-84.8269,11.0414,32.8848],[-84.8415,11.0329,35.2132],[-84.8463,11.0319,35.8894],[-84.8693,11.0346,32.3395],[-84.8737,11.0339,32.3345],[-84.9065,11.0181,34.113],[-84.9184,11.0151,38.9037],[-84.9258,11.0153,39.231],[-84.9324,11.018,38.6682],[-84.9364,11.0265,36.0694],[-84.9485,11.0413,33.0628],[-84.9512,11.0426,33.0921],[-84.9554,11.0431,33.5613],[-84.9841,11.0336,32.4355],[-84.9972,11.0331,32.8554],[-85.0033,11.0379,34.8691],[-85.0047,11.0426,34.298],[-85.0041,11.0518,33.8103],[-85.0057,11.0543,34.3993],[-85.0098,11.0559,34.5258],[-85.0191,11.0531,33.5257],[-85.0508,11.0508,34.2294],[-85.0581,11.0565,33.7158],[-85.0705,11.056,32.7762],[-85.0738,11.0657,32.6737],[-85.0778,11.0693,34.825],[-85.1046,11.0686,38.3203],[-85.1158,11.0734,33.4382],[-85.1222,11.0697,33.8234],[-85.1367,11.0681,33.0739],[-85.1447,11.0719,33.3693],[-85.1557,11.084,33.0967],[-85.1685,11.0863,32.4865],[-85.1743,11.0914,33.891],[-85.1796,11.0929,32.7115],[-85.1837,11.0859,33.8189],[-85.193,11.0817,33.9783],[-85.1866,11.0556,36.5886],[-85.1877,11.0476,35.2449],[-84.9107,10.9438,41.2092]]],
[[[-84.9719,11.1477,31.0],[-84.9739,11.1479,31.0],[-84.9737,11.1445,31.0],[-84.9685,11.1374,31.0],[-84.9397,11.1142,31.0],[-84.9292,11.1137,31.0],[-84.9269,11.1159,31.0],[-84.9262,11.1193,31.0],[-84.9343,11.1217,31.0],[-84.9391,11.1256,31.0],[-84.9348,11.1344,61.4392],[-84.9358,11.1368,57.6593],[-84.9568,11.1373,31.0],[-84.9605,11.1414,31.0],[-84.9663,11.1433,31.0],[-84.9719,11.1477,31.0]]],
[[[-84.9537,11.1471,31.0],[-84.954,11.1458,31.0],[-84.9497,11.1417,31.0],[-84.9474,11.1425,31.0],[-84.9514,11.1485,31.0],[-84.9537,11.1471,31.0]]],
[[[-84.9471,11.1501,31.0],[-84.9455,11.1516,36.4825],[-84.946,11.155,47.0345],[-84.9482,11.1553,53.0115],[-84.9488,11.1512,31.0],[-84.9471,11.1501,31.0]]],
[[[-84.9773,11.1733,67.9187],[-84.9791,11.1718,50.7721],[-84.9783,11.1694,50.1526],[-84.9762,11.1687,44.3003],[-84.9697,11.1717,31.0],[-84.9708,11.1741,31.0],[-84.9739,11.1748,58.7637],[-84.9773,11.1733,67.9187]]],
[[[-85.0034,11.1522,31.0],[-85.0035,11.1558,31.0],[-85.0083,11.1572,31.0],[-85.0084,11.1532,31.0],[-85.0034,11.1522,31.0]]],
[[[-85.0676,11.176,31.0],[-85.0717,11.1702,60.6429],[-85.0765,11.1691,31.0],[-85.0771,11.161,31.0],[-85.0823,11.1525,31.0],[-85.0809,11.1474,31.0],[-85.0748,11.1405,31.0],[-85.0711,11.1417,31.0],[-85.0712,11.1545,31.0],[-85.0661,11.1728,38.636],[-85.0662,11.1755,31.0],[-85.0676,11.176,31.0]]],
[[[-84.9859,11.1703,31.0],[-84.9864,11.1725,31.0],[-84.9902,11.1684,31.0],[-84.9969,11.1679,31.0],[-84.9999,11.166,31.0],[-84.9971,11.1548,31.0],[-85.0002,11.1476,31.0],[-84.999,11.1456,31.0],[-84.994,11.1481,31.0],[-84.9854,11.1459,31.0],[-84.9817,11.1478,31.0],[-84.9866,11.1534,31.0],[-84.9872,11.164,31.0],[-84.9859,11.1703,31.0]]],
[[[-85.035,11.1884,168.3206],[-85.0369,11.1919,143.1683],[-85.0406,11.1914,125.5198],[-85.0418,11.1867,33.6795],[-85.0575,11.1899,167.6771],[-85.0617,11.1877,31.0],[-85.0574,11.1741,34.6526],[-85.0651,11.1581,31.0],[-85.0549,11.1373,31.0],[-85.0324,11.1531,31.0],[-85.0194,11.1538,31.0],[-85.0162,11.1544,31.0],[-85.0141,11.157,31.0],[-85.0203,11.1672,31.0],[-85.0232,11.1801,92.6747],[-85.0287,11.1802,121.2069],[-85.035,11.1884,168.3206]]],
[[[-85.0197,11.1934,132.5069],[-85.0215,11.191,94.6889],[-85.0212,11.1876,92.4715],[-85.0188,11.186,63.5711],[-85.0139,11.193,31.0],[-85.0168,11.1955,104.123],[-85.0197,11.1934,132.5069]]],
[[[-85.0277,11.201599999999999,64.8008],[-85.0303,11.202,61.0825],[-85.0341,11.1986,93.5902],[-85.0322,11.1964,146.4031],[-85.0279,11.1972,57.6015],[-85.0261,11.1989,57.9547],[-85.0277,11.201599999999999,64.8008]]],
[[[-85.0166,11.1985,51.6081],[-85.0141,11.2003,31.0],[-85.0148,11.2031,31.0],[-85.0177,11.2003,31.0],[-85.0166,11.1985,51.6081]]]]}}