{"type":"Feature","properties":{"GID_2":"NIC.14.3_1","GID_0":"NIC","country":"Nicaragua","GID_1":"NIC.14_1","province":"Masaya","NL_NAME_1":"NA","county":"Masatepe","VARNAME_2":"NA","NL_NAME_2":"NA","TYPE_2":"Municipio","ENGTYPE_2":"Municipality","CC_2":"NA","HASC_2":"NI.MS.MT","name":"Masatepe.county"},
"geometry":{"type": "MultiPolygon","coordinates": [[[[-86.1211,11.8441,406.6029],[-86.1113,11.8417,352.6263],[-86.1047,11.8677,396.2479],[-86.1065,11.8806,425.9464],[-86.117,11.8765,427.1395],[-86.1225,11.8769,451.2912],[-86.1263,11.8822,472.6569],[-86.1238,11.9306,365.366],[-86.1228,11.9362,326.1551],[-86.1118,11.9429,275.3097],[-86.1128,11.9427,275.3097],[-86.1132,11.9601,123.0],[-86.1275,11.9593,129.9343],[-86.1673,11.9495,428.4203],[-86.1804,11.933,497.5693],[-86.1958,11.9171,516.726],[-86.1919,11.9032,531.0438],[-86.1876,11.8966,516.843],[-86.1597,11.8843,478.5104],[-86.1569,11.8817,486.8374],[-86.1557,11.8679,500.8241],[-86.1514,11.8564,490.3889],[-86.137,11.8473,456.9509],[-86.1211,11.8441,406.6029]]]]}}