{"type":"Feature","properties":{"GID_2":"NIC.12.1_1","GID_0":"NIC","country":"Nicaragua","GID_1":"NIC.12_1","province":"Madriz","NL_NAME_1":"NA","county":"LasSabanas","VARNAME_2":"NA","NL_NAME_2":"NA","TYPE_2":"Municipio","ENGTYPE_2":"Municipality","CC_2":"NA","HASC_2":"NI.MD.LS","name":"Las_Sabanas.county"},
"geometry":{"type": "MultiPolygon","coordinates": [[[[-86.703,13.3066,1134.2026],[-86.6902,13.3054,895.3593],[-86.6739,13.3087,1147.5358],[-86.6539,13.3087,1075.4475],[-86.644,13.3052,1095.8882],[-86.627,13.2854,1478.215],[-86.6162,13.3015,1580.9292],[-86.5972,13.3477,1541.0728],[-86.5891,13.3608,1137.3085],[-86.5927,13.3605,1135.8693],[-86.6089,13.3654,1473.5403],[-86.6416,13.3722,918.8406],[-86.6465,13.3709,1148.0984],[-86.6527,13.3604,1284.7842],[-86.6553,13.3594,1329.6622],[-86.7096,13.3649,1018.3187],[-86.7025,13.3248,1277.4808],[-86.703,13.3066,1134.2026]]]]}}