{"type":"Feature","properties":{"GID_2":"NIC.7.1_1","GID_0":"NIC","country":"Nicaragua","GID_1":"NIC.7_1","province":"Estelí","NL_NAME_1":"NA","county":"Condega","VARNAME_2":"NA","NL_NAME_2":"NA","TYPE_2":"Municipio","ENGTYPE_2":"Municipality","CC_2":"NA","HASC_2":"NI.ES.CO","name":"Condega.county"},
"geometry":{"type": "MultiPolygon","coordinates": [[[[-86.2312,13.2545,1173.7803],[-86.234,13.2659,987.519],[-86.2322,13.2834,1035.8749],[-86.2387,13.3132,904.814],[-86.2401,13.3261,833.2573],[-86.2384,13.3312,754.4637],[-86.2314,13.3402,792.0547],[-86.2316,13.3442,748.8482],[-86.2355,13.3499,763.0657],[-86.2297,13.3546,779.479],[-86.2331,13.363,713.696],[-86.2218,13.3759,769.1833],[-86.221,13.385,704.7806],[-86.2371,13.4185,1363.1963],[-86.2434,13.4242,1324.0281],[-86.2593,13.4286,1215.2966],[-86.2838,13.4315,1039.9917],[-86.3005,13.4313,1063.9197],[-86.334,13.425,885.1537],[-86.3717,13.4147,559.5806],[-86.3967,13.4108,537.1899],[-86.4251,13.4028,577.7431],[-86.42,13.3793,545.7429],[-86.4203,13.3645,696.7609],[-86.4254,13.3622,658.9182],[-86.443,13.3607,637.4822],[-86.449,13.3561,704.561],[-86.446,13.3382,804.9097],[-86.4465,13.326,730.0792],[-86.4517,13.3134,854.0258],[-86.4648,13.2943,870.9568],[-86.4595,13.2487,1361.5795],[-86.4512,13.2478,1322.4355],[-86.4409,13.2496,938.7683],[-86.3784,13.2783,872.3467],[-86.369,13.2808,909.7139],[-86.3011,13.2606,1313.4218],[-86.2561,13.2494,1421.1534],[-86.2488,13.249,1328.6213],[-86.2371,13.2548,1147.8252],[-86.2312,13.2545,1173.7803]]]]}}