{"type": "Feature","bbox": [-84.9674,11.2697,-84.4545,11.563],"geometry": {"type": "MultiPolygon","coordinates": [[[[-84.5697,11.5593,199.339],[-84.6101,11.563,214.1796],[-84.621,11.5607,146.2384],[-84.6549,11.5439,106.8307],[-84.6623,11.5426,108.1282],[-84.6931,11.5457,148.9175],[-84.7003,11.5476,139.411],[-84.7116,11.5537,109.0318],[-84.7319,11.5522,134.3459],[-84.7506,11.556,109.5124],[-84.7636,11.5524,91.3132],[-84.7902,11.5496,56.2972],[-84.8014,11.5433,95.8671],[-84.8093,11.5411,55.0686],[-84.8317,11.5545,48.3932],[-84.8343,11.5487,48.0303],[-84.8494,11.5294,38.9371],[-84.8581,11.5205,36.5875],[-84.8757,11.5092,35.123],[-84.8845,11.5053,34.2483],[-84.8976,11.5038,34.384],[-84.9224,11.506,42.623],[-84.9456,11.4953,34.3448],[-84.9528,11.4841,35.0935],[-84.9559,11.4667,31.0],[-84.959,11.4617,31.0],[-84.9651,11.4595,31.0],[-84.9674,11.4497,31.0],[-84.9666,11.4464,31.0],[-84.9573,11.435,31.0],[-84.9573,11.426,31.0],[-84.9479,11.4123,31.0],[-84.9427,11.4075,31.0],[-84.9382,11.4102,31.0],[-84.9342,11.419,31.0],[-84.9252,11.4272,31.0],[-84.9225,11.427,31.0],[-84.9199,11.4242,31.0],[-84.9131,11.4099,31.0],[-84.9178,11.4022,31.0],[-84.9175,11.3951,31.0],[-84.9158,11.3801,31.0],[-84.9119,11.3658,31.0],[-84.9134,11.3586,31.0],[-84.9086,11.3505,31.0],[-84.908,11.3437,31.0],[-84.9062,11.3407,31.0],[-84.8967,11.3402,31.0],[-84.878,11.3293,31.0],[-84.8737,11.3164,31.0],[-84.8743,11.3115,31.0],[-84.8764,11.3106,31.0],[-84.8747,11.3068,31.0],[-84.856,11.3085,31.0],[-84.854,11.3101,31.0],[-84.8578,11.3162,31.0],[-84.8481,11.3229,36.5871],[-84.846,11.322,32.7788],[-84.8493,11.3176,31.0],[-84.8321,11.3138,32.5962],[-84.8298,11.3109,32.9552],[-84.8297,11.305,32.4446],[-84.8269,11.3031,31.0],[-84.8212,11.311,32.5307],[-84.8189,11.3108,33.3505],[-84.8152,11.3057,35.8441],[-84.8095,11.3103,34.1007],[-84.8055,11.31,33.9502],[-84.8019,11.3064,35.126],[-84.7991,11.3065,35.1275],[-84.797,11.3137,37.0649],[-84.7879,11.3157,43.2735],[-84.7785,11.327,41.4179],[-84.7663,11.3277,39.9205],[-84.7563,11.3371,52.0342],[-84.7466,11.3369,49.6179],[-84.7411,11.3408,52.3119],[-84.7303,11.3437,53.3358],[-84.7248,11.3476,45.1932],[-84.7182,11.3497,45.5937],[-84.7119,11.3471,46.1651],[-84.6925,11.3337,55.7467],[-84.6767,11.3347,91.5325],[-84.6764,11.3272,99.0772],[-84.6674,11.3255,92.5799],[-84.6598,11.3215,164.6125],[-84.654,11.3154,75.594],[-84.654,11.3099,75.1383],[-84.6414,11.3056,61.8398],[-84.6255,11.2953,63.9054],[-84.6223,11.2904,64.4867],[-84.6252,11.2774,84.5389],[-84.6243,11.2748,104.4059],[-84.6135,11.2697,82.1472],[-84.605,11.2697,100.8103],[-84.5961,11.2739,62.5001],[-84.5833,11.286,61.1819],[-84.5771,11.2896,61.6121],[-84.5673,11.3022,74.8924],[-84.5634,11.3038,91.7468],[-84.5552,11.3024,88.5181],[-84.5497,11.3032,101.5894],[-84.5447,11.3008,101.295],[-84.533,11.2989,114.0942],[-84.5232,11.3011,89.313],[-84.5154,11.3056,92.75],[-84.4973,11.3219,120.1397],[-84.4939,11.3284,125.6115],[-84.4912,11.3421,101.51],[-84.4782,11.3549,117.545],[-84.4573,11.3858,179.9208],[-84.4545,11.3873,195.7735],[-84.4615,11.3944,167.8324],[-84.4865,11.411,227.049],[-84.497,11.4152,227.3275],[-84.5273,11.42,204.0537],[-84.5436,11.4255,132.9367],[-84.5579,11.4355,150.653],[-84.5624,11.4472,209.1753],[-84.5629,11.4822,225.1427],[-84.5709,11.5188,180.2947],[-84.5716,11.5371,172.2396],[-84.5697,11.5593,199.339]]]]}
,"properties": {"GID_2": "NIC.17.5_1","GID_0": "NIC","country": "Nicaragua","GID_1": "NIC.17_1","province": "RíoSanJuan","NL_NAME_1": "NA","county": "SanMiguelito","VARNAME_2": "NA","NL_NAME_2": "NA","TYPE_2": "Municipio","ENGTYPE_2": "Municipality","CC_2": "NA","HASC_2": "NI.SJ.SM","name": "San_Miguelito.county","area_km2": 1120.4897,"hist_schema_id": "Elevation0-9000","hist_area_km2": {"25": 137.1914,"50": 271.6405,"75": 199.1441,"100": 144.3118,"125": 133.5972,"150": 99.2033,"175": 66.1417,"200": 36.5103,"225": 19.5749,"250": 8.5821,"275": 2.9092,"300": 1.2675,"325": 0.3533,"350": 0.0623}}}