{"type": "Feature","bbox": [-86.2721,12.8206,-86.1095,12.9949],"geometry": {"type": "MultiPolygon","coordinates": [[[[-86.2596,12.9062,1121.6226],[-86.2635,12.9022,1117.908],[-86.2663,12.8951,854.4154],[-86.2721,12.8491,902.9393],[-86.2589,12.8551,728.8731],[-86.253,12.8596,676.1614],[-86.237,12.8732,675.5514],[-86.2193,12.8931,626.4089],[-86.1936,12.8831,456.5978],[-86.1693,12.8225,447.2447],[-86.1634,12.8206,448.3857],[-86.1636,12.8339,448.3654],[-86.1598,12.8465,450.3078],[-86.1538,12.8514,452.2909],[-86.1473,12.8625,459.724],[-86.1386,12.8621,455.0353],[-86.1367,12.8642,455.9496],[-86.1367,12.8671,457.3901],[-86.1424,12.8756,457.2506],[-86.1385,12.8795,458.5467],[-86.1414,12.8865,456.7059],[-86.1381,12.8898,455.3262],[-86.1293,12.8867,459.75],[-86.1278,12.8921,463.3805],[-86.1274,12.9059,465.1505],[-86.1329,12.9064,464.582],[-86.1343,12.9087,464.6191],[-86.1317,12.9179,468.8852],[-86.1339,12.9315,464.4741],[-86.1276,12.9354,504.1748],[-86.1229,12.9431,513.0155],[-86.1163,12.9475,522.4644],[-86.1148,12.9526,518.5052],[-86.1095,12.9551,568.2921],[-86.1109,12.964,533.4924],[-86.1103,12.9742,490.6393],[-86.1245,12.9864,624.8236],[-86.1365,12.986,587.0941],[-86.1399,12.9949,517.1602],[-86.1538,12.9658,724.6349],[-86.1576,12.9521,503.382],[-86.1666,12.9413,504.5653],[-86.1842,12.9352,502.4083],[-86.2031,12.9338,487.8441],[-86.2118,12.9312,509.9771],[-86.2596,12.9062,1121.6226]]]]}
,"properties": {"GID_2": "NIC.15.9_1","GID_0": "NIC","country": "Nicaragua","GID_1": "NIC.15_1","province": "Matagalpa","NL_NAME_1": "NA","county": "SanIsidro","VARNAME_2": "NA","NL_NAME_2": "NA","TYPE_2": "Municipio","ENGTYPE_2": "Municipality","CC_2": "NA","HASC_2": "NI.MT.SI","name": "San_Isidro.county","area_km2": 126.80966,"hist_schema_id": "Elevation0-9000","hist_area_km2": {"450": 40.80027,"475": 20.39686,"500": 5.02159,"525": 3.59565,"550": 5.10408,"575": 6.2404,"600": 6.21963,"625": 5.43478,"650": 4.60837,"675": 4.58751,"700": 4.0711,"725": 2.62471,"750": 2.17011,"775": 1.73614,"800": 1.30209,"825": 1.44677,"850": 1.19877,"875": 0.88871,"900": 1.11605,"925": 0.80603,"950": 1.03336,"975": 1.09537,"1000": 1.03336,"1025": 0.90935,"1050": 1.13665,"1075": 1.13665,"1100": 0.68199,"1125": 0.39267,"1150": 0.02067}}}