{"type": "Feature","bbox": [-84.9879,11.7197,-83.9861,12.7353],"geometry": {"type": "MultiPolygon","coordinates": [[[[-83.9978,12.0863,2.7646],[-84.0051,12.2586,12.6153],[-84.0105,12.2609,15.8199],[-84.0315,12.2806,14.8948],[-84.0526,12.2926,18.1549],[-84.0584,12.2982,21.6446],[-84.0716,12.3438,22.8149],[-84.085,12.3786,45.941],[-84.1116,12.4358,45.4677],[-84.1225,12.4664,108.6385],[-84.1445,12.5094,127.8449],[-84.1587,12.5314,231.4953],[-84.1764,12.5159,207.53],[-84.2024,12.4873,142.1447],[-84.2144,12.4782,143.1247],[-84.225,12.4653,139.6081],[-84.233,12.4588,138.4664],[-84.2699,12.4478,122.6988],[-84.2984,12.4418,56.2446],[-84.3234,12.4331,53.8444],[-84.3483,12.4291,82.4391],[-84.3583,12.4355,44.7456],[-84.3939,12.4418,114.1229],[-84.402,12.4473,66.5839],[-84.4166,12.4679,53.008],[-84.4232,12.4744,59.3319],[-84.4302,12.4753,63.983],[-84.4516,12.4631,109.7741],[-84.4592,12.4626,114.8005],[-84.4647,12.4658,104.7501],[-84.4706,12.4769,93.2476],[-84.4738,12.4974,104.9584],[-84.4732,12.5058,110.6111],[-84.465,12.5414,119.5859],[-84.4652,12.5465,122.9798],[-84.4705,12.5586,127.7463],[-84.4814,12.5715,129.0199],[-84.4981,12.5874,135.8045],[-84.5204,12.6047,122.2082],[-84.5363,12.6138,106.5694],[-84.5518,12.6207,114.0439],[-84.5812,12.6234,151.2188],[-84.603,12.6294,172.0499],[-84.6187,12.6355,248.8325],[-84.6294,12.6436,163.4945],[-84.6347,12.6526,159.4532],[-84.6365,12.6622,176.613],[-84.6407,12.7299,85.5263],[-84.6395,12.7353,88.3182],[-84.6704,12.7189,91.0008],[-84.6888,12.7156,95.5343],[-84.7055,12.6549,196.5497],[-84.7347,12.6718,210.7258],[-84.7632,12.6569,294.7097],[-84.7964,12.7314,239.1008],[-84.8167,12.6839,308.6402],[-84.8215,12.695,326.4423],[-84.825,12.6987,278.1986],[-84.8327,12.7049,340.378],[-84.842,12.7072,327.7708],[-84.8491,12.7076,317.0247],[-84.8586,12.7057,328.8616],[-84.8777,12.6931,272.0587],[-84.8834,12.6914,264.2847],[-84.9295,12.7288,251.1715],[-84.9879,12.7065,224.8679],[-84.9826,12.6897,219.625],[-84.9847,12.661,178.8215],[-84.9822,12.6522,188.8371],[-84.977,12.6476,182.12],[-84.9643,12.6435,181.9625],[-84.9581,12.6279,174.1474],[-84.9444,12.6076,167.2355],[-84.9162,12.586,163.8495],[-84.9092,12.579,140.1374],[-84.9053,12.5569,133.8376],[-84.8953,12.5516,134.5731],[-84.8899,12.5271,120.2928],[-84.8784,12.5008,120.0686],[-84.8704,12.4892,134.1894],[-84.8641,12.4848,155.3734],[-84.8489,12.4807,136.4167],[-84.8358,12.4725,170.724],[-84.8474,12.4654,134.2735],[-84.8485,12.463,140.7429],[-84.8453,12.4534,173.7263],[-84.8465,12.4504,147.478],[-84.8562,12.4414,143.4259],[-84.862799999999993,12.4276,155.0035],[-84.8691,12.4198,173.7828],[-84.8703,12.4149,133.6615],[-84.8694,12.4086,188.2102],[-84.863,12.3869,194.519],[-84.8491,12.3604,262.1971],[-84.8372,12.3432,346.3008],[-84.8299,12.3372,338.3814],[-84.823,12.3342,346.1868],[-84.8209,12.3314,336.073],[-84.808,12.3036,297.0263],[-84.7938,12.2818,194.6668],[-84.7849,12.2718,207.6476],[-84.7809,12.2623,206.5318],[-84.7731,12.2635,235.4648],[-84.7598,12.2705,190.3589],[-84.7551,12.2773,184.9619],[-84.7468,12.2991,171.853],[-84.7396,12.3062,171.7343],[-84.7067,12.3174,227.3143],[-84.6965,12.3174,156.7007],[-84.6815,12.312,234.1455],[-84.678,12.3123,196.0317],[-84.6707,12.3152,150.5419],[-84.6458,12.3363,231.0087],[-84.6216,12.3386,177.764],[-84.6038,12.3438,157.8834],[-84.5907,12.3516,105.7122],[-84.5867,12.3516,91.1533],[-84.5796,12.3471,93.0085],[-84.5707,12.3378,71.3939],[-84.57,12.3226,72.1189],[-84.5715,12.3104,97.8898],[-84.581,12.2754,165.3333],[-84.5808,12.2374,160.7377],[-84.5603,12.2297,170.899],[-84.5439,12.2146,237.4673],[-84.505,12.1658,442.8458],[-84.4839,12.1345,266.5993],[-84.4531,12.1079,83.4666],[-84.4461,12.0992,201.1616],[-84.4432,12.0944,280.6768],[-84.4419,12.088,266.1195],[-84.4424,12.0744,240.798],[-84.4518,12.0616,379.8304],[-84.4522,12.0529,204.2009],[-84.4499,12.0453,226.8922],[-84.446,12.0399,240.1226],[-84.4349,12.0309,220.2973],[-84.425,12.0265,160.9628],[-84.4237,12.0233,143.2007],[-84.4246,12.0214,148.5815],[-84.432,12.0135,167.6617],[-84.4305,12.0078,147.7101],[-84.4255,12.0032,143.0294],[-84.4191,12.0011,143.8446],[-84.3945,11.9959,129.6287],[-84.3768,11.9961,124.0876],[-84.3614,11.9925,79.1679],[-84.354,11.9886,98.3505],[-84.3496,11.9808,122.6629],[-84.3472,11.9801,120.2319],[-84.3357,11.9816,128.1969],[-84.3111,11.9803,68.5391],[-84.307,11.9746,32.9848],[-84.3087,11.9605,62.0466],[-84.3067,11.9567,64.0634],[-84.2993,11.9532,60.406],[-84.2931,11.9464,29.2689],[-84.292,11.941,26.1062],[-84.2952,11.9327,27.3284],[-84.291,11.9285,25.9146],[-84.2835,11.9297,38.189],[-84.2793,11.9342,38.4158],[-84.2713,11.9384,55.8789],[-84.2637,11.9394,32.9849],[-84.2588,11.9437,23.6459],[-84.2566,11.9434,25.4149],[-84.2294,11.9077,225.9695],[-84.2111,11.8887,157.4699],[-84.1849,11.8517,369.2584],[-84.1683,11.8338,254.3382],[-84.1429,11.7967,99.5882],[-84.1105,11.7622,142.4201],[-84.0765,11.7197,30.2461],[-84.0628,11.7255,22.8272],[-84.0541,11.7331,20.6066],[-84.0365,11.7574,33.4606],[-84.0324,11.7669,25.4766],[-84.0326,11.7699,15.4042],[-84.0294,11.7739,19.9389],[-84.0334,11.7829,20.288],[-84.0346,11.7909,30.9455],[-84.0398,11.8019,18.8496],[-84.0417,11.8111,43.3223],[-84.0412,11.8339,14.21],[-84.047,11.8519,15.9723],[-84.0409,11.8583,12.3778],[-84.0398,11.8783,37.8941],[-84.0453,11.8935,25.9096],[-84.0451,11.9147,20.5351],[-84.0505,11.9195,10.3203],[-84.052,11.9247,7.4754],[-84.0459,11.9455,6.7555],[-84.0437,11.9757,3.4171],[-84.04,11.9877,2.731],[-84.0337,11.9954,8.2855],[-84.0189,12.0016,1.915],[-84.01,12.0143,1.3319],[-84.0017,12.0185,5.7074],[-83.9899,12.0289,4.5884],[-83.9875,12.0329,6.6916],[-83.9861,12.0439,8.4973],[-83.9912,12.0589,1.3338],[-83.9887,12.0665,1.9243],[-83.9979,12.0821,2.9047],[-83.9978,12.0863,2.7646]]]]}
,"properties": {"GID_2": "NIC.2.3_1","GID_0": "NIC","country": "Nicaragua","GID_1": "NIC.2_1","province": "AtlánticoSur","NL_NAME_1": "NA","county": "ElRama","VARNAME_2": "NA","NL_NAME_2": "NA","TYPE_2": "Municipio","ENGTYPE_2": "Municipality","CC_2": "NA","HASC_2": "NI.AS.ER","name": "El_Rama.county","area_km2": 4911.963,"hist_schema_id": "Elevation0-9000","hist_area_km2": {"0": 263.602,"25": 890.534,"50": 705.667,"75": 565.332,"100": 473.856,"125": 521.615,"150": 412.294,"175": 365.997,"200": 252.302,"225": 153.336,"250": 95.606,"275": 74.604,"300": 56.17,"325": 40.1,"350": 17.581,"375": 8.969,"400": 5.199,"425": 2.838,"450": 2.341,"475": 1.471,"500": 0.932,"525": 0.621,"550": 0.559,"575": 0.228,"600": 0.104,"625": 0.083}}}