{"type":"Feature","properties":{"GID_2":"NIC.12.5_1","GID_0":"NIC","country":"Nicaragua","GID_1":"NIC.12_1","province":"Madriz","NL_NAME_1":"NA","county":"SanLucas","VARNAME_2":"NA","NL_NAME_2":"NA","TYPE_2":"Municipio","ENGTYPE_2":"Municipality","CC_2":"NA","HASC_2":"NI.MD.SL","name":"San_Lucas.county"},
"geometry":{"type": "MultiPolygon","coordinates": [[[[-86.7096,13.3649,1018.3187],[-86.6553,13.3594,1329.6622],[-86.6527,13.3604,1284.7842],[-86.6465,13.3709,1148.0984],[-86.6416,13.3722,918.8406],[-86.6089,13.3654,1473.5403],[-86.5927,13.3605,1135.8693],[-86.5891,13.3608,1137.3085],[-86.5688,13.3931,1129.1348],[-86.5602,13.4104,1077.427],[-86.55,13.423,1077.8082],[-86.5407,13.4281,1012.8112],[-86.549,13.4306,1199.7605],[-86.5805,13.4325,1034.9905],[-86.6095,13.4436,738.1021],[-86.6437,13.449,681.2101],[-86.6859,13.4436,812.3076],[-86.7094,13.4432,724.91],[-86.7232,13.4403,978.152],[-86.7224,13.4253,903.5683],[-86.7294,13.4141,981.3746],[-86.74,13.4027,1080.2241],[-86.7429,13.3929,1280.6399],[-86.7363,13.38,1161.9858],[-86.7313,13.3768,1157.5098],[-86.713,13.3724,931.8387],[-86.7104,13.3694,997.3369],[-86.7096,13.3649,1018.3187]]]]}}