{"type": "Feature","bbox": [-84.0393,12.1462,-82.9701,13.259],"geometry": {"type": "MultiPolygon","coordinates": [[[[-83.0418,12.1857,0.2878],[-83.0465,12.1862,0.4475],[-83.0557,12.1843,0.0],[-83.0579,12.1824,0.5481],[-83.0621,12.1829,0.0],[-83.0651,12.1788,0.7238],[-83.0654,12.1757,1.6767],[-83.0638,12.1751,2.9927],[-83.0635,12.1726,3.0259],[-83.071,12.1663,0.9709],[-83.0701,12.1635,0.0],[-83.0651,12.1596,4.4561],[-83.0674,12.1487,16.1639],[-83.0651,12.1462,0.0],[-83.0573,12.1473,0.0],[-83.0512,12.1635,0.3029],[-83.0485,12.166,2.0903],[-83.0424,12.1676,7.0729],[-83.0382,12.1668,0.0],[-83.0321,12.1749,0.0],[-83.0315,12.1774,0.0],[-83.0332,12.1793,3.36],[-83.0418,12.1857,0.2878]]],
[[[-82.9785,12.3021,0.0],[-82.9857,12.3021,0.0],[-82.9915,12.2988,0.0],[-82.9899,12.2963,0.0],[-82.991,12.2885,0.0],[-82.9863,12.2863,0.0],[-82.9818,12.2865,0.0],[-82.9776,12.281,0.7732],[-82.9779,12.2774,0.0],[-82.976,12.2746,0.0],[-82.9704,12.2749,0.0],[-82.9701,12.2799,0.0],[-82.9746,12.2843,1.0548],[-82.9751,12.2904,0.0],[-82.9774,12.2935,0.0],[-82.9765,12.2982,0.0],[-82.9785,12.3021,0.0]]],
[[[-83.3876,12.3815,2.0889],[-83.3879,12.3826,0.0],[-83.3904,12.3799,1.4428],[-83.389,12.3793,0.0],[-83.3876,12.3815,2.0889]]],
[[[-83.3749,12.4826,1.0843],[-83.3749,12.4846,0.0],[-83.3754,12.4849,0.0],[-83.3765,12.4815,0.0],[-83.3749,12.4826,1.0843]]],
[[[-83.4279,12.4707,0.0],[-83.4293,12.4712,2.6601],[-83.4299,12.4696,3.4902],[-83.4276,12.4685,0.0],[-83.4279,12.4707,0.0]]],
[[[-83.3885,12.4829,1.0874],[-83.3896,12.486,0.0],[-83.3899,12.4799,3.7716],[-83.3918,12.4765,0.0],[-83.3907,12.4765,0.0],[-83.3876,12.4796,1.6064],[-83.3885,12.4829,1.0874]]],
[[[-83.3879,12.4954,2.2355],[-83.3887,12.4971,0.0],[-83.3904,12.496,4.1497],[-83.3904,12.4888,3.0854],[-83.3882,12.49,0.8745],[-83.3879,12.4954,2.2355]]],
[[[-83.3615,12.536,3.1862],[-83.3615,12.5379,2.3892],[-83.3643,12.5368,5.8991],[-83.364,12.5354,0.0],[-83.3615,12.536,3.1862]]],
[[[-83.3235,12.7593,1.3867],[-83.3257,12.7599,0.0],[-83.3262,12.7579,0.0],[-83.3246,12.7579,0.6117],[-83.3235,12.7593,1.3867]]],
[[[-83.3579,12.8893,0.4572],[-83.3593,12.8904,0.0],[-83.3593,12.8874,0.0],[-83.3571,12.8876,0.748],[-83.3579,12.8893,0.4572]]],
[[[-83.664,12.3465,0.0],[-83.6651,12.3482,0.0],[-83.6682,12.3449,1.8517],[-83.6668,12.3399,1.309],[-83.6637,12.344,0.0],[-83.664,12.3465,0.0]]],
[[[-83.6476,12.359,0.0],[-83.6501,12.3588,0.0],[-83.6524,12.3562,1.9791],[-83.6493,12.3568,0.0],[-83.6476,12.359,0.0]]],
[[[-83.6413,12.3651,0.0],[-83.6396,12.3657,1.7423],[-83.639,12.3674,0.0],[-83.6421,12.366,5.8847],[-83.6413,12.3651,0.0]]],
[[[-83.666,12.3887,3.9961],[-83.6671,12.3896,0.0],[-83.6687,12.3868,6.0205],[-83.6687,12.376,2.5179],[-83.6765,12.3582,3.2824],[-83.6762,12.3568,0.0],[-83.6679,12.3546,1.675],[-83.6654,12.3562,5.9537],[-83.6643,12.3646,0.0],[-83.6599,12.3757,0.0],[-83.6604,12.3796,0.0],[-83.666,12.3843,2.3635],[-83.666,12.3887,3.9961]]],
[[[-83.4315,12.4254,0.0],[-83.4343,12.4265,1.2952],[-83.4349,12.4232,0.0],[-83.434,12.4229,0.0],[-83.4315,12.4254,0.0]]],
[[[-83.426,12.434,0.0],[-83.4271,12.4346,0.4059],[-83.4262,12.4304,0.0],[-83.4251,12.4318,0.0],[-83.426,12.434,0.0]]],
[[[-83.4313,12.4376,1.0241],[-83.4313,12.4396,0.5619],[-83.4337,12.4385,3.2784],[-83.4326,12.4368,0.0],[-83.4313,12.4376,1.0241]]],
[[[-83.4101,12.4424,4.5511],[-83.4101,12.4443,2.1397],[-83.414,12.4437,0.0],[-83.414,12.4426,0.0],[-83.4101,12.4424,4.5511]]],
[[[-83.6401,12.5224,0.0],[-83.6407,12.5235,0.0],[-83.641,12.5179,0.0],[-83.6401,12.5182,0.0],[-83.6401,12.5224,0.0]]],
[[[-83.6365,12.5601,1.0061],[-83.6368,12.5643,2.237],[-83.6376,12.5646,2.237],[-83.6382,12.5585,0.0],[-83.6365,12.5601,1.0061]]],
[[[-84.0042,13.2236,15.7543],[-84.0083,13.2195,18.4329],[-84.0064,13.2098,20.1258],[-84.0081,13.2038,17.8536],[-84.0155,13.202,24.917],[-84.0178,13.1928,28.4148],[-84.0365,13.1793,23.8786],[-84.0393,13.1706,30.9014],[-84.0368,13.1573,18.1844],[-84.0312,13.1483,29.1506],[-84.0281,13.1395,29.5207],[-84.0293,13.1347,31.5543],[-84.0354,13.1273,41.4663],[-84.0353,13.1248,43.1355],[-84.0333,13.1199,41.2803],[-84.0244,13.1112,35.732],[-84.0213,13.1026,13.7482],[-84.0206,13.0943,31.9606],[-84.0218,13.0726,59.3715],[-84.0362,13.0036,35.7263],[-84.0326,12.9707,36.2191],[-84.023,12.9537,20.6549],[-84.0055,12.9449,20.9026],[-83.9943,12.9414,28.3671],[-83.9766,12.9396,7.1489],[-83.9519,12.9278,15.0289],[-83.9371,12.9225,10.299],[-83.9088,12.92,3.661],[-83.8957,12.9115,9.6596],[-83.8903,12.9025,13.2832],[-83.884,12.8984,7.8976],[-83.8759,12.8991,7.8485],[-83.8625,12.9035,8.6661],[-83.8546,12.8996,10.5136],[-83.8447,12.8665,0.7623],[-83.8345,12.8515,0.505],[-83.8327,12.8401,2.4098],[-83.8268,12.8352,3.0199],[-83.8237,12.8352,3.2017],[-83.8253,12.8129,9.9119],[-83.827,12.8096,17.0275],[-83.8335,12.8066,4.0962],[-83.8497,12.8088,3.6868],[-83.8544,12.8076,2.3058],[-83.8646,12.7892,16.8507],[-83.8675,12.7882,21.4332],[-83.8742,12.7941,2.2623],[-83.889,12.7892,5.7277],[-83.893,12.7904,3.0128],[-83.9029,12.7974,2.7083],[-83.9147,12.8017,2.0483],[-83.928,12.8123,2.4637],[-83.9323,12.8209,3.4091],[-83.9362,12.824,5.4259],[-83.9393,12.8231,2.783],[-83.9424,12.8152,8.3751],[-83.9449,12.8146,3.399],[-83.9636,12.8178,1.3487],[-83.9741,12.8338,0.9729],[-83.9811,12.8415,5.9483],[-83.9836,12.8364,1.8926],[-84.0029,12.8288,23.8462],[-84.0089,12.8152,35.1584],[-84.0212,12.8028,14.023],[-84.0272,12.7939,23.0249],[-84.0311,12.7787,13.7667],[-84.0295,12.7721,21.0133],[-84.0216,12.7597,26.3204],[-84.009,12.7473,27.0553],[-84.0047,12.738,46.6236],[-84.0001,12.7187,52.7909],[-83.9821,12.6998,48.0859],[-83.9669,12.6723,38.9726],[-83.9406,12.6327,32.7735],[-83.9457,12.6071,36.836],[-83.9489,12.5779,24.9242],[-83.9537,12.5583,114.627],[-84.0095,12.4374,46.8024],[-84.009,12.4351,52.5062],[-83.9862,12.4235,50.1543],[-83.9714,12.4185,52.8338],[-83.9462,12.405,45.9285],[-83.9202,12.4023,23.5481],[-83.9137,12.4,15.5071],[-83.8938,12.3782,21.7898],[-83.874,12.3662,24.7123],[-83.8596,12.362,6.8061],[-83.8459,12.3516,17.082],[-83.8303,12.3337,53.5123],[-83.8255,12.3331,27.2034],[-83.8192,12.3348,12.9724],[-83.8141,12.3329,11.9116],[-83.8041,12.3206,3.6236],[-83.8006,12.3193,3.2933],[-83.7867,12.3206,3.2856],[-83.7753,12.3224,10.0638],[-83.768,12.326,13.5059],[-83.7185,12.2432,11.197],[-83.6696,12.2681,5.1434],[-83.6646,12.2674,0.0],[-83.6582,12.2863,2.211],[-83.6485,12.3071,8.9255],[-83.636,12.3265,4.4309],[-83.6224,12.3421,4.5875],[-83.6182,12.3524,0.3406],[-83.6279,12.3635,0.2768],[-83.6321,12.3651,0.5395],[-83.6349,12.3607,2.2663],[-83.6499,12.3521,1.1943],[-83.6543,12.3435,8.6778],[-83.6543,12.3351,5.0766],[-83.6624,12.3332,8.0057],[-83.6582,12.3265,3.2511],[-83.6596,12.3226,0.0],[-83.6582,12.3176,4.3756],[-83.6604,12.3149,4.5848],[-83.6596,12.311,3.9306],[-83.6607,12.3074,0.0],[-83.6679,12.3049,3.3352],[-83.6693,12.3021,0.0],[-83.6649,12.2957,0.0],[-83.6651,12.284,0.0],[-83.6676,12.281,0.0],[-83.671,12.2704,13.6372],[-83.6757,12.2699,6.5253],[-83.6787,12.2713,3.7281],[-83.6793,12.2738,0.0],[-83.681,12.2738,0.0],[-83.6787,12.2804,0.0],[-83.6801,12.2846,2.625],[-83.6779,12.2865,1.7479],[-83.679,12.2921,1.0949],[-83.676,12.3007,2.5832],[-83.6776,12.3038,5.749],[-83.674,12.3124,4.6278],[-83.6746,12.3174,4.2986],[-83.6724,12.3229,1.9],[-83.6637,12.3243,0.0],[-83.6632,12.3265,0.0],[-83.6676,12.3304,4.501],[-83.6693,12.341,1.4384],[-83.6735,12.3471,0.0],[-83.6785,12.346,0.7413],[-83.6879,12.3404,1.7035],[-83.6888,12.3385,3.6314],[-83.6957,12.3362,1.1395],[-83.6988,12.3335,5.0104],[-83.699,12.3301,6.6869],[-83.7035,12.3238,0.616],[-83.7171,12.3263,5.4608],[-83.7185,12.329,0.0],[-83.7204,12.329,4.4365],[-83.7321,12.3379,0.0],[-83.7299,12.3396,0.0],[-83.7296,12.3446,1.752],[-83.736,12.3601,7.3504],[-83.7363,12.3743,2.7679],[-83.734,12.3771,0.0],[-83.7351,12.384,8.1734],[-83.7201,12.4001,0.0],[-83.7288,12.4149,8.4049],[-83.7326,12.4254,0.0],[-83.7332,12.4315,1.2691],[-83.7288,12.4421,4.5672],[-83.731,12.451,3.5457],[-83.7301,12.4549,0.0],[-83.7332,12.4596,3.4283],[-83.7349,12.4738,9.0],[-83.7385,12.4785,1.6366],[-83.7404,12.4785,5.7794],[-83.744,12.474,1.2254],[-83.7462,12.474,1.5929],[-83.751,12.4771,0.0],[-83.7521,12.4821,0.0],[-83.7543,12.4818,3.1945],[-83.7593,12.4782,6.2688],[-83.7635,12.4779,3.477],[-83.7704,12.471,0.0],[-83.7721,12.4671,3.2114],[-83.7818,12.476,0.0],[-83.7835,12.4885,0.0],[-83.7774,12.4982,0.0],[-83.7776,12.529,0.0],[-83.776,12.5313,2.6095],[-83.7724,12.5313,1.151],[-83.7701,12.5374,8.1634],[-83.7657,12.5368,0.0],[-83.7607,12.5449,2.2611],[-83.7549,12.5463,0.6079],[-83.7515,12.5487,0.7684],[-83.7501,12.5521,3.119],[-83.7465,12.5535,0.0],[-83.7349,12.5518,0.0],[-83.7132,12.5537,0.0],[-83.7004,12.5496,2.0206],[-83.6904,12.5613,2.8698],[-83.6893,12.5646,0.6979],[-83.6835,12.5654,0.0],[-83.679,12.569,4.1083],[-83.6743,12.5682,0.0],[-83.6724,12.5704,0.0],[-83.6696,12.5704,0.0],[-83.6668,12.5754,0.0],[-83.6601,12.5804,0.0],[-83.656,12.5868,1.0164],[-83.6432,12.5949,0.0],[-83.641,12.6001,1.8587],[-83.6435,12.6024,0.0],[-83.6432,12.6046,1.1832],[-83.6351,12.6035,0.9959],[-83.6326,12.6007,1.5829],[-83.6288,12.6012,0.0],[-83.6215,12.6046,0.264],[-83.6157,12.6118,1.884],[-83.614,12.619,6.3205],[-83.6101,12.6226,0.0],[-83.6107,12.6254,0.0],[-83.6065,12.6271,2.531],[-83.5963,12.6235,0.0],[-83.6038,12.634,6.3389],[-83.6012,12.6404,2.3691],[-83.5974,12.6413,2.0472],[-83.5979,12.6438,0.0],[-83.6065,12.651,1.5223],[-83.6076,12.6543,3.0751],[-83.6051,12.6571,5.1465],[-83.6051,12.6615,5.266],[-83.6026,12.6657,0.0],[-83.6029,12.6746,0.0],[-83.6001,12.6824,0.0],[-83.6035,12.6963,9.9394],[-83.6174,12.7068,0.8341],[-83.6263,12.7204,4.6383],[-83.6174,12.7215,0.0],[-83.619,12.739,0.0],[-83.6243,12.746,1.9483],[-83.6274,12.7457,0.0],[-83.631,12.7496,1.0515],[-83.6374,12.7446,5.2308],[-83.6415,12.7438,0.0],[-83.6479,12.7488,0.0],[-83.656,12.7474,0.0],[-83.6582,12.7521,0.0],[-83.6568,12.7615,4.1663],[-83.6451,12.7718,0.0],[-83.6482,12.7776,1.0171],[-83.6482,12.7874,0.0],[-83.6549,12.7943,4.567],[-83.6535,12.7957,0.0],[-83.6543,12.7993,0.0],[-83.649,12.8013,2.3212],[-83.6418,12.8004,0.0],[-83.6338,12.8118,0.0],[-83.6237,12.8179,2.9772],[-83.6171,12.8179,0.0],[-83.6115,12.8212,3.9709],[-83.6032,12.8201,0.0],[-83.5976,12.8179,0.9187],[-83.5924,12.8135,0.0],[-83.5621,12.8046,0.0],[-83.5468,12.7907,4.5113],[-83.5435,12.776,0.0],[-83.5451,12.7671,0.7245],[-83.544,12.7568,0.7914],[-83.5462,12.7535,3.9968],[-83.5554,12.7493,0.4406],[-83.5668,12.7387,0.8457],[-83.564,12.7365,0.0],[-83.5643,12.7213,0.0],[-83.5587,12.7274,6.5082],[-83.5565,12.7274,5.1064],[-83.5582,12.7268,0.0],[-83.5593,12.7199,0.0],[-83.5582,12.7124,0.0],[-83.5654,12.6921,2.8916],[-83.5651,12.6893,6.9014],[-83.571,12.6821,0.0],[-83.5726,12.6774,0.0],[-83.5726,12.6688,0.0],[-83.5651,12.6571,4.1341],[-83.5654,12.651,1.2678],[-83.5632,12.6451,0.0],[-83.5607,12.6463,0.9366],[-83.5618,12.6449,1.9335],[-83.5593,12.6388,2.6848],[-83.5615,12.6263,2.4922],[-83.561,12.6029,1.1508],[-83.5632,12.5938,1.1735],[-83.5699,12.5787,1.4218],[-83.5771,12.5674,0.0],[-83.579,12.561,0.0],[-83.5821,12.5593,1.4782],[-83.5946,12.5599,3.4413],[-83.6135,12.5649,2.2437],[-83.6257,12.5579,3.084],[-83.6276,12.5593,0.0],[-83.6282,12.5624,0.7932],[-83.6268,12.5693,0.0],[-83.6304,12.574,7.5442],[-83.6312,12.579,0.7907],[-83.6338,12.5751,4.5372],[-83.6332,12.5718,5.6625],[-83.6357,12.5674,3.9894],[-83.6363,12.559,1.0061],[-83.6343,12.5518,0.3151],[-83.6351,12.5443,4.3122],[-83.6393,12.5371,0.0],[-83.6368,12.5293,2.365],[-83.639,12.5174,0.0],[-83.6365,12.5093,0.5534],[-83.6382,12.5063,0.0],[-83.6374,12.4982,1.4754],[-83.639,12.496,0.0],[-83.6379,12.484,2.3333],[-83.6393,12.4776,1.6158],[-83.6346,12.4749,0.8149],[-83.6296,12.469,2.0252],[-83.6257,12.4604,0.0],[-83.6207,12.454,0.9788],[-83.6157,12.4412,0.0],[-83.6087,12.4335,2.7179],[-83.6035,12.4246,0.0],[-83.6065,12.4146,2.0895],[-83.6132,12.4079,1.0558],[-83.6215,12.4043,1.6995],[-83.6226,12.401,0.6316],[-83.6363,12.3874,0.0],[-83.6365,12.3804,5.0318],[-83.6424,12.3754,0.0],[-83.641,12.3732,0.0],[-83.6301,12.3701,0.0],[-83.6215,12.3632,0.0],[-83.6137,12.3671,4.0786],[-83.6015,12.3765,1.5024],[-83.5893,12.3826,8.0356],[-83.5701,12.386,7.5577],[-83.5674,12.386,7.9782],[-83.5679,12.384,8.9691],[-83.5546,12.3843,1.7839],[-83.5324,12.3896,7.6279],[-83.5018,12.3851,0.0],[-83.4935,12.3901,0.0],[-83.4907,12.3954,1.9544],[-83.4865,12.4574,0.3909],[-83.4874,12.4651,0.0],[-83.5165,12.5057,0.9542],[-83.5296,12.5326,2.5143],[-83.539,12.5668,0.0],[-83.544,12.6018,5.0407],[-83.5454,12.6263,6.3953],[-83.5449,12.6696,1.3298],[-83.5315,12.7904,2.3835],[-83.5249,12.8251,6.1173],[-83.5099,12.8762,0.0],[-83.5051,12.9012,0.0],[-83.5065,12.9051,3.0948],[-83.5115,12.9085,0.8003],[-83.516,12.9082,1.7222],[-83.5224,12.9037,4.6632],[-83.5232,12.8993,0.0],[-83.5157,12.8938,4.7863],[-83.5143,12.8901,5.1922],[-83.5171,12.8801,0.8975],[-83.5184,12.8771,3.8648],[-83.5229,12.8754,8.551],[-83.5271,12.8757,3.0854],[-83.5315,12.8793,1.3533],[-83.5326,12.8846,0.0],[-83.5257,12.8901,1.6241],[-83.5301,12.894,0.5659],[-83.5285,12.9035,0.0721],[-83.5196,12.9101,0.2744],[-83.5157,12.9107,2.5194],[-83.5146,12.914,4.6786],[-83.5254,12.9546,2.2372],[-83.5401,13.0321,0.0],[-83.5464,13.0315,4.4489],[-83.5645,13.0353,1.9914],[-83.5883,13.0379,14.9996],[-83.6438,13.0348,47.823],[-83.6469,13.036,37.5316],[-83.6618,13.0467,51.4119],[-83.6924,13.0652,48.0071],[-83.7313,13.0933,35.9954],[-83.8256,13.1531,30.6131],[-83.8312,13.1607,23.0657],[-83.8306,13.1665,24.5141],[-83.8199,13.1912,19.8749],[-83.8013,13.221,18.7931],[-83.7988,13.2275,13.1847],[-83.8006,13.2345,12.0072],[-83.8067,13.2381,11.216],[-83.8193,13.2409,18.4129],[-83.8332,13.24,14.8758],[-83.8471,13.2522,10.578],[-83.8582,13.2588,13.17],[-83.9078,13.259,16.8622],[-83.9251,13.2575,23.1665],[-83.9396,13.254,20.1549],[-83.9704,13.2537,4.6381],[-83.9884,13.251,13.4796],[-83.9889,13.2484,13.0263],[-83.9861,13.2449,6.3972],[-83.9876,13.242,15.6809],[-83.9827,13.229,15.9677],[-83.9828,13.2258,4.1481],[-83.9848,13.224,4.2027],[-84.0042,13.2236,15.7543]]]]}
,"properties": {"GID_2": "NIC.2.6_1","GID_0": "NIC","country": "Nicaragua","GID_1": "NIC.2_1","province": "AtlánticoSur","NL_NAME_1": "NA","county": "LagunadePerlas","VARNAME_2": "NA","NL_NAME_2": "NA","TYPE_2": "Municipio","ENGTYPE_2": "Municipality","CC_2": "NA","HASC_2": "NI.AS.LP","name": "Lagunade_Perlas.county","area_km2": 3827.199,"hist_schema_id": "Elevation0-9000","hist_area_km2": {"0": 1737.158,"25": 1492.882,"50": 563.35,"75": 32.173,"100": 1.345,"125": 0.228,"150": 0.041}}}