{"type":"Feature","properties":{"GID_1":"NIC.8_1","GID_0":"NIC","country":"Nicaragua","province":"Granada","VARNAME_1":"NA","NL_NAME_1":"NA","TYPE_1":"Departamento","ENGTYPE_1":"Department","CC_1":"NA","HASC_1":"NI.GR","ISO_1":"NI-GR","name":"Granada.province"},
"geometry":{"type": "MultiPolygon","coordinates": [[[[-85.8747,11.6874,33.7114],[-85.8668,11.6869,35.851],[-85.8492,11.6963,31.0],[-85.8381,11.6964,31.0],[-85.8028,11.6901,31.0],[-85.7934,11.6916,31.0],[-85.7884,11.6952,31.0],[-85.7862,11.7005,31.0],[-85.786,11.7131,31.0],[-85.7933,11.7241,128.0425],[-85.7948,11.7286,150.6891],[-85.7931,11.7388,86.3218],[-85.7992,11.7478,108.4202],[-85.8034,11.7507,156.0201],[-85.8077,11.7506,152.4007],[-85.808,11.7437,329.0881],[-85.8096,11.7421,358.8434],[-85.8189,11.7439,490.9393],[-85.8402,11.7433,128.5263],[-85.8507,11.7525,138.185],[-85.854,11.7534,177.3129],[-85.8594,11.7481,189.9055],[-85.8656,11.7491,84.2514],[-85.8677,11.748,64.5255],[-85.8654,11.7375,137.8658],[-85.8756,11.7274,31.0],[-85.8762,11.7229,31.0],[-85.8823,11.7188,31.0],[-85.8822,11.7168,31.0],[-85.87,11.709,88.2962],[-85.8645,11.7,31.0],[-85.8642,11.6964,31.0],[-85.8663,11.6945,31.0],[-85.8693,11.695,118.4105],[-85.872,11.7014,31.0],[-85.8747,11.7017,31.0],[-85.8769,11.6984,31.0],[-85.8773,11.6907,31.0],[-85.8747,11.6874,33.7114]]],
[[[-85.8221,11.7566,104.1134],[-85.8229,11.7594,58.4379],[-85.8256,11.7607,52.2942],[-85.8285,11.7579,83.4526],[-85.824,11.7518,179.7604],[-85.8221,11.7566,104.1134]]],
[[[-85.8651,11.7568,31.6389],[-85.864,11.7571,38.0269],[-85.8655,11.7619,32.8464],[-85.8699,11.7602,31.0],[-85.8707,11.7577,31.0],[-85.8651,11.7568,31.6389]]],
[[[-85.8572,11.7739,31.0],[-85.8603,11.7698,54.2277],[-85.8577,11.7672,41.2851],[-85.8531,11.7673,85.6945],[-85.8518,11.7694,70.6627],[-85.8526,11.7737,33.7005],[-85.8547,11.775,31.0],[-85.8572,11.7739,31.0]]],
[[[-86.1149,11.6098,55.1519],[-86.1135,11.6048,66.1713],[-86.1003,11.6062,76.1879],[-86.0954,11.6052,81.3262],[-86.0922,11.6023,109.1879],[-86.0853,11.6009,69.8719],[-86.0679,11.6131,100.8181],[-86.0567,11.616,91.9994],[-86.0323,11.6169,109.5258],[-86.0268,11.6192,91.0893],[-86.0241,11.6224,93.9289],[-86.0205,11.6358,138.9142],[-86.0176,11.641,160.8787],[-86.004,11.6515,106.7286],[-85.9943,11.6532,71.3023],[-85.9805,11.6465,56.9631],[-85.9648,11.6453,52.863],[-85.962,11.6509,53.1271],[-85.9457,11.6561,49.0319],[-85.9199,11.6591,43.8246],[-85.9099,11.6646,55.5968],[-85.899,11.6733,61.2274],[-85.8977,11.6761,53.7167],[-85.8991,11.679,31.726],[-85.9105,11.681,43.5784],[-85.9196,11.694,85.0204],[-85.9202,11.6994,43.3268],[-85.9175,11.707,33.4707],[-85.9233,11.7156,43.6905],[-85.921,11.7197,34.1936],[-85.9088,11.7277,31.0],[-85.907,11.7323,31.0],[-85.905,11.7332,31.0],[-85.8968,11.7309,31.0],[-85.8924,11.7403,31.0],[-85.8859,11.7459,31.0],[-85.8849,11.7535,31.0],[-85.8918,11.7741,57.4995],[-85.8902,11.7774,89.537],[-85.883,11.7827,31.0],[-85.883,11.7847,31.0],[-85.8859,11.7913,31.0],[-85.8858,11.797,31.0],[-85.8951,11.8079,191.426],[-85.8994,11.8262,31.0],[-85.9104,11.8473,102.3259],[-85.9157,11.8513,113.4275],[-85.9187,11.8477,154.614],[-85.9215,11.8501,157.3801],[-85.9221,11.8608,89.5794],[-85.925,11.8662,73.8483],[-85.925,11.8756,73.652],[-85.9234,11.8799,31.0],[-85.9201,11.8819,31.0],[-85.9179,11.8813,31.0],[-85.9063,11.8758,31.0],[-85.8955,11.8647,32.691],[-85.89,11.8638,31.0],[-85.8877,11.8659,31.0],[-85.8871,11.8706,31.0],[-85.8941,11.8863,33.3705],[-85.8991,11.8914,38.224],[-85.9155,11.8982,37.5682],[-85.9196,11.8981,35.482],[-85.921,11.8954,31.0],[-85.9268,11.8952,31.0],[-85.9319,11.8995,45.3659],[-85.9382,11.9194,34.3737],[-85.937,11.926,31.0],[-85.9379,11.9376,31.0],[-85.9356,11.9664,31.0],[-85.9196,11.9984,31.0],[-85.912,12.0196,31.0],[-85.8949,12.0443,31.0],[-85.8839,12.0668,31.0],[-85.8773,12.0764,31.0],[-85.8787,12.0861,31.0],[-85.8938,12.0867,36.7358],[-85.8943,12.0902,35.9768],[-85.8907,12.0955,34.7001],[-85.8937,12.0965,34.7857],[-85.9026,12.0923,35.2449],[-85.9157,12.0899,33.6513],[-85.937,12.0897,33.9237],[-85.9529,12.0917,33.1932],[-85.9572,12.0914,32.5685],[-85.9599,12.0886,32.5473],[-85.9565,12.0729,34.1218],[-85.9682,12.0486,34.9143],[-85.9683,12.0119,41.4118],[-85.9699,12.0072,40.8343],[-86.0069,11.9574,158.6538],[-86.016,11.9483,204.5909],[-86.0236,11.9331,73.0],[-86.0249,11.9252,73.0],[-86.0403,11.922,73.0],[-86.0406,11.9173,73.0],[-86.0429,11.9102,73.0],[-86.0451,11.9098,73.0],[-86.0451,11.9064,73.0],[-86.049,11.9044,81.7213],[-86.0611,11.889099999999999,375.9113],[-86.0725,11.8711,349.5749],[-86.0819,11.8379,293.1896],[-86.0903,11.8194,277.0583],[-86.111,11.7933,305.8839],[-86.112,11.7809,285.6616],[-86.1101,11.7666,233.6402],[-86.099,11.7363,148.5358],[-86.0969,11.7218,124.7375],[-86.099,11.7148,126.198],[-86.1031,11.7093,135.5369],[-86.1064,11.7079,142.1421],[-86.1267,11.7069,165.9461],[-86.1317,11.7043,181.8831],[-86.1338,11.6982,204.7359],[-86.1289,11.6676,374.59],[-86.1291,11.6613,276.3202],[-86.1349,11.6451,305.0175],[-86.1348,11.6405,290.3766],[-86.13,11.6326,133.1217],[-86.1226,11.6246,127.7956],[-86.1149,11.6098,55.1519]]],
[[[-85.9054,11.7176,31.0],[-85.905,11.7147,31.0],[-85.9022,11.7135,31.0],[-85.8998,11.7146,31.0],[-85.8997,11.7196,31.0],[-85.9016,11.7207,31.0],[-85.9054,11.7176,31.0]]],
[[[-85.8476,12.1683,38.001],[-85.8498,12.1739,41.7607],[-85.8671,12.1798,40.3211],[-85.872,12.1867,42.5479],[-85.8867,12.1869,44.0585],[-85.8908,12.1902,45.0293],[-85.9042,12.1794,43.1511],[-85.9059,12.1685,41.6266],[-85.9106,12.1621,41.1417],[-85.923,12.1534,39.9567],[-85.9675,12.1403,38.8409],[-85.9881,12.1314,31.4078],[-85.9975,12.13,32.5581],[-86.0073,12.1312,33.862],[-85.9919,12.1135,32.2215],[-85.9728,12.1039,31.0],[-85.9596,12.0994,32.8768],[-85.927,12.0962,33.8954],[-85.8839,12.0992,34.6569],[-85.8674,12.0828,31.0],[-85.8677,12.075,31.0],[-85.8641,12.0704,31.0],[-85.85,12.0659,31.0],[-85.8367,12.0652,31.0],[-85.8253,12.0688,31.0],[-85.8199,12.0732,31.0],[-85.8179,12.0759,31.0],[-85.8218,12.0822,31.0],[-85.8198,12.0845,31.0],[-85.8142,12.0802,31.0],[-85.8101,12.0805,31.0],[-85.8086,12.0847,31.0],[-85.8034,12.0883,31.0],[-85.7919,12.09,31.0],[-85.789,12.0931,31.0],[-85.786,12.0934,31.0],[-85.7862,12.1036,31.0],[-85.7901,12.1102,31.0],[-85.8038,12.1138,31.3505],[-85.8196,12.1234,37.141],[-85.8249,12.1246,35.0499],[-85.8338,12.1228,34.3945],[-85.8433,12.1266,35.8759],[-85.847,12.133,39.2817],[-85.847,12.1567,38.9889],[-85.8415,12.163,36.7445],[-85.8476,12.1683,38.001]]],
[[[-85.8805,12.0627,31.0],[-85.8659,12.0661,31.0],[-85.8655,12.0704,31.0],[-85.8715,12.0732,31.0],[-85.8781,12.0711,31.0],[-85.8815,12.0674,31.0],[-85.882,12.0647,31.0],[-85.8805,12.0627,31.0]]]]}}