{"type":"Feature","properties":{"featurecla":"Lake","scalerank":5,"name":"Lago de Managua","name_abb":"L. de Managua","name_alt":"Lake Xolotln","note":null,"delta":null,"dam_name":null,"year":-99,"admin":null,"min_zoom":4.7,"min_label":6.0},
"geometry":{"type": "Polygon","coordinates": [[[-86.1240220298621,12.344273449338601,40.6838],[-86.151692257812485,12.326317237583567,40.0],[-86.177890665127208,12.296880824870414,40.0],[-86.200262338789216,12.276569700098321,40.0],[-86.202322887679131,12.303651199794444,46.11],[-86.220426281497723,12.377536595704498,46.5704],[-86.231023390074469,12.392549166188218,44.5258],[-86.239854313888415,12.399025176985106,41.1775],[-86.2684076342202,12.427284133189744,40.0],[-86.271940003745769,12.433465779859517,40.0],[-86.268849180410882,12.441707975419206,40.681],[-86.275472373271356,12.495576610684282,43.3669],[-86.282389930258944,12.49969770846414,43.1217],[-86.289601851373675,12.501463893226912,41.1966],[-86.2963722262977,12.500286436718397,40.0],[-86.302701055031037,12.495576610684282,40.0],[-86.318891082023271,12.500286436718397,40.0],[-86.3303712829814,12.492044241158709,40.0],[-86.342587394257379,12.480564040200562,42.0076],[-86.3614266983938,12.474382393530817,40.0],[-86.378352635703877,12.472321844640874,40.0],[-86.40116585555657,12.46290219257267,40.0],[-86.416031243976718,12.460841643682755,40.0],[-86.446497931134857,12.451716355741667,40.0],[-86.463718232572049,12.431110866842459,40.0],[-86.478730803055768,12.408150464926194,40.0],[-86.501985569099176,12.392549166188218,98.7381],[-86.521707965617,12.390782981425417,127.0618],[-86.544226821342562,12.393726622696732,70.9781],[-86.5626245792883,12.400496997620763,78.4616],[-86.570278046593714,12.409916649688967,96.124],[-86.572191413420072,12.418453209375798,104.4119],[-86.577195603581316,12.423163035409885,86.4841],[-86.583818796441776,12.424046127791286,49.8838],[-86.590736353429364,12.419925030011456,40.0],[-86.595151815336351,12.413154655087425,40.0],[-86.596770818035566,12.405795551909137,40.0],[-86.5975067283534,12.385778791264187,40.0],[-86.593974358827822,12.345745269974259,40.0],[-86.575870965009216,12.321313047422336,40.0],[-86.546434552296049,12.305123020430102,40.0],[-86.45753658590229,12.26891623279289,40.0],[-86.425450896044936,12.246544559130911,40.0],[-86.4135291488961,12.246838923258025,40.0],[-86.404109496827886,12.255669847071971,40.0],[-86.392776477933324,12.26891623279289,43.2306],[-86.365106249982944,12.28746117280221,40.0],[-86.332431831871332,12.293348455344841,48.2942],[-86.303878511539551,12.281868254386694,40.0],[-86.289160305182975,12.248605108020826,40.0],[-86.289601851373675,12.228293983248733,40.0],[-86.2954891339163,12.210926499747956,40.0],[-86.30593906042948,12.198563206408437,40.0],[-86.3200685385318,12.193853380374321,40.0],[-86.322864997739543,12.191498467357263,40.0],[-86.324631182502344,12.185316820687518,40.0],[-86.325072728693044,12.178252081636344,40.0],[-86.323895272184515,12.172953527347971,40.0],[-86.320657266786057,12.168538065440998,40.0],[-86.318449535832571,12.168243701313884,40.0],[-86.3153587124977,12.168538065440998,40.0],[-86.300640506141107,12.164711331788283,40.0],[-86.148895798604727,12.168832429568141,44.6694],[-86.117840383192345,12.180312630526259,40.0],[-86.108862277314827,12.193853380374321,42.4183],[-86.102386266517925,12.214164505146414,44.8955],[-86.091494793814064,12.288932993437868,50.4121],[-86.090758883496235,12.311304667099876,46.2945],[-86.097234894293123,12.330438335363425,43.8374],[-86.1240220298621,12.344273449338601,40.6838]]]}}