{"type":"Feature","properties":{"featurecla":"Lake","scalerank":1,"name":"Lago de Nicaragua","name_abb":"L. de Nicaragua","name_alt":null,"note":null,"delta":null,"dam_name":null,"year":-99,"admin":null,"min_zoom":1.7,"min_label":3.6},
"geometry":{"type": "Polygon","coordinates": [[[-84.78201597426883,11.162695843032083,32.4562],[-84.78201597426883,11.241291064976252,32.2553],[-84.788344803002161,11.264251466892517,33.0323],[-84.797764455070364,11.278380944994836,32.1765],[-84.826170593338574,11.306345537072332,33.2157],[-84.83544306334322,11.312527183742105,32.4543],[-84.845157079538566,11.312527183742105,31.0],[-84.85722600875097,11.310172270725047,31.0],[-84.8626717451029,11.319003194538993,31.7677],[-84.859286557640885,11.323713020573109,35.3981],[-84.853252093034683,11.326951025971567,32.9648],[-84.85089718001764,11.330777759624283,32.1184],[-84.861199924467243,11.346673422489374,31.0],[-84.874593492251734,11.356681802811863,50.8815],[-84.886220875273438,11.368162003769982,34.9388],[-84.891225065434682,11.388473128542074,35.0663],[-84.892549704006768,11.407901160932767,55.8615],[-84.894757434960255,11.41820390538237,43.766],[-84.89814262242227,11.426151736814944,32.5553],[-84.90476581528273,11.432922111738975,31.0],[-84.91065309782536,11.434688296501747,31.0],[-84.917129108622262,11.43586575301029,31.0],[-84.925371304181951,11.440281214917263,31.0],[-84.958487268484262,11.487379475258308,34.7905],[-84.98130048833697,11.501508953360627,31.0],[-85.021039645499741,11.549784670210244,41.1067],[-85.046060596305935,11.56862397434665,52.5228],[-85.057687979327639,11.580104175304797,35.3195],[-85.065635810760185,11.60630258261952,35.0659],[-85.072994913938487,11.616310962941981,34.1736],[-85.08992085124855,11.6322066258071,36.2261],[-85.092717310456308,11.633972810569901,34.881],[-85.1005179598253,11.636327723586959,31.0],[-85.103608783160169,11.638388272476874,31.0],[-85.105522149986527,11.641626277875304,31.0],[-85.108024245067156,11.64898538105362,35.5619],[-85.1103791580842,11.652812114706308,36.4526],[-85.147321856039227,11.696083641394665,34.6488],[-85.186177920820612,11.755250830948142,42.2262],[-85.193831388126029,11.7576057439652,31.7176],[-85.215614333533779,11.761432477617916,31.0],[-85.2237093470299,11.765847939524889,31.0],[-85.237691643068644,11.782037966517123,34.8095],[-85.2456394745012,11.787336520805496,31.6089],[-85.257414039586479,11.789397069695411,33.1897],[-85.272132245943055,11.795284352238042,32.3053],[-85.280963169757,11.809119466213247,71.8125],[-85.287733544681032,11.825309493205481,72.5721],[-85.295975740240721,11.837672786545,39.0199],[-85.3232044220004,11.855923362427177,33.9135],[-85.367506223133717,11.877706307834927,31.0],[-85.4101890215678,11.88624286752173,31.0],[-85.43256069522981,11.865048650368266,31.0],[-85.480542047952284,11.912441274836453,31.0],[-85.491727884783288,11.938934046278291,32.2449],[-85.511008735110408,11.968370458991473,38.7598],[-85.518220656225125,11.974846469788361,32.2741],[-85.563111185612712,12.028420740926322,31.0],[-85.5950496934065,12.052264235223987,40.1329],[-85.618157277386331,12.036368572358896,31.0],[-85.6243389240561,12.036368572358896,31.0],[-85.6243389240561,12.043138947282927,31.0],[-85.631992391361521,12.039900941884468,31.0],[-85.643472592319654,12.038723485375925,31.0],[-85.653922518832829,12.040195306011583,31.0],[-85.658485162803373,12.046082588554242,33.0571],[-85.66157598613826,12.057268425385246,32.8213],[-85.669670999634377,12.062861343800733,32.1031],[-85.693220129804914,12.071103539360422,31.0],[-85.7595992404731,12.106427234616234,31.0],[-85.775200539211085,12.118201799701495,33.5206],[-85.77564208540177,12.119967984464267,32.3906],[-85.795364481919592,12.110253968268921,31.0],[-85.817588973518042,12.095830126039488,31.0],[-85.8445232911506,12.089648479369714,31.3249],[-85.871310426719575,12.097890674929403,31.6556],[-85.890296912919567,12.074930273013138,31.0],[-85.922088238649778,12.01252507806123,31.0],[-85.933421257544353,11.981028116458134,31.0],[-85.9362177167521,11.967193002482929,31.0],[-85.9379839015149,11.946881877710865,31.0],[-85.9366592629428,11.928336937701573,31.0],[-85.929741705955209,11.920094742141885,31.0],[-85.911343948009474,11.917151100870569,40.948],[-85.9017771138777,11.908320177056595,31.3805],[-85.891768733555224,11.878589400216299,33.3648],[-85.898686290542813,11.878589400216299,32.3957],[-85.904279208958314,11.899783617369792,37.5293],[-85.9185558691242,11.892424514191504,31.0],[-85.927386792938151,11.874762666563612,110.3953],[-85.916053774043576,11.865048650368266,31.0],[-85.898244744352112,11.854157177664376,31.0],[-85.891327187364524,11.829430590985311,31.0],[-85.891768733555224,11.783215423025638,51.8656],[-85.8849983586312,11.764670483016346,31.0],[-85.885145540694751,11.753484646185342,31.0],[-85.901188385623428,11.744948086498539,31.0],[-85.909136217055988,11.737000255065965,31.0],[-85.916200956107147,11.726991874743504,31.0],[-85.919144597378462,11.717866586802415,31.0],[-85.912521404518,11.704620201081497,32.7177],[-85.87881671196142,11.670179598207085,31.5017],[-85.864540051795544,11.659582489630338,33.2442],[-85.8707216984653,11.678421793766773,33.9503],[-85.872193519100961,11.688724538216377,33.2007],[-85.871310426719575,11.701087831555924,31.0],[-85.864540051795544,11.701087831555924,31.0],[-85.860566136079257,11.69490618488615,31.0],[-85.858505587189342,11.689607630597777,31.0],[-85.859388679570742,11.684897804563661,31.0],[-85.864540051795544,11.680187978529574,33.1403],[-85.856739402426555,11.663703587410197,31.0],[-85.8440817449599,11.604830761983862,31.0],[-85.849821845438953,11.607480039128035,31.0],[-85.859683043697871,11.609246223890835,32.0],[-85.864540051795544,11.611895501035008,32.0],[-85.865275962113373,11.60129839245829,32.0],[-85.863215413223443,11.591878740390058,32.3086],[-85.858211223062213,11.583930908957512,33.3469],[-85.850263391629653,11.576866169906339,32.611],[-85.850263391629653,11.5912900121358,33.3393],[-85.833484636383147,11.576866169906339,31.0],[-85.8027235850979,11.525058083531178,31.0],[-85.795658846046734,11.508868056538944,31.0],[-85.768282982223482,11.406429340297109,31.0],[-85.750326770468448,11.375521106948298,31.0],[-85.628018475645248,11.255420543078571,31.0],[-85.5950496934065,11.252182537680113,40.0138],[-85.578123756096431,11.24776707577314,31.0],[-85.562816821485583,11.241291064976252,31.0],[-85.5355881397259,11.224806673856875,31.0],[-85.5235192105135,11.215681385915786,31.0],[-85.511303099237537,11.203612456703382,31.7419],[-85.497173621135218,11.193604076380922,31.0],[-85.408864382995716,11.162401478904968,31.0],[-85.367359041070145,11.15916347350651,31.0],[-85.332918438195748,11.151510006201079,31.0],[-85.295975740240721,11.138852348734417,31.0],[-85.285820177854674,11.130315789047614,31.0],[-85.265803417209725,11.108827207767007,32.2291],[-85.257414039586479,11.104706109987148,31.0],[-85.235925458305857,11.105883566495663,31.0],[-85.224739621474853,11.105000474114291,31.0],[-85.20148485543146,11.094109001410402,31.0],[-85.185294828439211,11.095286457918945,31.0],[-85.168663255256277,11.09823009919026,32.2831],[-85.1526204103276,11.097935735063118,31.0],[-84.972763928650153,11.057313485518961,31.0],[-84.9561323554672,11.056136029010418,31.0],[-84.9342022279959,11.051720567103445,31.0],[-84.91860092925792,11.03288126296701,34.0928],[-84.89814262242227,11.029054529314323,31.6498],[-84.888281424163353,11.031115078204238,32.4342],[-84.862377380975772,11.042300915035241,31.0],[-84.85722600875097,11.045833284560814,31.0],[-84.8514859082719,11.048188197577872,31.0],[-84.819547400478115,11.049365654086387,34.0739],[-84.776423055853328,11.080862615689483,32.3908],[-84.76773931410294,11.090282267757686,32.9919],[-84.766414675530854,11.108827207767007,34.2087],[-84.778630786806815,11.141207261751475,32.3378],[-84.78201597426883,11.162695843032083,32.4562]],
[[-85.878227983707163,11.707858206479955,43.4685],[-85.863804141477715,11.713451124895442,83.8017],[-85.857622494807941,11.7140398531497,69.0571],[-85.867042146876159,11.724048233472189,31.5442],[-85.872487883228089,11.731407336650477,33.5605],[-85.873959703863747,11.738472075701623,122.9184],[-85.871310426719575,11.748480456024112,31.0],[-85.8440817449599,11.769380309050462,31.0],[-85.834367728764548,11.761432477617916,64.1627],[-85.822445981615715,11.762315569999288,51.6412],[-85.799338397635879,11.769380309050462,31.0],[-85.792126476521148,11.76172684174503,31.0],[-85.786680740169217,11.743770629989996,31.0],[-85.7819709141351,11.711096211878385,31.0],[-85.878227983707163,11.707858206479955,43.4685]],
[[-85.452577455874774,11.427329193323459,31.0],[-85.463468928578635,11.416732084746712,41.2777],[-85.476862496363125,11.412610986966882,35.351],[-85.481277958270113,11.410256073949824,33.3181],[-85.494082797800331,11.401130786008736,31.0],[-85.497615167325918,11.398775872991678,31.0],[-85.5054158166949,11.399953329500221,31.0],[-85.51571856114451,11.405251883788594,65.5086],[-85.525285395276285,11.406429340297109,51.5438],[-85.547362704811164,11.418792633636656,31.0],[-85.566349191011156,11.474427453664532,31.0],[-85.590192685308821,11.488262567639708,31.0],[-85.607412986746027,11.486790747004051,42.15],[-85.638762766285552,11.479431643825762,31.0],[-85.658485162803373,11.48090346446142,40.4752],[-85.67496955392275,11.48590765462265,47.5853],[-85.713678436640564,11.508868056538944,40.2098],[-85.702198235682431,11.521231349878462,46.445],[-85.685713844563054,11.560087414659847,87.6756],[-85.672761822969264,11.576866169906339,67.0855],[-85.652156334070042,11.58540272959317,45.9748],[-85.609767899763085,11.585991457847427,55.0917],[-85.597698970550681,11.5912900121358,31.0],[-85.590192685308821,11.583930908957512,55.4103],[-85.584305402766191,11.580692903559054,35.7089],[-85.571647745299529,11.574805621016424,35.3448],[-85.561492182913483,11.566857789583878,33.441],[-85.555457718307281,11.557143773388532,31.0],[-85.552661259099537,11.538304469252097,31.0],[-85.552955623226666,11.521525714005605,31.0],[-85.549717617828222,11.506807507649,33.7567],[-85.5355881397259,11.494444214309482,31.0],[-85.52366639257707,11.498270947962197,31.0],[-85.512039009555366,11.495621670817997,31.0],[-85.499234170025133,11.490911844783909,51.6219],[-85.484074417477856,11.488262567639708,52.187],[-85.472447034456152,11.486202018749793,68.2372],[-85.46891466493058,11.480314736207163,31.0],[-85.465971023659264,11.470306355884674,85.7854],[-85.456404189527476,11.457059970163755,31.0],[-85.448750722222059,11.441458671425778,31.0],[-85.452577455874774,11.427329193323459,31.0]]]}}