{"type": "Feature","id": "655","bbox": [-86.12321,11.60472,-85.52291,12.20618],"geometry": {"type": "Polygon","coordinates": [[[-85.8515,12.19876,45.9421],[-85.8693,12.20605,50.605],[-85.87679,12.20618,49.7203],[-85.88506,12.20316,49.2156],[-85.91648,12.18083,43.9293],[-86.00051,12.14381,33.2968],[-85.96731,12.1067,31.2037],[-85.96405,12.09138,32.3325],[-86.00446,12.0041,78.126],[-86.04035,11.92589,73.0],[-86.04384,11.91839,73.0],[-86.05335,11.89772,375.0421],[-86.07247,11.85618,315.5006],[-86.07735,11.84553,294.0883],[-86.09781,11.80902,290.7299],[-86.10347,11.78391,270.834],[-86.09998,11.75931,192.0856],[-86.09567,11.74241,159.508],[-86.09551,11.73068,139.0832],[-86.09787,11.72184,127.2042],[-86.10983,11.70559,149.5638],[-86.1191,11.68719,252.8461],[-86.12321,11.65629,196.3204],[-86.122,11.64185,176.9443],[-86.11944,11.6328,97.6541],[-86.10169,11.61082,58.5562],[-86.07813,11.60472,78.8801],[-86.07058,11.60578,77.1368],[-86.06707,11.60932,74.8904],[-86.03932,11.62317,181.3366],[-86.03557,11.62575,216.8631],[-86.02469,11.64332,138.1458],[-86.00909,11.67621,73.2142],[-86.00617,11.67913,70.6329],[-86.00338,11.68084,68.2557],[-86.00092,11.68104,66.7368],[-85.99919,11.68097,66.2517],[-85.99415,11.67975,64.9786],[-85.98981,11.67707,63.6294],[-85.98593,11.67303,65.8677],[-85.97606,11.66306,57.4931],[-85.97134,11.66148,55.7505],[-85.927,11.67272,45.0861],[-85.89436,11.68205,31.0],[-85.52291,11.68053,31.0],[-85.65665,12.04647,33.0571],[-85.73148,12.04133,31.0],[-85.78509,12.11497,31.0],[-85.8123,12.13812,35.9396],[-85.82835,12.1443,36.7878],[-85.8368,12.15032,40.082],[-85.84212,12.15673,37.5655],[-85.84375,12.16435,37.0576],[-85.84527,12.17949,40.5061],[-85.8515,12.19876,45.9421]]]}
,"properties": {"ISO3166-1-Alpha-3": "NIC","country": "Nicaragua","fill": "#F00","name": "Granada","area_km2": 2482.307,"hist_schema_id": "Elevation0-9000","hist_area_km2": {"25": 1662.534,"50": 196.562,"75": 108.235,"100": 98.491,"125": 69.349,"150": 59.489,"175": 46.867,"200": 37.506,"225": 32.274,"250": 32.252,"275": 33.599,"300": 24.59,"325": 15.564,"350": 10.666,"375": 8.778,"400": 6.869,"425": 4.607,"450": 3.756,"475": 2.739,"500": 2.781,"525": 2.096,"550": 2.366,"575": 2.158,"600": 1.971,"625": 1.453,"650": 1.556,"675": 1.141,"700": 1.328,"725": 1.183,"750": 0.996,"775": 0.643,"800": 0.706,"825": 0.726,"850": 0.602,"875": 0.581,"900": 0.643,"925": 0.56,"950": 0.394,"975": 0.436,"1000": 0.311,"1025": 0.457,"1050": 0.415,"1075": 0.498,"1100": 0.311,"1125": 0.415,"1150": 0.291,"1175": 0.249,"1200": 0.062,"1225": 0.083,"1250": 0.062,"1275": 0.062,"1325": 0.042}}}