{"type":"Feature","properties":{"featurecla":"River","scalerank":5,"rivernum":159,"dissolve":"159River","name":"San31","name_alt":null,"note":null,"min_zoom":4.7,"strokeweig":0.2,"name_en":"San Juan","min_label":5.7},
"geometry":{"type": "LineString","coordinates": [[-86.104736328125,12.207635809369108,45.432],[-86.085131835937489,12.198504949994117,56.2719],[-86.055224609374989,12.19208405155662,39.8013],[-86.042041015624989,12.180292059369108,37.6042],[-86.026904296874989,12.15827057499412,34.6893],[-86.022216796875,12.15302155155662,34.7923],[-86.01220703125,12.146991278119117,31.9919],[-85.994140625,12.139178778119117,34.3351],[-85.987402343749991,12.13190338749412,32.6086],[-85.940234374999989,12.11823151249412,34.359],[-85.940234374999989,12.11823151249412,34.359],[-85.940234374999989,12.11823151249412,34.359],[-85.940234374999989,12.11823151249412,34.359],[-85.940234374999989,12.11823151249412,34.359],[-85.893017578125,12.11810944218162,31.0],[-85.877685546875,12.11041901249412,32.9259],[-85.871386718749989,12.097772528119108,31.6556]]}}