{"type": "Feature","id": "4800","bbox": [-85.34097,10.71348,-83.64436,11.87054],"geometry": {"type": "Polygon","coordinates": [[[-84.684,11.86785,119.4437],[-84.68803,11.86816,125.4758],[-84.6965,11.87054,113.3208],[-84.70087,11.87049,115.5396],[-84.72131,11.86692,123.8761],[-84.79497,11.86783,306.1215],[-84.80017,11.86705,253.7407],[-84.80497,11.86561,131.2239],[-84.80823,11.8608,137.4993],[-84.87427,11.80106,76.471],[-84.89936,11.78481,143.6881],[-84.94212,11.77561,66.6913],[-84.95698,11.75303,69.212],[-84.95977,11.74652,53.2005],[-84.9598,11.74536,50.2833],[-84.96078,11.74132,50.1692],[-84.96274,11.73841,52.8368],[-84.9669,11.73383,53.7281],[-84.96845,11.73151,57.1714],[-84.96943,11.72928,86.7764],[-84.97083,11.72748,66.7506],[-84.9778,11.72014,48.1902],[-84.98238,11.71419,47.2443],[-84.98569,11.70864,45.977],[-84.98899,11.70629,43.4417],[-84.99504,11.70283,45.0173],[-85.01369,11.69593,42.7118],[-85.01855,11.69538,43.5798],[-85.02106,11.696,42.4784],[-85.02571,11.69776,49.046],[-85.03199,11.69531,84.9702],[-85.04116,11.69035,46.0531],[-85.06118,11.67652,42.4635],[-85.07669,11.66893,55.5074],[-85.08087,11.66513,104.4692],[-85.0833,11.66221,63.2881],[-85.10152,11.63146,31.0],[-85.34097,11.14712,37.1957],[-85.30024,11.11046,67.4357],[-85.21063,11.07787,42.8798],[-85.16175,11.0575,38.8549],[-85.02733,11.00862,34.749],[-84.94179,10.98011,33.2252],[-84.88497,10.94768,33.0228],[-84.78177,11.01488,35.8025],[-84.70777,11.06305,46.8359],[-84.67645,11.07041,31.7109],[-84.65873,11.06274,47.5966],[-84.62067,11.03576,52.1899],[-84.60323,11.03328,57.4527],[-84.58168,11.03447,39.5199],[-84.55861,11.02721,56.7671],[-84.50874,11.00553,45.5126],[-84.50334,11.00403,48.1533],[-84.49817,11.00199,62.3343],[-84.49331,10.99941,81.3969],[-84.48913,10.99636,100.557],[-84.46639,10.96845,37.2071],[-84.45784,10.96135,30.2544],[-84.44887,10.95633,39.6764],[-84.4382,10.9522,47.9323],[-84.42725,10.95112,59.5402],[-84.41776,10.95504,59.2726],[-84.36397,10.98961,94.8352],[-84.35547,10.99463,32.1433],[-84.34598,10.9899,92.4702],[-84.34366,10.98238,61.3385],[-84.34387,10.97228,66.2404],[-84.3418,10.9599,55.6176],[-84.33741,10.95267,61.2193],[-84.3241,10.93618,68.3838],[-84.32131,10.92915,72.7574],[-84.31074,10.91941,56.3003],[-84.26428,10.90182,92.2551],[-84.25366,10.89471,81.9735],[-84.24472,10.88492,25.4225],[-84.22566,10.87531,18.914],[-84.20837,10.86097,124.219],[-84.20465,10.83699,74.173],[-84.21852,10.82983,27.1585],[-84.22266,10.82704,21.7685],[-84.2271,10.81931,41.3272],[-84.22524,10.81368,86.1649],[-84.22116,10.80942,65.2233],[-84.21889,10.80596,39.4197],[-84.19687,10.78852,26.0938],[-84.1916,10.78172,26.5557],[-84.18041,10.78976,25.9973],[-84.16483,10.78945,26.0679],[-84.15773,10.78842,17.5],[-84.14902,10.78717,17.0],[-84.137,10.78916,18.5845],[-84.11843,10.77123,34.4444],[-84.10693,10.76691,18.8825],[-84.09543,10.77552,47.2598],[-84.08856,10.77552,31.131],[-84.07644,10.76381,30.5034],[-84.05163,10.77955,18.6003],[-84.03456,10.77552,17.7702],[-84.0227,10.78722,17.7728],[-84.00923,10.78945,36.901],[-83.9982,10.78206,62.0559],[-83.99363,10.765,26.4528],[-83.93332,10.71805,21.2528],[-83.92658,10.7149,26.44],[-83.91728,10.71348,10.5],[-83.90748,10.71537,12.5186],[-83.89356,10.72493,17.3794],[-83.88686,10.72715,30.1069],[-83.85953,10.72178,9.0],[-83.85581,10.724,11.353],[-83.83534,10.74761,8.0],[-83.76896,10.77247,6.0],[-83.76382,10.77368,6.0],[-83.69814,10.78916,13.1973],[-83.66303,10.80702,19.2663],[-83.66013,10.83417,34.2574],[-83.66931,10.86975,3.8544],[-83.67024,10.91269,11.1259],[-83.66977,10.91753,10.1311],[-83.67096,10.92262,11.6816],[-83.6637,10.92771,0.4326],[-83.65781,10.92647,0.0],[-83.65148,10.92662,0.0],[-83.64436,10.92593,0.0],[-83.66076,10.93439,0.0],[-83.682,10.93867,0.0],[-83.69652,10.93659,2.0994],[-83.69274,10.92593,9.2167],[-83.71032,10.92267,7.5529],[-83.71824,10.94396,5.0423],[-83.73553,10.95716,0.3924],[-83.76142,10.9847,3.3589],[-83.77591,11.00829,0.6441],[-83.79413,11.0317,11.8964],[-83.79759,11.03499,14.2133],[-83.79987,11.03654,15.0169],[-83.80731,11.03894,15.0394],[-83.84669,11.04654,16.9538],[-83.858,11.04739,19.0049],[-83.86511,11.04716,1.4509],[-83.86751,11.04599,13.0631],[-83.86958,11.04467,14.6913],[-83.87198,11.04367,13.1651],[-83.87487,11.04374,18.4211],[-83.87834,11.04561,12.2467],[-83.88265,11.0508,11.2662],[-83.88423,11.05467,11.7379],[-83.88498,11.05855,11.7385],[-83.88513,11.06516,12.8241],[-83.8856,11.06811,31.8518],[-83.88663,11.07059,52.2115],[-83.88816,11.07253,16.912],[-83.89154,11.07602,11.852],[-83.89443,11.08005,19.8867],[-83.89557,11.08245,30.9961],[-83.89684,11.08788,16.5202],[-83.89699,11.09105,49.4796],[-83.89542,11.10961,16.4283],[-83.89562,11.11271,17.3807],[-83.8973,11.11457,18.8945],[-83.90025,11.11511,21.4893],[-83.91417,11.1086,24.4881],[-83.91906,11.10736,46.7066],[-83.92864,11.10612,23.4664],[-83.93652,11.10302,30.4541],[-83.93867,11.10162,30.448],[-83.94099,11.10054,31.9347],[-83.94355,11.09961,30.3716],[-83.94583,11.09844,30.4123],[-83.94957,11.09829,30.4818],[-83.95417,11.09891,11.1568],[-83.96376,11.10248,28.1502],[-83.96988,11.10348,31.2047],[-83.97727,11.10224,29.332],[-83.98094,11.10085,42.1659],[-83.98598,11.09798,26.5492],[-83.98797,11.09651,40.0088],[-83.99241,11.09418,73.14],[-83.99469,11.09341,72.7257],[-84.00097,11.09201,33.9343],[-84.00957,11.08749,48.6808],[-84.0136,11.08803,42.9511],[-84.01892,11.09059,41.655],[-84.02874,11.0986,41.947],[-84.03967,11.10984,175.6247],[-84.04104,11.11193,186.7257],[-84.04151,11.11457,186.2184],[-84.04138,11.11746,175.2667],[-84.04058,11.12304,98.4153],[-84.04378,11.12483,138.8],[-84.05024,11.12545,55.625],[-84.08197,11.12141,67.0142],[-84.09445,11.12552,81.1513],[-84.11083,11.13203,112.9989],[-84.11721,11.13351,79.5917],[-84.11995,11.13374,91.2723],[-84.12633,11.13366,107.2956],[-84.13659,11.13234,119.5822],[-84.13886,11.1325,142.3213],[-84.14173,11.13296,176.9676],[-84.14925,11.13575,111.0155],[-84.15486,11.13723,99.5543],[-84.15778,11.13824,109.6111],[-84.16413,11.14196,121.931],[-84.16793,11.14374,111.7816],[-84.17142,11.14454,107.1302],[-84.17442,11.14436,177.6818],[-84.17855,11.14702,175.8626],[-84.18359,11.15283,162.9081],[-84.204,11.18596,333.6365],[-84.21268,11.19704,269.5943],[-84.24108,11.22505,342.4743],[-84.28053,11.25306,235.982],[-84.32756,11.27688,208.9468],[-84.33684,11.28347,210.1928],[-84.34583,11.29272,216.2172],[-84.35335,11.30791,256.0814],[-84.35539,11.32073,181.7673],[-84.35611,11.33313,206.8958],[-84.36198,11.3468,203.0455],[-84.37745,11.36199,220.9034],[-84.45719,11.41088,247.9544],[-84.48613,11.42824,245.164],[-84.55256,11.45238,306.7431],[-84.55628,11.49103,209.4582],[-84.56364,11.52966,185.777],[-84.56331,11.54265,178.897],[-84.56052,11.56201,208.3624],[-84.54638,11.61012,314.9463],[-84.53651,11.63296,249.6775],[-84.53478,11.6441,299.8531],[-84.53429,11.65213,256.2514],[-84.54427,11.68352,202.7588],[-84.55507,11.70882,187.4675],[-84.55636,11.73489,218.6922],[-84.55522,11.74691,218.4726],[-84.5576,11.75326,209.5654],[-84.56393,11.75977,210.4042],[-84.5722,11.76657,211.8695],[-84.58716,11.79362,207.5564],[-84.60741,11.86251,111.1616],[-84.64571,11.86375,118.232],[-84.65695,11.86607,107.3864],[-84.66175,11.86801,104.8952],[-84.66552,11.86886,102.4176],[-84.66891,11.86933,104.2645],[-84.684,11.86785,119.4437]]]}
,"properties": {"ISO3166-1-Alpha-3": "NIC","country": "Nicaragua","fill": "#F00","name": "Rio San Juan","area_km2": 9722.474,"hist_schema_id": "Elevation0-9000","hist_area_km2": {"0": 144.774,"25": 3488.118,"50": 1533.202,"75": 945.346,"100": 793.337,"125": 677.421,"150": 506.927,"175": 482.658,"200": 426.946,"225": 316.336,"250": 167.258,"275": 91.793,"300": 55.9,"325": 32.52,"350": 20.046,"375": 15.889,"400": 12.146,"425": 5.346,"450": 2.039,"475": 1.373,"500": 0.874,"525": 0.687,"550": 0.645,"575": 0.458,"600": 0.395}}}