{"type": "Feature","bbox": [-85.193,10.7074,-83.6604,11.8582],"geometry": {"type": "MultiPolygon","coordinates": [[[[-83.9361,10.7181,11.0],[-83.9361,10.711,11.0],[-83.9322,10.7074,15.3704],[-83.9152,10.711,13.8414],[-83.8909,10.7217,13.6843],[-83.8778,10.7191,11.1234],[-83.8713,10.7159,11.81],[-83.8633,10.7175,10.1732],[-83.8403,10.744,8.25],[-83.8269,10.7486,11.4346],[-83.8132,10.7459,8.9726],[-83.8099,10.7474,11.4069],[-83.8073,10.7509,8.7951],[-83.8001,10.7554,9.5176],[-83.7967,10.7666,7.0],[-83.7933,10.7694,7.7858],[-83.7783,10.7718,7.7136],[-83.7635,10.7699,6.0],[-83.7598,10.7746,7.8938],[-83.7333,10.784,6.7821],[-83.7244,10.7855,7.5635],[-83.7144,10.7927,5.0478],[-83.7077,10.7917,7.3908],[-83.7005,10.7877,5.4873],[-83.6968,10.7874,9.9453],[-83.6704,10.7977,4.4796],[-83.6604,10.8189,8.8875],[-83.6639,10.8278,45.6806],[-83.668,10.8319,3.599],[-83.6679,10.8381,14.9832],[-83.6704,10.8409,8.3811],[-83.6749,10.852,3.5769],[-83.667,10.8797,4.5764],[-83.6686,10.889099999999999,7.1351],[-83.6705,10.8916,2.5425],[-83.6756,10.8916,7.6131],[-83.6826,10.8974,2.5526],[-83.6765,10.9024,3.6076],[-83.6791,10.9095,1.1944],[-83.675299999999993,10.9066,1.0228],[-83.6732,10.9086,0.9841],[-83.6816,10.9194,5.5385],[-83.6882,10.9334,0.1501],[-83.6899,10.935,2.6395],[-83.6965,10.9357,2.0994],[-83.6973,10.9386,2.9801],[-83.6929,10.9378,5.1993],[-83.6921,10.9391,0.0],[-83.7004,10.9404,5.958],[-83.7043,10.9393,3.9225],[-83.708,10.9427,0.0502],[-83.7171,10.9415,0.0],[-83.7179,10.9368,0.776],[-83.7275,10.9385,3.286],[-83.7215,10.9311,0.0],[-83.7145,10.9267,1.242],[-83.7134,10.9189,16.4841],[-83.7301,10.9197,10.3941],[-83.7331,10.9225,12.6501],[-83.7304,10.9269,24.9732],[-83.73,10.9301,9.1472],[-83.7315,10.9323,23.5672],[-83.7453,10.9405,13.3048],[-83.7628,10.9573,13.1064],[-83.805,11.0217,18.0458],[-83.8138,11.0307,16.3126],[-83.8285,11.0411,7.9924],[-83.8413,11.0421,13.8385],[-83.8658,11.0475,1.4509],[-83.8749,11.0443,14.3867],[-83.8834,11.0375,10.7249],[-83.8869,11.0389,13.2891],[-83.8935,11.0479,13.0107],[-83.8922,11.0587,12.018],[-83.8932,11.0619,13.2519],[-83.9035,11.0773,12.9386],[-83.9004,11.0991,18.4902],[-83.9014,11.1025,19.1667],[-83.9051,11.1041,23.5418],[-83.908,11.1103,25.8265],[-83.9156,11.1109,26.9587],[-83.9273,11.1007,22.46],[-83.9377,11.1067,25.1299],[-83.9432,11.1037,35.0302],[-83.9483,11.1043,27.1202],[-83.9493,11.1011,20.0913],[-83.948,11.0971,29.974],[-83.9576,11.0943,32.5052],[-83.9634,11.0943,22.3611],[-83.9663,11.0917,31.109],[-83.9691,11.0957,34.302],[-83.9738,11.0963,38.3883],[-83.9786,11.0945,39.9904],[-83.9814,11.0995,42.7073],[-83.9844,11.0991,30.7113],[-83.9955,11.0871,106.6131],[-84.0041,11.0881,35.7602],[-84.0107,11.0825,30.1891],[-84.0273,11.0791,44.9188],[-84.0295,11.0761,26.6458],[-84.0345,11.0743,50.9477],[-84.0448,11.0811,59.3766],[-84.0525,11.0935,52.1308],[-84.0575,11.1117,95.613],[-84.0519,11.1151,47.279],[-84.0508,11.1187,61.5631],[-84.0528,11.1207,42.0267],[-84.0627,11.1191,87.8171],[-84.0648,11.1229,132.8622],[-84.0671,11.1237,161.2124],[-84.07,11.1231,145.0548],[-84.0765,11.1177,80.7213],[-84.0921,11.1137,96.4128],[-84.123,11.1213,168.9205],[-84.1341,11.1187,156.0285],[-84.1446,11.1251,236.2765],[-84.149,11.1227,301.8149],[-84.1562,11.1273,267.3055],[-84.1629,11.127,165.3305],[-84.166,11.1323,137.726],[-84.174,11.1321,191.7885],[-84.1815,11.1371,243.0463],[-84.188,11.1389,259.8581],[-84.192,11.1425,171.5856],[-84.2024,11.1623,250.6596],[-84.2087,11.1703,271.4004],[-84.2231,11.1975,308.7632],[-84.228,11.2049,196.959],[-84.2375,11.2143,302.0825],[-84.2472,11.2207,346.5094],[-84.2881,11.2411,245.1351],[-84.3188,11.2545,153.1946],[-84.3438,11.2625,178.2321],[-84.3516,11.2691,292.888],[-84.3597,11.2829,235.1787],[-84.3604,11.3011,240.1801],[-84.3562,11.3265,212.7331],[-84.3566,11.3323,188.8554],[-84.362799999999993,11.3431,193.7415],[-84.3708,11.3473,206.9062],[-84.3845,11.3503,196.567],[-84.3958,11.3573,276.1723],[-84.4191,11.3663,202.9827],[-84.4545,11.3873,195.7735],[-84.4615,11.3944,167.8324],[-84.4865,11.411,227.049],[-84.497,11.4152,227.3275],[-84.5273,11.42,204.0537],[-84.5436,11.4255,132.9367],[-84.5579,11.4355,150.653],[-84.5624,11.4472,209.1753],[-84.5629,11.4822,225.1427],[-84.5704,11.5142,186.2449],[-84.5711,11.5489,167.4557],[-84.5683,11.5656,251.5155],[-84.564,11.5777,255.443],[-84.5586,11.5885,362.8292],[-84.5398,11.6172,281.0993],[-84.5378,11.6383,243.8796],[-84.5425,11.6505,243.1959],[-84.5671,11.6809,204.2688],[-84.5706,11.6901,199.1145],[-84.5713,11.7003,196.3995],[-84.5699,11.7091,215.6828],[-84.56,11.7385,207.8543],[-84.5601,11.7483,201.2958],[-84.562,11.7515,197.4927],[-84.5662,11.7534,213.046],[-84.5785,11.7524,207.8466],[-84.5833,11.7582,192.2387],[-84.6015,11.808,234.6444],[-84.61,11.8462,144.2768],[-84.6439,11.8473,121.0237],[-84.6635,11.8505,110.1175],[-84.6721,11.8527,116.9577],[-84.6783,11.8562,116.9256],[-84.6865,11.8575,122.006],[-84.7068,11.8543,142.2064],[-84.716,11.8573,154.3553],[-84.7376,11.8582,149.8248],[-84.7679,11.8476,171.3454],[-84.782,11.8491,176.4701],[-84.7933,11.8478,177.2442],[-84.8156,11.8407,142.2314],[-84.8681,11.8116,83.9209],[-84.8796,11.8073,81.0274],[-84.8832,11.7997,83.1634],[-84.8965,11.7856,165.1493],[-84.9055,11.7846,101.915],[-84.9133,11.78,72.8985],[-84.9184,11.7798,80.0454],[-84.9215,11.7814,68.1328],[-84.9292,11.7735,67.4769],[-84.9394,11.7708,66.3283],[-84.944,11.7675,66.8771],[-84.9591,11.7657,59.3278],[-84.9639,11.7632,56.5296],[-84.9665,11.7596,53.6558],[-84.9691,11.748,56.4305],[-84.9787,11.7444,52.8377],[-84.9799,11.7425,62.2469],[-84.9795,11.7369,54.2364],[-84.9754,11.7315,49.1783],[-84.9765,11.7231,48.3865],[-84.9836,11.7189,48.8684],[-84.9849,11.7143,45.1125],[-84.9986,11.7132,48.8187],[-85.0041,11.7096,55.6106],[-85.0139,11.6899,43.4386],[-85.0159,11.6883,45.3242],[-85.0234,11.6884,49.0079],[-85.028,11.6798,71.6672],[-85.0308,11.6796,50.9886],[-85.0366,11.6861,48.5901],[-85.0479,11.6896,41.5846],[-85.0507,11.6886,39.9505],[-85.0507,11.6832,43.4086],[-85.0558,11.6826,40.1104],[-85.0545,11.677,42.4214],[-85.0557,11.6743,42.6088],[-85.0619,11.6715,40.241],[-85.0725,11.6607,74.2548],[-85.0964,11.6567,34.507],[-85.0986,11.6521,33.2193],[-85.0985,11.6448,33.5381],[-85.1014,11.6412,31.0],[-85.1067,11.639,31.0],[-85.1059,11.6324,31.0],[-85.1105,11.6295,31.0],[-85.1095,11.6177,31.0],[-85.1024,11.6176,31.0],[-85.0952,11.6153,31.0],[-85.0918,11.6106,31.0],[-85.0894,11.6016,31.0],[-85.07,11.5798,31.0],[-85.0681,11.5753,31.0],[-85.0675,11.5634,31.0],[-85.061,11.5518,31.0],[-85.0559,11.5465,31.0],[-85.0446,11.5425,31.0],[-85.0364,11.5322,31.0],[-85.0284,11.5287,31.0],[-85.0025,11.4896,31.0],[-84.9802,11.4722,31.0],[-84.972,11.4606,31.0],[-84.9651,11.4595,31.0],[-84.9674,11.4497,31.0],[-84.9666,11.4464,31.0],[-84.9573,11.435,31.0],[-84.9573,11.426,31.0],[-84.9451,11.409,31.0],[-84.9427,11.4075,31.0],[-84.9398,11.4087,31.0],[-84.9366,11.4121,31.0],[-84.9342,11.419,31.0],[-84.9252,11.4272,31.0],[-84.9225,11.427,31.0],[-84.9199,11.4242,31.0],[-84.9131,11.4099,31.0],[-84.9178,11.4022,31.0],[-84.9178,11.3991,31.0],[-84.9158,11.3801,31.0],[-84.9119,11.3658,31.0],[-84.9137,11.3614,31.0],[-84.9128,11.3564,31.0],[-84.9086,11.3505,31.0],[-84.9062,11.3407,31.0],[-84.8967,11.3402,31.0],[-84.878,11.3293,31.0],[-84.8737,11.3164,31.0],[-84.8743,11.3115,31.0],[-84.8828,11.3096,31.0],[-84.8828,11.3053,31.0],[-84.88,11.3029,31.0],[-84.8638,11.2986,31.0],[-84.8496,11.2847,31.0],[-84.8366,11.2828,31.0],[-84.8186,11.273,31.0],[-84.8098,11.2262,31.0],[-84.8072,11.222,31.0],[-84.8,11.2182,31.0],[-84.8018,11.2116,31.0],[-84.8066,11.2066,31.0],[-84.8068,11.2042,31.0],[-84.8024,11.1996,31.0],[-84.8018,11.1967,31.0],[-84.8059,11.1909,31.0],[-84.8067,11.186,31.0],[-84.8041,11.171,31.0],[-84.8052,11.1621,31.0],[-84.8029,11.1531,31.0],[-84.8044,11.1301,31.0],[-84.8009,11.1155,31.0],[-84.7967,11.1112,31.0],[-84.7929,11.1107,31.0],[-84.7849,11.0956,31.0],[-84.7874,11.0865,31.0],[-84.7969,11.0665,31.9609],[-84.7882,11.0626,32.614],[-84.7864,11.0604,33.9419],[-84.793,11.059,32.916],[-84.8033,11.0614,32.4531],[-84.8176,11.0531,31.0],[-84.8269,11.0414,32.8848],[-84.8415,11.0329,35.2132],[-84.8463,11.0319,35.8894],[-84.8693,11.0346,32.3395],[-84.8737,11.0339,32.3345],[-84.9065,11.0181,34.113],[-84.9184,11.0151,38.9037],[-84.9258,11.0153,39.231],[-84.9324,11.018,38.6682],[-84.9364,11.0265,36.0694],[-84.9485,11.0413,33.0628],[-84.9512,11.0426,33.0921],[-84.9554,11.0431,33.5613],[-84.9841,11.0336,32.4355],[-84.9972,11.0331,32.8554],[-85.0033,11.0379,34.8691],[-85.0047,11.0426,34.298],[-85.0041,11.0518,33.8103],[-85.0057,11.0543,34.3993],[-85.0098,11.0559,34.5258],[-85.0191,11.0531,33.5257],[-85.0508,11.0508,34.2294],[-85.0581,11.0565,33.7158],[-85.0705,11.056,32.7762],[-85.0738,11.0657,32.6737],[-85.0778,11.0693,34.825],[-85.1046,11.0686,38.3203],[-85.1158,11.0734,33.4382],[-85.1222,11.0697,33.8234],[-85.1367,11.0681,33.0739],[-85.1447,11.0719,33.3693],[-85.1557,11.084,33.0967],[-85.1685,11.0863,32.4865],[-85.1743,11.0914,33.891],[-85.1796,11.0929,32.7115],[-85.1837,11.0859,33.8189],[-85.193,11.0817,33.9783],[-85.1866,11.0556,36.5886],[-85.1877,11.0476,35.2449],[-84.9108,10.9438,41.2092],[-84.6804,11.0845,35.0901],[-84.6665,11.0726,40.7758],[-84.606,11.0384,57.1465],[-84.5745,11.0512,40.9],[-84.5644,11.0332,57.8327],[-84.4859,11.0008,81.1124],[-84.4506,10.961,37.1566],[-84.4203,10.9552,51.4408],[-84.3999,10.9751,49.7556],[-84.3764,10.9775,78.8525],[-84.3584,10.9959,36.671],[-84.3508,10.9882,30.277],[-84.3415,10.9728,24.0],[-84.3416,10.9712,24.767],[-84.3474,10.9665,30.9083],[-84.351,10.9512,28.8468],[-84.3362,10.946,23.0848],[-84.3319,10.9316,34.986],[-84.3236,10.9188,30.3118],[-84.317,10.9161,25.3385],[-84.3103,10.9218,27.6261],[-84.3062,10.9159,23.7755],[-84.2999,10.9166,26.9621],[-84.2917,10.911,19.0],[-84.2857,10.8966,18.0],[-84.2827,10.8937,41.4145],[-84.2639,10.8909,19.8875],[-84.2583,10.8915,18.9769],[-84.2441,10.885,25.4225],[-84.2373,10.8762,35.0492],[-84.2286,10.8753,22.1097],[-84.2251,10.8729,20.2953],[-84.2192,10.863,20.3987],[-84.2197,10.8555,19.1967],[-84.2149,10.8393,18.0437],[-84.2209,10.8249,19.548],[-84.2364,10.8199,17.9599],[-84.2376,10.8158,28.68],[-84.2355,10.8131,45.1725],[-84.2293,10.8112,41.0289],[-84.2266,10.8046,27.0815],[-84.2231,10.801,18.9203],[-84.2132,10.801,19.34],[-84.2062,10.7975,18.6456],[-84.2047,10.7947,18.5097],[-84.2077,10.7934,22.72],[-84.2081,10.7909,30.1558],[-84.2069,10.7864,18.1871],[-84.2033,10.782,21.0437],[-84.2005,10.7814,19.5927],[-84.193,10.7888,17.5],[-84.1895,10.7898,20.308],[-84.1752,10.786,20.5396],[-84.1658,10.7853,24.4141],[-84.1509,10.786,19.9756],[-84.1462,10.7876,17.0],[-84.136,10.787,20.7055],[-84.1332,10.7845,17.7599],[-84.1324,10.7719,25.8918],[-84.1267,10.765,23.9228],[-84.1216,10.7638,17.0],[-84.1159,10.7652,18.5412],[-84.1056,10.7744,16.5],[-84.0999,10.7732,17.2857],[-84.0836,10.7594,23.0886],[-84.0796,10.7583,18.2789],[-84.0699,10.76,18.6187],[-84.0625,10.7634,17.6399],[-84.0612,10.7741,15.4521],[-84.0541,10.7787,16.2113],[-84.0474,10.7771,14.0],[-84.0431,10.7714,16.231],[-84.0358,10.7713,15.9444],[-84.0322,10.7799,18.0992],[-84.0311,10.7883,15.0315],[-84.028,10.7916,16.1195],[-84.0245,10.7926,14.0],[-84.0198,10.7903,15.842],[-84.0149,10.7845,13.3412],[-84.0146,10.7791,15.7977],[-84.0093,10.7731,15.1446],[-84.0053,10.7644,13.0],[-83.9981,10.7599,28.3708],[-83.9939,10.7592,13.0],[-83.991,10.7545,18.9082],[-83.9835,10.7495,13.3652],[-83.9722,10.7453,15.9101],[-83.9677,10.7293,14.3527],[-83.9551,10.724,17.7891],[-83.9391,10.7218,14.4869],[-83.9361,10.7181,11.0]]],
[[[-84.8999,11.0787,31.0],[-84.906,11.0719,31.0],[-84.905,11.0668,31.0],[-84.9014,11.0683,31.0],[-84.898,11.0742,31.0],[-84.8978,11.0771,31.0],[-84.8999,11.0787,31.0]]],
[[[-84.9859,11.1703,31.0],[-84.9864,11.1725,31.0],[-84.9902,11.1684,31.0],[-84.9969,11.1679,31.0],[-84.9999,11.166,31.0],[-84.9971,11.1548,31.0],[-85.0002,11.1476,31.0],[-84.999,11.1456,31.0],[-84.994,11.1481,31.0],[-84.9854,11.1459,31.0],[-84.9817,11.1478,31.0],[-84.9866,11.1534,31.0],[-84.9872,11.164,31.0],[-84.9859,11.1703,31.0]]],
[[[-84.9767,11.1736,67.9187],[-84.9791,11.1718,50.7721],[-84.9783,11.1694,50.1526],[-84.9762,11.1687,44.3003],[-84.9697,11.1717,31.0],[-84.9708,11.1741,31.0],[-84.9767,11.1736,67.9187]]],
[[[-84.9719,11.1477,31.0],[-84.9739,11.1479,31.0],[-84.9737,11.1445,31.0],[-84.9685,11.1374,31.0],[-84.9397,11.1142,31.0],[-84.9292,11.1137,31.0],[-84.9269,11.1159,31.0],[-84.9262,11.1193,31.0],[-84.9343,11.1217,31.0],[-84.9391,11.1256,31.0],[-84.9348,11.1344,61.4392],[-84.9358,11.1368,57.6593],[-84.9568,11.1373,31.0],[-84.9605,11.1414,31.0],[-84.9663,11.1433,31.0],[-84.9719,11.1477,31.0]]],
[[[-84.9537,11.1471,31.0],[-84.954,11.1458,31.0],[-84.9497,11.1417,31.0],[-84.9474,11.1425,31.0],[-84.9514,11.1485,31.0],[-84.9537,11.1471,31.0]]],
[[[-84.9484,11.1509,31.0],[-84.9471,11.15,31.0],[-84.9455,11.1516,36.4825],[-84.946,11.155,47.0345],[-84.9482,11.1553,53.0115],[-84.9484,11.1509,31.0]]],
[[[-85.0034,11.1522,31.0],[-85.0035,11.1558,31.0],[-85.0083,11.1572,31.0],[-85.0084,11.1532,31.0],[-85.0034,11.1522,31.0]]],
[[[-85.0662,11.1755,31.0],[-85.0683,11.1762,31.0],[-85.0717,11.1702,60.6429],[-85.0765,11.1691,31.0],[-85.0771,11.161,31.0],[-85.0823,11.1525,31.0],[-85.0809,11.1474,31.0],[-85.0748,11.1405,31.0],[-85.0711,11.1417,31.0],[-85.0712,11.1545,31.0],[-85.0672,11.1656,94.0829],[-85.0662,11.1755,31.0]]],
[[[-85.0332,11.1849,169.7995],[-85.0369,11.1919,143.1683],[-85.0406,11.1914,125.5198],[-85.0418,11.1867,33.6795],[-85.0575,11.1899,167.6771],[-85.0617,11.1877,31.0],[-85.0574,11.1741,34.6526],[-85.0651,11.1581,31.0],[-85.0549,11.1373,31.0],[-85.0324,11.1531,31.0],[-85.0194,11.1538,31.0],[-85.0162,11.1544,31.0],[-85.0141,11.157,31.0],[-85.0203,11.1672,31.0],[-85.0232,11.1801,92.6747],[-85.0287,11.1802,121.2069],[-85.0332,11.1849,169.7995]]],
[[[-85.0177,11.1948,117.1533],[-85.0215,11.191,94.6889],[-85.0212,11.1876,92.4715],[-85.0188,11.186,63.5711],[-85.0139,11.193,31.0],[-85.0168,11.1955,104.123],[-85.0177,11.1948,117.1533]]],
[[[-85.0261,11.1989,57.9547],[-85.0277,11.201599999999999,64.8008],[-85.0303,11.202,61.0825],[-85.0341,11.1986,93.5902],[-85.0322,11.1964,146.4031],[-85.0261,11.1989,57.9547]]],
[[[-85.0166,11.1985,51.6081],[-85.0141,11.2003,31.0],[-85.0148,11.2031,31.0],[-85.0177,11.2003,31.0],[-85.0166,11.1985,51.6081]]],
[[[-85.1068,11.5245,31.0],[-85.1111,11.5245,31.0],[-85.1149,11.5221,31.0],[-85.1149,11.5157,31.0],[-85.1114,11.5139,31.0],[-85.1047,11.5164,31.0],[-85.1033,11.5228,31.0],[-85.1068,11.5245,31.0]]],
[[[-85.0963,11.5357,39.7151],[-85.1008,11.5309,31.0],[-85.0997,11.5267,31.0],[-85.0939,11.5275,31.0],[-85.0903,11.5314,31.0],[-85.0928,11.5358,32.3122],[-85.0963,11.5357,39.7151]]]]}
,"properties": {"GID_1": "NIC.17_1","GID_0": "NIC","country": "Nicaragua","province": "RíoSanJuan","VARNAME_1": "NA","NL_NAME_1": "NA","TYPE_1": "Departamento","ENGTYPE_1": "Department","CC_1": "NA","HASC_1": "NI.SJ","ISO_1": "NA","name": "Río_San_Juan.province","area_km2": 7329.157,"hist_schema_id": "Elevation0-9000","hist_area_km2": {"0": 126.939,"25": 1337.123,"50": 1501.93,"75": 939.898,"100": 783.223,"125": 654.523,"150": 481.066,"175": 459.965,"200": 392.481,"225": 282.303,"250": 150.342,"275": 84.206,"300": 51.16,"325": 29.444,"350": 17.925,"375": 13.373,"400": 11.501,"425": 5.242,"450": 2.039,"475": 1.373,"500": 0.874,"525": 0.687,"550": 0.645,"575": 0.458,"600": 0.395}}}