{"type": "Feature","bbox": [-86.2837,12.5074,-85.8805,12.8931],"geometry": {"type": "MultiPolygon","coordinates": [[[[-85.8849,12.6097,425.0381],[-85.8986,12.6118,441.4637],[-85.9159,12.6177,396.2635],[-85.9252,12.6171,441.6235],[-85.9359,12.6322,373.5254],[-85.9412,12.6366,369.8465],[-85.9476,12.6366,449.0429],[-85.9575,12.6274,507.513],[-85.9662,12.6261,408.1054],[-85.9742,12.6301,537.0623],[-85.9845,12.631,451.6412],[-85.9993,12.643,419.6433],[-86.0068,12.6467,512.9337],[-86.0231,12.6492,439.4826],[-86.0277,12.6537,500.3086],[-86.0324,12.6716,432.4024],[-86.031,12.6926,480.6437],[-86.0158,12.7237,681.4277],[-86.0065,12.7552,538.6785],[-86.0034,12.7726,1003.1861],[-85.9949,12.789,1190.0468],[-86.0185,12.8057,821.5356],[-86.0342,12.8132,758.1649],[-86.0768,12.8037,542.274],[-86.1136,12.8061,478.3808],[-86.1693,12.8225,447.2447],[-86.1936,12.8831,456.5978],[-86.2193,12.8931,626.4089],[-86.237,12.8732,675.5514],[-86.253,12.8596,676.1614],[-86.2589,12.8551,728.8731],[-86.2721,12.8491,902.9393],[-86.2738,12.8159,709.5748],[-86.2706,12.7981,534.3961],[-86.2696,12.7779,560.6568],[-86.2721,12.7617,450.0008],[-86.2732,12.7357,465.7849],[-86.2761,12.727,282.4113],[-86.2747,12.7221,317.8029],[-86.2783,12.7151,246.8118],[-86.2802,12.7051,238.4861],[-86.2784,12.7001,219.5094],[-86.2792,12.6904,236.952],[-86.2747,12.6767,219.9448],[-86.2782,12.6617,189.9187],[-86.2836,12.65,247.1659],[-86.2825,12.633,171.1994],[-86.2837,12.631,156.4883],[-86.2641,12.6244,324.7677],[-86.2307,12.6267,809.0114],[-86.1964,12.6182,757.4409],[-86.1794,12.6096,682.5306],[-86.1619,12.5926,385.3019],[-86.1564,12.5892,250.335],[-86.1488,12.5893,357.594],[-86.1432,12.5929,324.2549],[-86.1359,12.595,461.8319],[-86.1189,12.5905,492.5026],[-86.098,12.5769,494.8777],[-86.0788,12.555,493.1729],[-86.0655,12.5439,518.2053],[-86.0467,12.5374,434.2963],[-86.0102,12.5189,573.6605],[-85.9725,12.5074,419.5777],[-85.9653,12.5115,500.7892],[-85.9531,12.5274,788.5582],[-85.9358,12.5396,804.8098],[-85.9013,12.5519,473.7334],[-85.8872,12.5623,465.416],[-85.8822,12.5713,455.3771],[-85.8805,12.5804,545.0075],[-85.882,12.5936,544.144],[-85.8848,12.6013,506.6143],[-85.8849,12.6097,425.0381]]]]}
,"properties": {"GID_2": "NIC.15.1_1","GID_0": "NIC","country": "Nicaragua","GID_1": "NIC.15_1","province": "Matagalpa","NL_NAME_1": "NA","county": "CiudadDarío","VARNAME_2": "NA","NL_NAME_2": "NA","TYPE_2": "Municipio","ENGTYPE_2": "Municipality","CC_2": "NA","HASC_2": "NI.MT.CD","name": "Ciudad_Darío.county","area_km2": 922.1302,"hist_schema_id": "Elevation0-9000","hist_area_km2": {"150": 0.331,"175": 0.5586,"200": 2.6066,"225": 5.2544,"250": 5.5647,"275": 5.8543,"300": 4.882,"325": 4.9854,"350": 5.3578,"375": 6.3718,"400": 28.1134,"425": 68.4565,"450": 176.3174,"475": 104.6389,"500": 72.6898,"525": 57.2595,"550": 49.9366,"575": 48.7178,"600": 40.5041,"625": 31.649,"650": 27.2426,"675": 24.2217,"700": 18.5528,"725": 18.7191,"750": 18.4505,"775": 18.6368,"800": 16.0509,"825": 12.8446,"850": 11.6443,"875": 9.1212,"900": 5.3358,"925": 5.1703,"950": 2.73,"975": 3.2058,"1000": 2.8336,"1025": 1.9444,"1050": 1.0549,"1075": 0.7653,"1100": 0.393,"1125": 0.2274,"1150": 0.2688,"1175": 0.2481,"1200": 0.7237,"1225": 0.6203,"1250": 0.5169,"1275": 0.2274,"1300": 0.1241,"1325": 0.0827,"1350": 0.1241}}}