{"type": "Feature","bbox": [-86.7953,12.4678,-86.4043,12.787],"geometry": {"type": "MultiPolygon","coordinates": [[[[-86.7921,12.7506,33.3768],[-86.7953,12.7359,33.4978],[-86.7943,12.7157,28.1668],[-86.7915,12.6992,33.8301],[-86.7881,12.6934,35.6276],[-86.7803,12.6902,33.5985],[-86.7514,12.6887,43.5037],[-86.7444,12.6867,46.1913],[-86.7374,12.6819,48.992],[-86.7204,12.6598,62.8203],[-86.7181,12.6547,80.774],[-86.7112,12.6259,98.2456],[-86.7092,12.592,124.5147],[-86.7139,12.5769,142.3704],[-86.722,12.5612,234.6026],[-86.7247,12.5354,245.8721],[-86.7087,12.5218,474.9929],[-86.6923,12.5037,597.9212],[-86.6819,12.4859,870.5274],[-86.6755,12.4689,489.5973],[-86.6382,12.4678,206.1635],[-86.6298,12.4745,112.1528],[-86.6247,12.5129,167.2243],[-86.6221,12.5535,97.6098],[-86.6196,12.5662,89.4487],[-86.5683,12.587,72.4226],[-86.5397,12.5952,76.6172],[-86.5239,12.5955,83.025],[-86.5092,12.5928,73.8088],[-86.5064,12.5939,70.4983],[-86.5008,12.602,71.9857],[-86.4942,12.6071,66.9284],[-86.4728,12.6135,62.2033],[-86.474,12.6167,64.8626],[-86.471,12.6185,65.4332],[-86.4679,12.6263,66.2663],[-86.4584,12.6315,65.868],[-86.4546,12.6357,67.3764],[-86.4534,12.639099999999999,69.1698],[-86.4565,12.652,72.1262],[-86.455,12.6575,72.7608],[-86.4487,12.6664,75.9623],[-86.431,12.6826,162.1748],[-86.4259,12.6895,231.8878],[-86.4216,12.6961,162.7324],[-86.4133,12.7158,267.9146],[-86.4067,12.7229,218.5643],[-86.4043,12.7316,386.5603],[-86.4053,12.7406,313.6292],[-86.4113,12.7613,255.7132],[-86.4851,12.7616,158.048],[-86.5151,12.787,245.2481],[-86.5429,12.7619,92.6892],[-86.633,12.751,67.654],[-86.6671,12.7762,53.7811],[-86.674,12.7834,54.9182],[-86.6827,12.7727,44.8466],[-86.693,12.765,48.8381],[-86.7041,12.7598,94.8854],[-86.7132,12.7585,91.5259],[-86.7378,12.7605,182.1372],[-86.7531,12.7574,122.097],[-86.7695,12.757,44.7437],[-86.7921,12.7506,33.3768]]]]}
,"properties": {"GID_2": "NIC.11.5_1","GID_0": "NIC","country": "Nicaragua","GID_1": "NIC.11_1","province": "León","NL_NAME_1": "NA","county": "Larreynaga-Malpaisillo","VARNAME_2": "NA","NL_NAME_2": "NA","TYPE_2": "Municipio","ENGTYPE_2": "Municipality","CC_2": "NA","HASC_2": "NI.LE.LM","name": "Larreynaga-Malpaisillo.county","area_km2": 767.9246,"hist_schema_id": "Elevation0-9000","hist_area_km2": {"25": 4.1986,"50": 46.2033,"75": 286.9485,"100": 134.526,"125": 64.648,"150": 42.4903,"175": 32.1058,"200": 31.7969,"225": 26.1279,"250": 19.7978,"275": 14.0875,"300": 9.9922,"325": 6.6207,"350": 6.248,"375": 5.3173,"400": 4.5934,"425": 3.5176,"450": 3.249,"475": 2.7107,"500": 2.028,"525": 2.0487,"550": 2.0694,"575": 2.2971,"600": 1.6969,"625": 1.5107,"650": 1.4278,"675": 1.2416,"700": 0.7866,"725": 0.7866,"750": 0.8073,"775": 1.1799,"800": 0.9936,"825": 0.7659,"850": 0.8901,"875": 0.5175,"900": 0.5382,"925": 0.3105,"950": 0.2484,"975": 0.1449,"1000": 0.2277,"1025": 0.1449,"1050": 0.0414,"1075": 0.0414}}}