{"type":"Feature","properties":{"GID_1":"NIC.11_1","GID_0":"NIC","country":"Nicaragua","province":"León","VARNAME_1":"NA","NL_NAME_1":"NA","TYPE_1":"Departamento","ENGTYPE_1":"Department","CC_1":"NA","HASC_1":"NI.LE","ISO_1":"NA","name":"León.province"},
"geometry":{"type": "MultiPolygon","coordinates": [[[[-86.7751,12.2135,1.5049],[-86.7801,12.2215,2.3246],[-86.7851,12.2235,2.2087],[-86.7921,12.2232,4.1674],[-86.794,12.2257,2.4759],[-86.7988,12.2218,6.4433],[-86.8049,12.2265,5.8406],[-86.7985,12.2226,2.0],[-86.794,12.2287,1.8877],[-86.7918,12.2249,2.0],[-86.7851,12.2249,1.8576],[-86.7785,12.2224,1.9047],[-86.7732,12.2146,0.75],[-86.7707,12.2154,0.5],[-86.7671,12.221,1.3238],[-86.764,12.2221,2.746],[-86.7657,12.2168,4.5429],[-86.7646,12.2126,0.5],[-86.7624,12.2138,3.0032],[-86.7601,12.2238,4.6951],[-86.7588,12.2246,3.9646],[-86.759,12.2171,3.0004],[-86.764,12.2074,0.5],[-86.7635,12.2035,1.9696],[-86.7651,12.2015,1.8891],[-86.7663,12.1901,0.0],[-86.7688,12.186,0.0],[-86.7696,12.1876,0.0],[-86.771,12.1868,0.0],[-86.769,12.1835,0.0],[-86.7665,12.1832,1.9147],[-86.7632,12.1871,8.8947],[-86.764,12.1818,0.7415],[-86.7629,12.181,1.223],[-86.7649,12.1804,4.702],[-86.7718,12.184,0.0],[-86.7729,12.1829,0.0],[-86.7688,12.176,0.0],[-86.764,12.1729,2.6405],[-86.7632,12.1679,0.4954],[-86.7571,12.1607,4.8427],[-86.7574,12.1535,2.3081],[-86.7607,12.1538,0.0],[-86.7593,12.149,0.9731],[-86.7574,12.1496,4.703],[-86.7518,12.1454,0.0],[-86.749,12.1451,5.7156],[-86.7468,12.1393,7.4054],[-86.7476,12.1349,0.0],[-86.7438,12.129,0.9461],[-86.7468,12.126,0.0],[-86.7449,12.1215,0.0],[-86.7451,12.1174,0.5206],[-86.7412,12.1154,0.0],[-86.7407,12.1115,0.0],[-86.7385,12.1121,2.3958],[-86.736,12.1079,1.9906],[-86.7379,12.1026,0.0],[-86.7354,12.0949,0.0],[-86.7329,12.0935,0.0],[-86.7274,12.0807,0.0],[-86.7257,12.081,1.9408],[-86.726,12.0788,0.0],[-86.7229,12.0765,6.4851],[-86.7226,12.0732,0.0],[-86.7201,12.0724,9.376],[-86.7146,12.0612,0.0],[-86.7124,12.0588,0.0],[-86.7107,12.0593,2.6479],[-86.7104,12.0551,0.0],[-86.7096,12.0574,3.9673],[-86.7043,12.0515,1.4066],[-86.706,12.0479,0.0],[-86.7043,12.0435,0.0],[-86.6879,12.0224,11.8129],[-86.6885,12.0196,2.1327],[-86.6862,12.0168,0.0],[-86.6874,12.0115,15.2604],[-86.6834,12.0057,4.7665],[-86.6658,12.0174,25.4655],[-86.657,12.0263,34.6981],[-86.6558,12.0311,44.1406],[-86.6568,12.0381,35.1975],[-86.6684,12.067,35.5784],[-86.6681,12.0706,24.501],[-86.6635,12.0778,30.5459],[-86.6574,12.0806,30.0868],[-86.6501,12.0806,23.2094],[-86.6356,12.0889,59.5444],[-86.6323,12.0894,52.1246],[-86.5962,12.0826,54.3585],[-86.5834,12.0968,74.9263],[-86.5669,12.108,81.0208],[-86.5469,12.1163,100.2067],[-86.5378,12.1302,113.799],[-86.5209,12.1366,170.2539],[-86.5178,12.1396,171.7897],[-86.5202,12.1543,163.9274],[-86.5135,12.1677,220.38],[-86.5137,12.1759,227.5049],[-86.5208,12.1843,226.0429],[-86.542,12.19,180.7911],[-86.5451,12.1918,175.0245],[-86.546,12.1958,186.2023],[-86.5382,12.2168,152.3279],[-86.5437,12.254,104.7058],[-86.5318,12.291,49.268],[-86.5385,12.2972,40.0],[-86.5531,12.3051,45.8845],[-86.5736,12.3106,40.0],[-86.5897,12.3116,46.8761],[-86.5992,12.3173,52.4206],[-86.6059,12.3394,57.7472],[-86.6186,12.3578,94.0539],[-86.6189,12.3621,56.1874],[-86.6132,12.3877,44.7975],[-86.619,12.3953,56.9258],[-86.621,12.3994,67.9365],[-86.6207,12.4037,60.4594],[-86.6064,12.417,41.1066],[-86.5961,12.4227,41.1555],[-86.5911,12.4227,40.0],[-86.588,12.4205,40.0],[-86.5845,12.4141,42.8086],[-86.5853,12.4112,40.0],[-86.5917,12.4104,40.0],[-86.5927,12.4081,40.0],[-86.5885,12.4045,40.0],[-86.5564,12.3921,40.0],[-86.5404,12.3835,40.0],[-86.5119,12.3819,40.0],[-86.5008,12.3868,40.0],[-86.4938,12.3928,40.0],[-86.4901,12.3979,40.0],[-86.478,12.4254,42.0493],[-86.4738,12.4308,41.7346],[-86.459,12.4419,40.0],[-86.4402,12.4504,40.0],[-86.4113,12.456,40.0],[-86.409,12.4592,40.0],[-86.3787,12.4696,40.0],[-86.3693,12.4674,40.0],[-86.3594,12.4625,40.0],[-86.3572,12.4643,40.0],[-86.3595,12.4693,40.0],[-86.3538,12.4729,40.0441],[-86.3532,12.4751,41.1959],[-86.3571,12.4809,40.329],[-86.3519,12.4883,43.639],[-86.3526,12.4904,48.1942],[-86.3671,12.4953,47.1328],[-86.375,12.507,45.348],[-86.3698,12.5139,49.3092],[-86.3782,12.5167,50.11],[-86.378,12.5196,52.9152],[-86.371,12.5203,48.3312],[-86.3698,12.5219,51.9704],[-86.3748,12.5312,51.6177],[-86.3705,12.5367,56.8328],[-86.3696,12.5463,53.0623],[-86.3631,12.5566,57.4706],[-86.3587,12.5781,58.902],[-86.3547,12.5836,63.9564],[-86.3505,12.5945,68.2359],[-86.3318,12.6058,82.6545],[-86.3267,12.6162,88.7857],[-86.321,12.6221,119.8143],[-86.3069,12.627,159.3457],[-86.2868,12.6297,147.1022],[-86.2825,12.633,171.1994],[-86.2841,12.6469,168.6263],[-86.2782,12.6617,189.9187],[-86.2747,12.6767,219.9448],[-86.2792,12.6904,236.952],[-86.2784,12.7001,219.5094],[-86.2799,12.7095,280.207],[-86.2747,12.7221,317.8029],[-86.2761,12.727,282.4113],[-86.2732,12.7357,465.7849],[-86.2721,12.7617,450.0008],[-86.2696,12.7779,560.6568],[-86.2706,12.7981,534.3961],[-86.2738,12.8159,709.5748],[-86.2721,12.8491,902.9393],[-86.2752,12.8476,899.1945],[-86.292,12.8481,1033.5974],[-86.3525,12.861,571.6882],[-86.4174,12.8887,635.6259],[-86.4306,12.9007,898.0531],[-86.4351,12.9086,1034.0352],[-86.4373,12.9233,988.7469],[-86.4322,12.9377,853.7202],[-86.4202,12.9572,657.1935],[-86.4153,12.9686,729.2368],[-86.4082,13.0085,1144.1322],[-86.4112,13.0154,926.7604],[-86.4178,13.0244,1057.3782],[-86.4459,13.0564,1171.3114],[-86.4512,13.066,811.4725],[-86.4583,13.0865,901.2015],[-86.4635,13.0957,792.4167],[-86.4764,13.108,1037.0139],[-86.4854,13.1107,1209.4495],[-86.51,13.1114,1042.5334],[-86.5407,13.1158,780.9191],[-86.5545,13.1144,655.9863],[-86.5938,13.1035,660.1992],[-86.627,13.0825,404.2444],[-86.6372,13.0781,426.2034],[-86.6468,13.0764,335.6487],[-86.6576,13.077,240.8188],[-86.6618,13.0788,231.0898],[-86.6819,13.0942,160.0865],[-86.6926,13.0982,156.3884],[-86.7116,13.0998,170.5473],[-86.7285,13.095,166.8973],[-86.7377,13.0955,167.4102],[-86.7346,13.0905,153.5888],[-86.7309,13.0734,171.763],[-86.719,13.0546,231.8783],[-86.718,13.0333,246.567],[-86.7148,13.0221,284.356],[-86.6979,13.0046,168.9159],[-86.6881,12.9861,191.4626],[-86.6731,12.9644,121.5762],[-86.6698,12.9561,121.3875],[-86.6756,12.9358,161.5095],[-86.6756,12.9096,141.9312],[-86.6721,12.8896,100.3906],[-86.6685,12.8766,137.7392],[-86.6601,12.8558,165.7494],[-86.6571,12.8388,96.3376],[-86.6617,12.8101,188.853],[-86.674,12.7834,54.9182],[-86.6827,12.7727,44.8466],[-86.693,12.765,48.8381],[-86.7041,12.7598,94.8854],[-86.7132,12.7585,91.5259],[-86.7378,12.7605,182.1372],[-86.7531,12.7574,122.097],[-86.7695,12.757,44.7437],[-86.7887,12.7508,36.0054],[-86.8072,12.7514,22.1089],[-86.8144,12.7477,19.5119],[-86.8192,12.7399,20.5688],[-86.8201,12.7298,32.7583],[-86.8172,12.7149,25.1465],[-86.8196,12.706,23.8301],[-86.8226,12.7024,25.6643],[-86.8352,12.6954,30.3639],[-86.8437,12.6851,44.8221],[-86.85,12.6805,54.9617],[-86.8677,12.6772,78.6933],[-86.8744,12.6735,98.6979],[-86.881,12.6662,129.4321],[-86.9107,12.6207,253.2589],[-86.9387,12.6021,185.1081],[-86.9402,12.5918,159.0758],[-86.9381,12.5708,128.6015],[-86.9407,12.5404,92.0221],[-86.945,12.5291,78.9748],[-86.9498,12.5223,71.42],[-86.9598,12.515,63.9846],[-86.9794,12.5054,50.6804],[-86.9844,12.5003,44.8518],[-86.992,12.4964,42.7141],[-87.0357,12.479,22.6109],[-87.0532,12.4631,16.0991],[-87.0584,12.4602,15.3363],[-87.0736,12.4559,12.3157],[-87.0893,12.4547,5.5622],[-87.0954,12.4548,4.0305],[-87.0978,12.4574,3.5772],[-87.1165,12.4506,2.6972],[-87.1151,12.449,0.0],[-87.1129,12.4496,1.2017],[-87.1118,12.4468,0.0],[-87.109,12.4471,7.47],[-87.1079,12.4437,0.0],[-87.1049,12.4429,2.8686],[-87.1029,12.4338,0.971],[-87.0896,12.4257,3.6054],[-87.0876,12.4174,0.0],[-87.0949,12.4282,0.0],[-87.1012,12.4301,0.0],[-87.1004,12.4282,0.0],[-87.1015,12.4282,3.422],[-87.0912,12.4205,4.8183],[-87.087,12.4105,6.5855],[-87.0521,12.3846,0.0],[-87.0504,12.3843,2.7046],[-87.051,12.3865,2.3898],[-87.0493,12.3874,1.5709],[-87.0496,12.3849,0.0],[-87.0374,12.3729,1.2365],[-87.0374,12.3704,0.0],[-87.0315,12.3671,1.4997],[-87.0218,12.3579,1.2501],[-87.0196,12.3574,2.4461],[-87.0185,12.3596,3.8258],[-87.0154,12.3585,0.744],[-87.0146,12.3596,2.5832],[-87.0149,12.3568,0.7731],[-87.0126,12.354,3.8747],[-87.0146,12.3554,0.8817],[-87.0157,12.3546,0.7795],[-87.0079,12.3485,0.0],[-86.9776,12.3304,5.8648],[-86.9737,12.3257,0.0],[-86.9654,12.3226,4.0415],[-86.9604,12.3176,3.9241],[-86.9374,12.3035,0.0],[-86.914,12.2915,1.098],[-86.8812,12.2718,0.0],[-86.8799,12.2724,0.0],[-86.8793,12.2771,0.8503],[-86.8771,12.269,0.0],[-86.8485,12.2515,1.0706],[-86.8465,12.2487,0.0],[-86.8349,12.2432,2.5934],[-86.8085,12.2268,2.7041],[-86.784,12.2085,4.3872],[-86.7799,12.2046,5.2677],[-86.7787,12.2004,0.0],[-86.7765,12.2021,7.7327],[-86.7704,12.1993,4.4287],[-86.7671,12.2012,0.0],[-86.7676,12.2068,0.5],[-86.7707,12.2079,1.2229],[-86.7751,12.2135,1.5049]]],
[[[-86.7663,12.2179,2.1987],[-86.7685,12.2182,1.6692],[-86.771,12.214,0.5],[-86.7685,12.2146,0.5],[-86.7679,12.2132,0.5],[-86.7699,12.2126,0.5],[-86.7668,12.2076,0.5],[-86.7654,12.2076,0.5],[-86.7649,12.2099,0.5],[-86.7665,12.2132,0.5],[-86.7663,12.2179,2.1987]]],
[[[-86.4873,12.3533,40.0],[-86.4856,12.3463,40.0],[-86.4817,12.3401,40.0],[-86.4775,12.342,40.0],[-86.4672,12.3523,51.3168],[-86.4697,12.3577,97.7347],[-86.4807,12.3604,40.0],[-86.4858,12.3587,40.0],[-86.4873,12.3533,40.0]]],
[[[-87.1174,12.4503,0.0],[-87.1177,12.4502,1.0607],[-87.1174,12.4501,0.0],[-87.1174,12.4503,0.0]]]]}}