{"type":"Feature","properties":{"ISO3166-1-Alpha-3":"NIC","country":"Nicaragua","fill":"#00F","id":"658","name":"León"},
"geometry":{"type": "Polygon","coordinates": [[[-86.2639,12.84852,939.95],[-86.38635,12.8833,325.6422],[-86.41996,12.89976,891.988],[-86.42994,12.9173,857.9233],[-86.43022,12.92575,813.2321],[-86.42885,12.9373,853.5444],[-86.40684,12.97551,788.4022],[-86.40472,13.00691,1238.3599],[-86.41172,13.03181,1135.2365],[-86.41692,13.04042,1144.6069],[-86.42707,13.05396,1188.3351],[-86.45337,13.09667,1103.4867],[-86.47149,13.11452,1198.5015],[-86.47906,13.11824,1288.7621],[-86.49118,13.12152,1078.1066],[-86.54709,13.10995,798.2823],[-86.61305,13.0883,666.8815],[-86.63341,13.08388,383.649],[-86.64525,13.08303,347.8254],[-86.66465,13.09233,241.0676],[-86.68054,13.09757,192.2186],[-86.69377,13.09783,161.2241],[-86.70336,13.09703,202.6323],[-86.7207,13.09023,188.8458],[-86.71095,13.05634,296.3894],[-86.68982,13.00861,281.855],[-86.67625,12.98704,290.5194],[-86.6639,12.95916,143.172],[-86.6546,12.83823,110.9489],[-86.65757,12.80697,102.769],[-86.67,12.77876,59.74],[-86.68786,12.76793,45.4347],[-86.69571,12.76491,55.2861],[-86.70992,12.76134,81.4908],[-86.78201,12.75212,46.3434],[-86.79304,12.7462,40.3238],[-86.8002,12.73935,28.1553],[-86.81408,12.713,25.3389],[-86.83332,12.69036,38.5247],[-86.85281,12.68163,93.7419],[-86.8773,12.65564,127.7261],[-86.90275,12.62874,258.7427],[-86.92216,12.6106,220.8074],[-86.92611,12.60409,193.2701],[-86.93378,12.58437,151.5293],[-86.95394,12.55241,97.3372],[-87.00579,12.49965,38.4331],[-87.0153,12.49391,32.7753],[-87.03223,12.48417,25.1761],[-87.04938,12.47665,19.0945],[-87.09866,12.47133,7.8239],[-87.12075,12.45844,5.4458],[-87.12084,12.45838,5.4458],[-87.09781,12.43354,4.3524],[-87.11962,12.43769,0.0],[-87.14249,12.44684,0.0],[-87.1621,12.45962,6.7776],[-87.17357,12.47451,0.0],[-87.17101,12.45144,0.0],[-87.10196,12.42097,3.8951],[-87.0714,12.3887,0.0],[-87.01504,12.35684,0.7731],[-87.00223,12.34138,0.0],[-86.79752,12.21853,1.0798],[-86.77257,12.19741,0.0],[-86.76268,12.18228,3.2998],[-86.72757,12.08828,5.6733],[-86.68981,12.02407,0.0],[-86.67072,12.00052,1.3813],[-86.6706,12.00061,1.3813],[-86.64584,12.01816,33.9828],[-86.6423,12.02213,13.788],[-86.63799,12.0296,11.7555],[-86.6375,12.03224,13.1331],[-86.63742,12.03459,12.4895],[-86.63838,12.03815,12.3301],[-86.63959,12.0403,14.2431],[-86.64434,12.04588,13.1063],[-86.65127,12.0597,17.5711],[-86.65284,12.06513,18.9373],[-86.65328,12.068,21.4767],[-86.65315,12.07087,21.5449],[-86.6522,12.07332,22.5872],[-86.65075,12.07534,22.6235],[-86.64804,12.07707,29.8117],[-86.6444,12.07875,29.8038],[-86.63734,12.08022,28.9195],[-86.62236,12.08549,68.8013],[-86.61964,12.08619,43.5823],[-86.61685,12.0865,44.0692],[-86.61427,12.08639,42.5382],[-86.61246,12.08611,42.5174],[-86.5982,12.08084,52.78],[-86.58404,12.07789,62.3769],[-86.58109,12.078,62.4577],[-86.57546,12.08076,65.6605],[-86.53771,12.109,103.1962],[-86.51825,12.13112,134.8231],[-86.50552,12.15892,182.186],[-86.50691,12.17688,213.5555],[-86.51334,12.18432,229.1857],[-86.51836,12.18722,227.1519],[-86.52252,12.19063,224.0893],[-86.52523,12.19652,219.6892],[-86.52655,12.20326,225.5072],[-86.52642,12.27419,95.8497],[-86.52484,12.28974,40.947],[-86.51092,12.30886,40.0],[-86.44415,12.37488,40.0],[-86.34684,12.46911,40.0],[-86.34281,12.47384,40.0],[-86.34142,12.47691,40.0],[-86.34258,12.48071,42.0076],[-86.34312,12.48394,41.7633],[-86.34328,12.4903,40.8754],[-86.34405,12.49283,46.3486],[-86.34529,12.49469,47.0544],[-86.35118,12.49981,45.2312],[-86.35147,12.50012,45.2312],[-86.36105,12.51353,48.021],[-86.36214,12.5159,49.0978],[-86.36392,12.52102,50.7517],[-86.36441,12.52381,52.1262],[-86.36346,12.52851,51.1368],[-86.35741,12.54611,55.4508],[-86.35609,12.55241,56.1576],[-86.35581,12.55701,57.6769],[-86.35633,12.55988,57.785],[-86.35633,12.56352,56.9981],[-86.35462,12.57381,61.8786],[-86.35488,12.57735,62.5023],[-86.35372,12.58236,64.1545],[-86.35098,12.58812,65.6575],[-86.34255,12.59926,74.3845],[-86.32834,12.61262,91.1444],[-86.28881,12.63646,163.1901],[-86.27868,12.7246,264.0322],[-86.26685,12.82371,828.894],[-86.2639,12.84852,939.95]]]}}