{"type":"Feature","properties":{"GID_2":"NIC.18.4_1","GID_0":"NIC","country":"Nicaragua","GID_1":"NIC.18_1","province":"Rivas","NL_NAME_1":"NA","county":"Moyogalpa","VARNAME_2":"NA","NL_NAME_2":"NA","TYPE_2":"Municipio","ENGTYPE_2":"Municipality","CC_2":"NA","HASC_2":"NI.RI.MO","name":"Moyogalpa.county"},
"geometry":{"type": "MultiPolygon","coordinates": [[[[-85.6489,11.4714,31.0],[-85.6466,11.5238,304.578],[-85.6524,11.5371,322.9887],[-85.6532,11.5424,265.601],[-85.6446,11.5655,164.0442],[-85.66,11.561,152.0423],[-85.6894,11.5464,109.6338],[-85.6937,11.5429,61.5963],[-85.6998,11.5352,49.3108],[-85.6997,11.5237,55.1556],[-85.7082,11.512,42.3291],[-85.7194,11.4905,31.0],[-85.7169,11.4859,31.0],[-85.7008,11.4717,31.0],[-85.6774,11.4585,31.0],[-85.6682,11.4595,31.0],[-85.6489,11.4714,31.0]]]]}}