{"type": "Feature","bbox": [-86.2699,11.694,-86.2116,11.8573],"geometry": {"type": "MultiPolygon","coordinates": [[[[-86.2688,11.6987,119.7955],[-86.2627,11.694,97.0494],[-86.2563,11.6967,92.0742],[-86.2395,11.7244,119.0281],[-86.2369,11.7416,163.4496],[-86.2382,11.7539,215.5245],[-86.2372,11.7611,242.6834],[-86.2311,11.7773,301.5173],[-86.2206,11.793,363.2489],[-86.2175,11.8033,415.3083],[-86.215,11.8319,512.9042],[-86.2116,11.8453,553.356],[-86.2121,11.8501,571.725],[-86.2299,11.8573,580.4733],[-86.2485,11.8118,419.4356],[-86.253,11.7858,318.1444],[-86.2519,11.7583,214.8465],[-86.2573,11.7379,149.4872],[-86.2682,11.7121,92.3835],[-86.2699,11.7025,122.5487],[-86.2688,11.6987,119.7955]]]]}
,"properties": {"GID_2": "NIC.4.2_1","GID_0": "NIC","country": "Nicaragua","GID_1": "NIC.4_1","province": "Carazo","NL_NAME_1": "NA","county": "Dolores","VARNAME_2": "NA","NL_NAME_2": "NA","TYPE_2": "Municipio","ENGTYPE_2": "Municipality","CC_2": "NA","HASC_2": "NI.CA.DO","name": "Dolores.county","area_km2": 44.10564,"hist_schema_id": "Elevation0-9000","hist_area_km2": {"75": 0.91349,"100": 4.58813,"125": 3.40464,"150": 2.30425,"175": 1.45308,"200": 1.39078,"225": 1.10014,"250": 1.49449,"275": 1.70201,"300": 1.76423,"325": 2.05477,"350": 2.3868,"375": 2.28297,"400": 2.4282,"425": 2.61492,"450": 2.34507,"475": 2.40727,"500": 2.38645,"525": 1.90912,"550": 1.97132,"575": 1.20352}}}