{"type":"Feature","properties":{"GID_2":"NIC.3.3_1","GID_0":"NIC","country":"Nicaragua","GID_1":"NIC.3_1","province":"Boaco","NL_NAME_1":"NA","county":"SanJosédelosRemates","VARNAME_2":"NA","NL_NAME_2":"NA","TYPE_2":"Municipio","ENGTYPE_2":"Municipality","CC_2":"NA","HASC_2":"NI.BO.SJ","name":"San_Josédelos_Remates.county"},
"geometry":{"type": "MultiPolygon","coordinates": [[[[-85.6279,12.6359,412.6625],[-85.6313,12.6348,414.4972],[-85.6346,12.6273,451.4115],[-85.6404,12.6275,478.4832],[-85.6464,12.6313,475.7922],[-85.6488,12.631,475.2983],[-85.6509,12.627,446.9221],[-85.655,12.6273,602.5278],[-85.6619,12.6319,522.8692],[-85.6715,12.6318,582.1675],[-85.6886,12.6394,709.0538],[-85.6959,12.6394,790.3842],[-85.7123,12.636,987.5796],[-85.739,12.6246,934.2957],[-85.7694,12.6195,767.9168],[-85.8322,12.6186,491.5508],[-85.8571,12.6147,390.7881],[-85.8619,12.6161,385.8674],[-85.8763,12.613,474.1207],[-85.8849,12.6097,425.0381],[-85.8844,12.5992,520.6729],[-85.8827,12.5966,544.7279],[-85.8805,12.5836,602.6404],[-85.8809,12.577,556.6985],[-85.8843,12.5659,442.4031],[-85.896,12.5547,474.2421],[-85.9174,12.5462,560.793],[-85.9019,12.5255,572.7909],[-85.8885,12.516,637.58],[-85.8725,12.5159,673.0388],[-85.8427,12.5272,471.5863],[-85.8368,12.5279,436.7641],[-85.8301,12.5271,446.6156],[-85.8145,12.5204,359.9819],[-85.7982,12.5199,478.8163],[-85.7903,12.5216,311.0087],[-85.7882,12.5208,298.7902],[-85.7863,12.5167,406.2921],[-85.7882,12.5025,340.1295],[-85.7864,12.5009,365.745],[-85.7797,12.5014,592.1395],[-85.7741,12.4954,491.9763],[-85.7695,12.4941,352.4668],[-85.7602,12.4941,232.4325],[-85.753,12.5054,315.5846],[-85.7443,12.5286,565.5494],[-85.7393,12.5351,891.9424],[-85.7073,12.5368,569.6789],[-85.6927,12.5427,752.9305],[-85.6902,12.5456,773.2294],[-85.6786,12.5465,793.4246],[-85.6692,12.5513,770.5079],[-85.6642,12.5496,793.2733],[-85.6287,12.6273,424.9097],[-85.6279,12.6359,412.6625]]]]}}