{"type":"Feature","properties":{"GID_2":"NIC.1.5_1","GID_0":"NIC","country":"Nicaragua","GID_1":"NIC.1_1","province":"AtlánticoNorte","NL_NAME_1":"NA","county":"Siuna","VARNAME_2":"NA","NL_NAME_2":"NA","TYPE_2":"Municipio","ENGTYPE_2":"Municipality","CC_2":"NA","HASC_2":"NI.AN.SI","name":"Siuna.county"},
"geometry":{"type": "MultiPolygon","coordinates": [[[[-84.9488,13.9158,698.6893],[-85.0575,13.7431,1184.234],[-85.1557,13.7908,529.0583],[-85.2931,13.7034,644.6985],[-85.37,13.7017,633.6048],[-85.3819,13.6469,618.7847],[-85.3885,13.6394,697.4283],[-85.4126,13.6253,565.4425],[-85.4155,13.6208,486.5905],[-85.4179,13.6118,406.8231],[-85.4165,13.6056,328.5334],[-85.405,13.5911,554.5404],[-85.3931,13.5833,343.0405],[-85.3863,13.5757,312.2191],[-85.3838,13.5674,327.2907],[-85.3861,13.551,446.1151],[-85.3787,13.552,468.404],[-85.3682,13.5582,276.8148],[-85.3605,13.5582,444.2587],[-85.3453,13.5509,566.8977],[-85.3047,13.5387,569.634],[-85.2931,13.5402,357.5273],[-85.2879,13.5437,466.5591],[-85.2884,13.5563,263.9405],[-85.2816,13.5686,253.0362],[-85.2818,13.5824,259.1439],[-85.2794,13.5924,262.6001],[-85.2769,13.594,276.9224],[-85.2551,13.5962,485.9846],[-85.2041,13.5962,266.4153],[-85.1785,13.5998,269.3872],[-85.1723,13.5994,260.0567],[-85.1654,13.5946,304.1605],[-85.1591,13.5865,277.2756],[-85.1582,13.5668,334.2162],[-85.1526,13.5574,649.6909],[-85.1502,13.5404,978.6356],[-85.1453,13.5316,927.0872],[-85.1443,13.5265,836.339],[-85.1505,13.5015,423.2865],[-85.16,13.4908,483.0173],[-85.161,13.4815,829.2523],[-85.1568,13.4705,651.0848],[-85.1494,13.4616,296.3401],[-85.1416,13.4576,231.3279],[-85.1409,13.454,237.9437],[-85.1472,13.4267,202.5506],[-85.1444,13.418,198.7249],[-85.1448,13.4125,205.8355],[-85.1497,13.4046,206.7907],[-85.1586,13.3999,177.8069],[-85.1593,13.398,149.9959],[-85.1574,13.3887,289.1886],[-85.1614,13.3793,196.2559],[-85.1588,13.3728,175.5172],[-85.1591,13.3698,191.3679],[-85.1654,13.3603,164.8182],[-85.1633,13.3549,173.8969],[-85.1664,13.3451,140.7215],[-85.1619,13.3357,122.5519],[-85.1518,13.3213,159.1132],[-85.1365,13.3111,144.0031],[-85.1295,13.3046,189.3865],[-85.1229,13.3012,163.062],[-85.1102,13.2989,124.9833],[-85.1018,13.2906,148.8504],[-85.0953,13.2924,172.0979],[-85.0603,13.2852,169.9451],[-85.0024,13.2839,105.8232],[-84.9804,13.2795,110.9814],[-84.9699,13.2801,102.1037],[-84.9647,13.2826,100.2644],[-84.9471,13.2996,109.1837],[-84.9081,13.3412,145.8015],[-84.8781,13.3685,101.925],[-84.8692,13.3741,91.7774],[-84.7437,13.2201,82.6505],[-84.6781,13.3352,67.4366],[-84.6447,13.3901,45.0304],[-84.5905,13.4903,69.4833],[-84.4859,13.6077,44.6029],[-84.4477,13.6481,38.895],[-84.4294,13.6649,44.2664],[-84.4245,13.673,41.6867],[-84.4248,13.6757,40.8649],[-84.4622,13.7707,111.6406],[-84.5001,13.8511,134.2479],[-84.5589,13.9012,96.6219],[-84.5684,13.907,176.9516],[-84.5802,13.9096,253.7572],[-84.5961,13.9078,329.3382],[-84.663,13.9224,557.5476],[-84.6707,13.9205,536.5898],[-84.6832,13.9136,405.9846],[-84.6904,13.9118,392.5992],[-84.7235,13.9122,419.9443],[-84.7418,13.9074,428.2038],[-84.7584,13.907,496.5912],[-84.7785,13.9028,306.8843],[-84.8262,13.8985,220.7275],[-84.8619,13.9046,325.6216],[-84.8949,13.9075,520.9968],[-84.9488,13.9158,698.6893]]]]}}