{"type":"Feature","properties":{"ISO3166-1-Alpha-3":"NIC","country":"Nicaragua","fill":"#000","id":"667","name":"Nueva Segovia"},
"geometry":{"type": "Polygon","coordinates": [[[-85.9155,13.90745,464.7677],[-85.9294,13.9121,577.5948],[-85.93612,13.9182,594.7855],[-85.95777,13.9461,514.1635],[-86.02841,13.99607,731.2318],[-86.03126,14.02258,656.7662],[-86.02046,14.04408,664.225],[-86.0202,14.05516,666.9534],[-86.09673,14.04408,978.8354],[-86.11048,14.03713,915.1934],[-86.12169,14.02721,1109.9999],[-86.12691,14.01855,1146.2482],[-86.13084,14.00891,1227.0363],[-86.13802,13.99618,1398.8245],[-86.1497,13.98426,1210.2184],[-86.16179,13.97811,1345.2344],[-86.17357,13.97367,1162.786],[-86.18406,13.96687,1295.11],[-86.21858,13.91437,1315.1864],[-86.28411,13.84572,1042.7217],[-86.29992,13.82133,1144.6057],[-86.30778,13.79169,1191.6974],[-86.31356,13.7766,1276.5415],[-86.32519,13.76376,1489.2295],[-86.34013,13.75665,1349.0732],[-86.35847,13.75226,1436.3774],[-86.4101,13.74903,1593.4351],[-86.41707,13.75001,1643.8993],[-86.42653,13.75299,1733.788],[-86.43247,13.75712,1641.2098],[-86.44823,13.77296,1767.3719],[-86.46286,13.77094,1623.7181],[-86.47629,13.76402,1719.9479],[-86.49081,13.7595,1496.0924],[-86.50854,13.76438,1232.2825],[-86.54166,13.78213,1210.8129],[-86.58114,13.77986,1243.4718],[-86.66269,13.76469,989.8024],[-86.7063,13.77001,835.3684],[-86.72723,13.76826,685.4421],[-86.74992,13.75712,611.4041],[-86.76144,13.74934,469.0301],[-86.7662,13.74526,299.1484],[-86.7679,13.73916,424.2441],[-86.77023,13.72524,337.4704],[-86.77117,13.70789,308.0581],[-86.77405,13.65459,766.281],[-86.77214,13.64552,792.1292],[-86.76821,13.64036,798.6208],[-86.76413,13.63734,723.7447],[-86.75576,13.64341,711.7121],[-86.74814,13.65361,772.2646],[-86.74504,13.65684,837.8347],[-86.74046,13.66015,840.9587],[-86.71834,13.65986,513.8143],[-86.64832,13.64723,1033.572],[-86.62853,13.61847,1111.0739],[-86.62414,13.60997,1297.0487],[-86.6153,13.60057,1005.5538],[-86.60432,13.59292,885.6545],[-86.58745,13.58674,821.369],[-86.576,13.5801,805.7812],[-86.56352,13.56948,652.7995],[-86.54784,13.577,678.3216],[-86.53779,13.58651,627.303],[-86.5152,13.59222,793.5673],[-86.50528,13.59338,781.7462],[-86.43345,13.59222,755.1937],[-86.37764,13.57468,846.4672],[-86.34555,13.57506,806.8327],[-86.30403,13.58018,734.1929],[-86.29232,13.57868,845.6633],[-86.2768,13.57421,757.1949],[-86.25739,13.56251,711.2319],[-86.2269,13.5493,949.3318],[-86.21786,13.56036,1084.2507],[-86.21189,13.58865,1002.3135],[-86.20871,13.59517,978.1002],[-86.20587,13.59966,919.5859],[-86.18388,13.60819,841.5042],[-86.16443,13.61452,747.9484],[-86.12985,13.58697,843.2531],[-86.12174,13.57902,1082.1111],[-86.112,13.56723,700.1976],[-86.08988,13.52879,1003.1699],[-86.05968,13.49329,396.1482],[-86.05004,13.50478,353.6406],[-86.03885,13.50912,463.6259],[-86.02828,13.49628,348.5752],[-86.01852,13.50073,393.1823],[-85.96625,13.50509,358.5835],[-85.94899,13.50393,417.484],[-85.93785,13.49763,424.6255],[-85.9294,13.49011,352.6776],[-85.9201,13.48517,383.9294],[-85.90674,13.48685,321.8443],[-85.89969,13.49186,318.588],[-85.88284,13.5152,441.5045],[-85.86046,13.53134,348.3113],[-85.84222,13.54023,438.6481],[-85.83129,13.55338,398.5905],[-85.83297,13.61286,307.3242],[-85.82987,13.63775,429.0393],[-85.82075,13.66079,389.163],[-85.79181,13.70922,273.1135],[-85.7875,13.72138,276.8048],[-85.78455,13.73459,335.7843],[-85.78308,13.7819,433.83],[-85.77703,13.7982,306.1172],[-85.76714,13.80965,312.9032],[-85.74311,13.82396,373.0932],[-85.74499,13.82469,373.0932],[-85.7583,13.83929,294.8234],[-85.77866,13.84094,428.7284],[-85.80202,13.84022,494.4694],[-85.82416,13.84768,343.3658],[-85.8401,13.86657,608.9709],[-85.84987,13.88709,387.7174],[-85.8616,13.90442,405.4921],[-85.88356,13.91385,566.9886],[-85.89721,13.91303,659.9957],[-85.9063,13.90936,467.3475],[-85.9155,13.90745,464.7677]]]}}