{"type":"Feature","properties":{"GID_1":"NIC.16_1","GID_0":"NIC","country":"Nicaragua","province":"NuevaSegovia","VARNAME_1":"NA","NL_NAME_1":"NA","TYPE_1":"Departamento","ENGTYPE_1":"Department","CC_1":"NA","HASC_1":"NI.NS","ISO_1":"NI-NS","name":"Nueva_Segovia.province"},
"geometry":{"type": "MultiPolygon","coordinates": [[[[-86.2011,13.6064,794.836],[-86.191,13.605,911.015],[-86.1894,13.6074,878.2723],[-86.1855,13.6079,851.0369],[-86.1777,13.6123,724.5884],[-86.1717,13.6093,827.9276],[-86.1488,13.587,762.6533],[-86.1135,13.5616,879.6362],[-86.1041,13.549,730.1839],[-86.1013,13.5273,951.7101],[-86.0935,13.5201,1072.4771],[-86.073,13.5068,518.8287],[-86.0591,13.4933,396.1482],[-86.0218,13.4972,411.2457],[-86.0164,13.5107,356.8326],[-86.0137,13.5136,387.5776],[-86.008,13.5138,404.3301],[-85.999,13.5085,375.4418],[-85.9899,13.5101,345.9796],[-85.9791,13.5095,340.5306],[-85.972,13.5062,347.6163],[-85.9586,13.4953,423.9189],[-85.9393,13.4832,327.1843],[-85.9349,13.4784,326.7824],[-85.9305,13.4695,363.3869],[-85.9275,13.4676,379.3079],[-85.9188,13.4693,344.7579],[-85.9147,13.4675,321.125],[-85.91,13.4622,321.1066],[-85.9039,13.4692,392.7039],[-85.9027,13.4839,341.8931],[-85.8982,13.4886,406.778],[-85.8875,13.4937,429.4617],[-85.8798,13.5007,361.6369],[-85.8789,13.5054,339.5579],[-85.8812,13.5078,318.349],[-85.9059,13.5165,350.5628],[-85.9138,13.5226,380.9229],[-85.9219,13.5335,384.9057],[-85.9252,13.5414,424.426],[-85.9284,13.5503,464.2357],[-85.9297,13.5639,532.5535],[-85.9259,13.58,606.9745],[-85.9185,13.594,637.9949],[-85.9162,13.6458,507.422],[-85.9112,13.6734,685.6635],[-85.9018,13.7065,971.3295],[-85.8901,13.7193,971.8085],[-85.8885,13.7238,1184.4713],[-85.8884,13.7388,886.3431],[-85.8921,13.7499,971.2313],[-85.893,13.7646,922.2294],[-85.889,13.779,859.3215],[-85.8813,13.7902,797.3484],[-85.8635,13.8069,814.4219],[-85.8542,13.8292,754.5095],[-85.8429,13.8458,680.8939],[-85.8248,13.8527,407.1556],[-85.8282,13.8541,394.2827],[-85.8328,13.8665,441.0853],[-85.8445,13.8772,347.2565],[-85.8438,13.9032,383.2141],[-85.8513,13.9133,417.1114],[-85.8637,13.9194,359.7411],[-85.8755,13.9193,577.6105],[-85.8827,13.9223,515.4824],[-85.8879,13.9221,401.2429],[-85.8946,13.9144,542.5279],[-85.8941,13.9082,489.8205],[-85.896,13.9036,444.1449],[-85.901,13.8999,415.7313],[-85.92,13.9079,426.1022],[-85.9284,13.9209,645.0316],[-85.9476,13.9388,618.9993],[-86.0154,13.9898,622.806],[-86.0217,13.9997,726.0983],[-86.0233,14.0076,704.6531],[-86.0211,14.023,819.3578],[-86.0095,14.0443,679.7371],[-86.0049,14.0593,680.9635],[-86.0065,14.0708,687.4877],[-86.0086,14.0752,699.3325],[-86.0121,14.0771,716.2942],[-86.0178,14.0765,709.1191],[-86.0344,14.0688,695.3423],[-86.0639,14.0693,738.9747],[-86.0719,14.0654,754.1974],[-86.0924,14.0639,753.9517],[-86.1028,14.0593,790.7194],[-86.1219,14.0442,841.529],[-86.139,14.0386,1005.6981],[-86.1505,14.0325,1147.0084],[-86.1518,14.0206,1346.1521],[-86.1468,14.0152,1251.4927],[-86.1359,14.0085,1255.4882],[-86.1357,14.004,1374.4152],[-86.1375,14.0009,1426.2103],[-86.1404,13.998,1397.6725],[-86.1489,13.9948,1339.2147],[-86.1553,13.9878,1260.566],[-86.1587,13.9862,1340.1506],[-86.1699,13.9832,1394.3535],[-86.1861,13.9821,1576.217],[-86.1884,13.9795,1552.4099],[-86.19,13.9731,1199.3528],[-86.1859,13.9613,1416.4171],[-86.1859,13.9551,1398.8297],[-86.1954,13.9503,1499.5695],[-86.2021,13.9376,1645.1873],[-86.2186,13.9305,1570.0753],[-86.2222,13.9274,1476.1449],[-86.2297,13.911,1257.3401],[-86.2422,13.9018,1027.191],[-86.2521,13.8842,1290.592],[-86.2758,13.8689,1084.488],[-86.2801,13.8554,1014.8315],[-86.2829,13.8531,1175.139],[-86.2979,13.8481,1321.0581],[-86.3004,13.8455,1284.3367],[-86.3028,13.8416,1155.7482],[-86.2985,13.8269,1234.9042],[-86.3013,13.814,1152.1283],[-86.313,13.8009,1111.6667],[-86.3214,13.7812,1363.4872],[-86.3288,13.7734,1557.9808],[-86.3462,13.7618,1631.9656],[-86.3521,13.7596,1672.3105],[-86.3647,13.7611,1580.2356],[-86.3681,13.763,1618.1639],[-86.3724,13.7694,1552.9404],[-86.3762,13.7698,1719.1675],[-86.387,13.7606,1750.3042],[-86.394,13.759,1931.1991],[-86.4195,13.7617,2001.0729],[-86.4328,13.7587,1641.2098],[-86.4361,13.7595,1778.3386],[-86.4387,13.7622,1842.3411],[-86.4448,13.7792,1753.2484],[-86.4482,13.7825,1649.8987],[-86.4511,13.7829,1731.8273],[-86.474,13.7713,1639.858],[-86.4909,13.7683,1680.0093],[-86.4991,13.7692,1384.5295],[-86.5165,13.7763,1336.8569],[-86.5226,13.7811,1331.4775],[-86.5345,13.7979,1410.0151],[-86.5395,13.8,1367.6196],[-86.5608,13.8007,1404.6553],[-86.5652,13.7989,1346.4384],[-86.5703,13.7919,1242.05],[-86.5771,13.7887,1304.1323],[-86.6111,13.7811,1078.0247],[-86.6315,13.7835,1079.3873],[-86.6416,13.7786,973.1105],[-86.6537,13.7778,860.7502],[-86.6669,13.7829,805.1322],[-86.7153,13.7871,786.9289],[-86.7244,13.7846,761.4111],[-86.7415,13.7742,574.3412],[-86.7485,13.7735,558.8849],[-86.7569,13.7747,495.1849],[-86.7628,13.7731,388.1918],[-86.7682,13.7499,323.4904],[-86.7619,13.7208,288.6346],[-86.763,13.7146,309.8837],[-86.7705,13.6939,358.1765],[-86.7852,13.6651,694.647],[-86.785,13.6567,755.5912],[-86.7832,13.6532,799.9449],[-86.7622,13.6452,682.6507],[-86.7513,13.6522,781.5868],[-86.7378,13.6567,774.298],[-86.7123,13.6522,534.9236],[-86.6752,13.6506,828.9285],[-86.6502,13.6433,1094.6388],[-86.6416,13.6384,1329.5933],[-86.634,13.6299,1056.7056],[-86.6321,13.6024,1168.5312],[-86.6262,13.5945,940.3923],[-86.6183,13.5891,779.6575],[-86.5971,13.5795,674.9843],[-86.5909,13.5789,719.279],[-86.5849,13.582,714.5063],[-86.5826,13.5816,793.8618],[-86.5714,13.5711,609.531],[-86.5593,13.5738,569.9098],[-86.5419,13.5863,585.0389],[-86.5245,13.5919,603.8663],[-86.5057,13.5959,788.011],[-86.4812,13.5958,632.7723],[-86.4479,13.5876,893.2895],[-86.4285,13.587,721.4956],[-86.3841,13.5777,908.1906],[-86.3744,13.5704,799.9856],[-86.3584,13.5785,1040.1904],[-86.3426,13.5788,895.7311],[-86.3341,13.5807,728.3004],[-86.3181,13.5883,662.3728],[-86.317,13.5913,517.4659],[-86.3048,13.5888,725.5451],[-86.2965,13.5845,804.6584],[-86.2852,13.5768,758.2966],[-86.2699,13.5612,649.1606],[-86.2523,13.5472,705.1243],[-86.2415,13.5418,812.2954],[-86.2362,13.5412,937.6354],[-86.229,13.55,899.54],[-86.225,13.5607,852.1397],[-86.2184,13.6008,850.8216],[-86.2116,13.606,782.8947],[-86.2011,13.6064,794.836]]]]}}