{"type": "Feature","bbox": [-86.9121,13.1653,-86.7782,13.2488],"geometry": {"type": "MultiPolygon","coordinates": [[[[-86.9121,13.2207,230.9422],[-86.8903,13.2127,299.8177],[-86.8789,13.2041,260.3604],[-86.8698,13.1873,253.3074],[-86.8679,13.176,304.0926],[-86.869,13.1678,377.0532],[-86.842,13.1712,258.1044],[-86.824,13.1688,160.6184],[-86.8122,13.1653,151.9468],[-86.8066,13.1812,179.622],[-86.7962,13.1889,353.3922],[-86.7937,13.1925,320.1019],[-86.7908,13.2083,286.2178],[-86.7864,13.2113,439.1854],[-86.78,13.2128,453.1477],[-86.7782,13.2153,407.312],[-86.7792,13.2229,351.5487],[-86.7913,13.2488,681.1385],[-86.798,13.2448,533.3069],[-86.8205,13.2412,395.8895],[-86.8684,13.2444,478.6977],[-86.8772,13.2432,393.3992],[-86.891,13.2366,272.2204],[-86.9024,13.2266,241.2135],[-86.9121,13.2207,230.9422]]]]}
,"properties": {"GID_2": "NIC.5.3_1","GID_0": "NIC","country": "Nicaragua","GID_1": "NIC.5_1","province": "Chinandega","NL_NAME_1": "NA","county": "CincoPinos","VARNAME_2": "NA","NL_NAME_2": "NA","TYPE_2": "Municipio","ENGTYPE_2": "Municipality","CC_2": "NA","HASC_2": "NI.CI.CP","name": "Cinco_Pinos.county","area_km2": 82.3374,"hist_schema_id": "Elevation0-9000","hist_area_km2": {"125": 0.08258,"150": 1.50704,"175": 2.35341,"200": 3.32357,"225": 4.66521,"250": 5.92428,"275": 6.91499,"300": 8.79335,"325": 6.8116,"350": 6.43999,"375": 6.58435,"400": 7.28599,"425": 7.05883,"450": 5.59341,"475": 3.59134,"500": 2.16716,"525": 1.13517,"550": 0.743,"575": 0.68107,"600": 0.39213,"625": 0.16511,"650": 0.08255,"675": 0.02064,"700": 0.02064}}}