{"type":"Feature","properties":{"GID_2":"NIC.15.6_1","GID_0":"NIC","country":"Nicaragua","GID_1":"NIC.15_1","province":"Matagalpa","NL_NAME_1":"NA","county":"RanchoGrande","VARNAME_2":"NA","NL_NAME_2":"NA","TYPE_2":"Municipio","ENGTYPE_2":"Municipality","CC_2":"NA","HASC_2":"NI.MT.RG","name":"Rancho_Grande.county"},
"geometry":{"type": "MultiPolygon","coordinates": [[[[-85.5074,13.3722,774.9229],[-85.512,13.3706,745.1694],[-85.5462,13.3442,925.0558],[-85.5643,13.3281,945.7337],[-85.6061,13.3222,852.1294],[-85.613,13.3203,948.4156],[-85.6255,13.3137,848.8849],[-85.6325,13.306,1192.4734],[-85.6397,13.2907,1373.579],[-85.6548,13.2661,1149.1731],[-85.6445,13.2579,1113.1328],[-85.6407,13.2518,1100.2786],[-85.6386,13.2352,777.7996],[-85.6364,13.2299,743.0419],[-85.6036,13.2013,539.2339],[-85.599,13.1913,598.6711],[-85.5982,13.1632,479.8772],[-85.5934,13.1493,551.228],[-85.5851,13.1444,539.0554],[-85.5576,13.1429,684.8917],[-85.5494,13.138,447.1927],[-85.5445,13.1322,413.4804],[-85.533,13.0986,280.4758],[-85.531,13.0707,349.0406],[-85.5235,13.0729,407.7131],[-85.5153,13.078,358.1575],[-85.5036,13.0743,454.4075],[-85.4861,13.0639,314.6245],[-85.4829,13.0635,222.5216],[-85.4754,13.0661,263.171],[-85.4633,13.0771,392.3497],[-85.4549,13.0795,320.8887],[-85.4484,13.078,274.3928],[-85.4201,13.0618,306.6574],[-85.4169,13.0607,303.5629],[-85.4073,13.0625,438.1512],[-85.3996,13.0672,303.1837],[-85.3921,13.0756,205.3649],[-85.3829,13.0919,338.574],[-85.3805,13.1087,248.8202],[-85.3784,13.1123,172.7041],[-85.3642,13.1128,348.6149],[-85.3482,13.117,418.5754],[-85.3364,13.124,333.2659],[-85.3252,13.1367,386.4366],[-85.3195,13.1398,332.9105],[-85.306,13.1345,195.0163],[-85.3002,13.135,167.2753],[-85.2921,13.1451,187.3556],[-85.287,13.1464,152.1237],[-85.2896,13.1561,159.2045],[-85.2948,13.1608,145.7604],[-85.3016,13.1599,142.8714],[-85.3071,13.162,220.3214],[-85.3148,13.1729,162.8587],[-85.3257,13.1793,185.4487],[-85.332,13.1882,204.3154],[-85.3363,13.1901,257.9273],[-85.3396,13.1888,277.7012],[-85.3452,13.1834,222.5936],[-85.3599,13.1818,235.4871],[-85.3673,13.1851,238.4822],[-85.3832,13.1973,289.0572],[-85.3978,13.2161,266.9079],[-85.405,13.2331,236.0143],[-85.4291,13.245,436.4422],[-85.4326,13.249,476.0545],[-85.4435,13.2712,349.9498],[-85.4582,13.2813,410.3688],[-85.4882,13.3183,566.3911],[-85.4978,13.3412,628.3311],[-85.5007,13.3589,769.3199],[-85.5074,13.3722,774.9229]]]]}}