{"type":"Feature","properties":{"GID_2":"NIC.11.7_1","GID_0":"NIC","country":"Nicaragua","GID_1":"NIC.11_1","province":"León","NL_NAME_1":"NA","county":"Nagarote","VARNAME_2":"NA","NL_NAME_2":"NA","TYPE_2":"Municipio","ENGTYPE_2":"Municipality","CC_2":"NA","HASC_2":"NI.LE.NA","name":"Nagarote.county"},
"geometry":{"type": "MultiPolygon","coordinates": [[[[-86.7645,12.2205,1.0],[-86.7657,12.216,4.5429],[-86.7646,12.2126,0.5],[-86.7629,12.2126,0.5],[-86.7604,12.2185,2.7103],[-86.7601,12.2238,4.6951],[-86.7588,12.2246,3.9646],[-86.759,12.2171,3.0004],[-86.764,12.2074,0.5],[-86.7635,12.2035,1.9696],[-86.7651,12.2015,1.8891],[-86.7663,12.1901,0.0],[-86.7688,12.186,0.0],[-86.7704,12.1876,0.0],[-86.771,12.1857,0.0],[-86.7665,12.1832,1.9147],[-86.7632,12.1871,8.8947],[-86.764,12.1818,0.7415],[-86.7629,12.181,1.223],[-86.7649,12.1804,4.702],[-86.7718,12.184,0.0],[-86.7729,12.1829,0.0],[-86.7688,12.176,0.0],[-86.764,12.1729,2.6405],[-86.7632,12.1679,0.4954],[-86.7571,12.1607,4.8427],[-86.7574,12.1535,2.3081],[-86.7607,12.1538,0.0],[-86.7593,12.149,0.9731],[-86.7574,12.1496,4.703],[-86.7518,12.1454,0.0],[-86.749,12.1451,5.7156],[-86.7468,12.1393,7.4054],[-86.7476,12.1349,0.0],[-86.7438,12.129,0.9461],[-86.7468,12.126,0.0],[-86.7449,12.1215,0.0],[-86.7451,12.1174,0.5206],[-86.7412,12.1154,0.0],[-86.7407,12.1115,0.0],[-86.7385,12.1121,2.3958],[-86.736,12.1079,1.9906],[-86.7379,12.1026,0.0],[-86.7354,12.0949,0.0],[-86.7329,12.0935,0.0],[-86.7274,12.0807,0.0],[-86.7257,12.081,1.9408],[-86.726,12.0788,0.0],[-86.7229,12.0765,6.4851],[-86.7226,12.0732,0.0],[-86.7201,12.0724,9.376],[-86.7146,12.0612,0.0],[-86.7124,12.0588,0.0],[-86.7107,12.0593,2.6479],[-86.7104,12.0551,0.0],[-86.7096,12.0574,3.9673],[-86.7043,12.0515,1.4066],[-86.706,12.0479,0.0],[-86.7043,12.0435,0.0],[-86.6879,12.0224,11.8129],[-86.6885,12.0196,2.1327],[-86.6862,12.0168,0.0],[-86.6874,12.0115,15.2604],[-86.6834,12.0057,4.7665],[-86.6658,12.0174,25.4655],[-86.657,12.0263,34.6981],[-86.6558,12.0311,44.1406],[-86.6568,12.0381,35.1975],[-86.6684,12.067,35.5784],[-86.6681,12.0706,24.501],[-86.6635,12.0778,30.5459],[-86.6574,12.0806,30.0868],[-86.6501,12.0806,23.2094],[-86.6356,12.0889,59.5444],[-86.6323,12.0894,52.1246],[-86.5962,12.0826,54.3585],[-86.5834,12.0968,74.9263],[-86.5669,12.108,81.0208],[-86.5469,12.1163,100.2067],[-86.5378,12.1302,113.799],[-86.5209,12.1366,170.2539],[-86.5178,12.1396,171.7897],[-86.5202,12.1543,163.9274],[-86.5135,12.1677,220.38],[-86.5137,12.1759,227.5049],[-86.5208,12.1843,226.0429],[-86.542,12.19,180.7911],[-86.5451,12.1918,175.0245],[-86.546,12.1958,186.2023],[-86.5382,12.2168,152.3279],[-86.5437,12.254,104.7058],[-86.5318,12.291,49.268],[-86.5385,12.2972,40.0],[-86.5595,12.3074,42.3161],[-86.5736,12.3106,40.0],[-86.5897,12.3116,46.8761],[-86.5992,12.3173,52.4206],[-86.6082,12.3146,55.143],[-86.625,12.303,52.0812],[-86.6545,12.2792,39.3488],[-86.6667,12.2744,37.3011],[-86.7006,12.2687,40.8176],[-86.7123,12.2537,30.8476],[-86.7251,12.2416,1.535],[-86.7377,12.235,5.747],[-86.7555,12.2328,3.6176],[-86.7645,12.2205,1.0]]],
[[[-86.7748,12.2022,6.6548],[-86.7715,12.1993,4.4287],[-86.7671,12.2012,0.0],[-86.7676,12.2068,0.5],[-86.7707,12.2079,1.2229],[-86.7754,12.2135,1.5049],[-86.7718,12.207,2.2192],[-86.7718,12.2043,0.8826],[-86.7748,12.2022,6.6548]]],
[[[-86.766,12.2185,2.1987],[-86.7685,12.2182,1.6692],[-86.771,12.2143,0.5],[-86.7701,12.2138,0.5],[-86.7685,12.2146,0.5],[-86.7679,12.2132,0.5],[-86.7699,12.2126,0.5],[-86.7668,12.2076,0.5],[-86.7649,12.2088,0.5],[-86.7665,12.2132,0.5],[-86.766,12.2185,2.1987]]],
[[[-86.7665,12.2254,3.9378],[-86.7698,12.2276,0.9801],[-86.7745,12.2175,2.1828],[-86.774,12.2151,1.0],[-86.771,12.2151,0.5],[-86.7685,12.2196,2.6076],[-86.7661,12.221,1.3238],[-86.7665,12.2254,3.9378]]]]}}