{"type":"Feature","properties":{"GID_2":"NIC.5.12_1","GID_0":"NIC","country":"Nicaragua","GID_1":"NIC.5_1","province":"Chinandega","NL_NAME_1":"NA","county":"Villanueva","VARNAME_2":"NA","NL_NAME_2":"NA","TYPE_2":"Municipio","ENGTYPE_2":"Municipality","CC_2":"NA","HASC_2":"NI.CI.VI","name":"Villanueva.county"},
"geometry":{"type": "MultiPolygon","coordinates": [[[[-86.8198,12.7256,30.4693],[-86.82,12.7345,21.3995],[-86.8182,12.7425,19.6522],[-86.8144,12.7477,19.5119],[-86.8072,12.7514,22.1089],[-86.7887,12.7508,36.0054],[-86.7695,12.757,44.7437],[-86.7531,12.7574,122.097],[-86.7378,12.7605,182.1372],[-86.7083,12.7589,80.154],[-86.693,12.765,48.8381],[-86.6787,12.7763,52.8098],[-86.674,12.7834,54.9182],[-86.6638,12.8042,124.9486],[-86.66,12.8163,122.7366],[-86.6574,12.8325,169.2956],[-86.6574,12.8443,88.912],[-86.6721,12.8896,100.3906],[-86.6762,12.9163,205.9117],[-86.6756,12.9358,161.5095],[-86.6698,12.9561,121.3875],[-86.6731,12.9644,121.5762],[-86.6881,12.9861,191.4626],[-86.6979,13.0046,168.9159],[-86.7148,13.0221,284.356],[-86.718,13.0333,246.567],[-86.719,13.0546,231.8783],[-86.7309,13.0734,171.763],[-86.7346,13.0905,153.5888],[-86.7377,13.0955,167.4102],[-86.7502,13.0917,117.4206],[-86.759,13.0841,130.6662],[-86.7687,13.0793,98.9366],[-86.79,13.0592,100.3451],[-86.7993,13.0577,80.7516],[-86.8072,13.0537,86.429],[-86.818,13.0547,65.3205],[-86.8276,13.0533,79.1661],[-86.84,13.0549,71.796],[-86.8458,13.0522,60.8681],[-86.8505,13.0468,77.16],[-86.85,13.0428,70.3409],[-86.8454,13.035,60.7035],[-86.8467,13.0327,61.792],[-86.8564,13.0269,51.1716],[-86.8632,13.0153,63.5597],[-86.8682,13.0143,61.163],[-86.88,13.0188,37.7295],[-86.8917,13.016,42.312],[-86.9078,13.0184,36.5273],[-86.9127,13.0118,36.6091],[-86.923,12.98,27.2291],[-86.9255,12.9653,22.4382],[-86.9249,12.951599999999999,18.7988],[-86.9159,12.9252,17.5567],[-86.9142,12.9083,18.4178],[-86.9189,12.8968,14.7175],[-86.9445,12.8577,8.7944],[-86.9459,12.8493,7.0543],[-86.9436,12.8367,4.4954],[-86.9344,12.8151,8.4397],[-86.9284,12.8055,7.8163],[-86.9052,12.8028,6.9706],[-86.8827,12.7888,11.3153],[-86.8694,12.7847,9.1238],[-86.8584,12.7847,11.63],[-86.8538,12.7825,11.793],[-86.8469,12.7745,10.9197],[-86.8411,12.7614,12.0133],[-86.8334,12.757,19.8118],[-86.8254,12.7485,22.3445],[-86.824,12.743,17.4674],[-86.8241,12.7328,17.4435],[-86.8198,12.7256,30.4693]]]]}}