{"type": "Feature","bbox": [-85.8619,12.6147,-85.6279,12.7573],"geometry": {"type": "MultiPolygon","coordinates": [[[[-85.6279,12.6359,412.6625],[-85.6283,12.6386,420.9133],[-85.6321,12.6426,459.5047],[-85.6732,12.6593,497.0613],[-85.694,12.6751,555.9488],[-85.6973,12.6799,569.4655],[-85.7029,12.6971,852.7845],[-85.7066,12.7167,949.9146],[-85.7111,12.7573,317.0825],[-85.7141,12.7572,311.9203],[-85.7216,12.7549,332.0114],[-85.73,12.7465,396.086],[-85.7334,12.745,406.6045],[-85.7565,12.7448,376.5066],[-85.7706,12.7324,380.0134],[-85.7942,12.7278,381.7221],[-85.7937,12.7237,462.0908],[-85.7975,12.7128,556.6658],[-85.8064,12.7061,429.7123],[-85.8093,12.7022,423.6369],[-85.8121,12.6856,359.4359],[-85.8159,12.6804,318.6368],[-85.8162,12.6703,340.6678],[-85.8133,12.6648,404.0239],[-85.8143,12.6608,454.7833],[-85.8214,12.6522,572.9376],[-85.8309,12.6481,521.1366],[-85.8316,12.6427,459.2583],[-85.8418,12.6431,450.0093],[-85.847,12.6296,402.5673],[-85.8562,12.6196,404.2515],[-85.8619,12.6161,385.8674],[-85.8571,12.6147,390.7881],[-85.8356,12.6183,471.5221],[-85.8075,12.6196,557.5821],[-85.7694,12.6195,767.9168],[-85.739,12.6246,934.2957],[-85.7123,12.636,987.5796],[-85.6959,12.6394,790.3842],[-85.6886,12.6394,709.0538],[-85.6715,12.6318,582.1675],[-85.6619,12.6319,522.8692],[-85.655,12.6273,602.5278],[-85.6509,12.627,446.9221],[-85.6488,12.631,475.2983],[-85.6464,12.6313,475.7922],[-85.6404,12.6275,478.4832],[-85.6346,12.6273,451.4115],[-85.6313,12.6348,414.4972],[-85.6279,12.6359,412.6625]]]]}
,"properties": {"GID_2": "NIC.15.2_1","GID_0": "NIC","country": "Nicaragua","GID_1": "NIC.15_1","province": "Matagalpa","NL_NAME_1": "NA","county": "Esquipulas","VARNAME_2": "NA","NL_NAME_2": "NA","TYPE_2": "Municipio","ENGTYPE_2": "Municipality","CC_2": "NA","HASC_2": "NI.MT.ES","name": "Esquipulas.county","area_km2": 182.82,"hist_schema_id": "Elevation0-9000","hist_area_km2": {"325": 1.1375,"350": 3.1023,"375": 4.8606,"400": 9.2878,"425": 10.5909,"450": 10.4459,"475": 11.0461,"500": 11.6253,"525": 11.2943,"550": 11.8737,"575": 9.0189,"600": 7.6744,"625": 6.9091,"650": 5.7506,"675": 5.2541,"700": 4.5508,"725": 3.9922,"750": 3.5992,"775": 3.5165,"800": 3.3717,"825": 3.5374,"850": 4.5718,"875": 4.5097,"900": 4.6338,"925": 4.5303,"950": 3.5995,"975": 4.3236,"1000": 4.1581,"1025": 3.1858,"1050": 2.1721,"1075": 1.4894,"1100": 1.2826,"1125": 0.7033,"1150": 0.8275,"1175": 0.3517,"1200": 0.0414}}}