{"type": "Feature","bbox": [-84.1529,10.7074,-83.6604,11.1237],"geometry": {"type": "MultiPolygon","coordinates": [[[[-83.9368,10.7144,12.7453],[-83.9355,10.7096,13.4089],[-83.9322,10.7074,15.3704],[-83.9152,10.711,13.8414],[-83.8909,10.7217,13.6843],[-83.8778,10.7191,11.1234],[-83.8713,10.7159,11.81],[-83.8633,10.7175,10.1732],[-83.8403,10.744,8.25],[-83.8269,10.7486,11.4346],[-83.8132,10.7459,8.9726],[-83.8099,10.7474,11.4069],[-83.8073,10.7509,8.7951],[-83.8001,10.7554,9.5176],[-83.7967,10.7666,7.0],[-83.7933,10.7694,7.7858],[-83.7783,10.7718,7.7136],[-83.7635,10.7699,6.0],[-83.7598,10.7746,7.8938],[-83.7333,10.784,6.7821],[-83.7244,10.7855,7.5635],[-83.7144,10.7927,5.0478],[-83.7077,10.7917,7.3908],[-83.7005,10.7877,5.4873],[-83.6968,10.7874,9.9453],[-83.6704,10.7977,4.4796],[-83.6604,10.8189,8.8875],[-83.6639,10.8278,45.6806],[-83.668,10.8319,3.599],[-83.6679,10.8381,14.9832],[-83.6704,10.8409,8.3811],[-83.6749,10.852,3.5769],[-83.667,10.8797,4.5764],[-83.6686,10.889099999999999,7.1351],[-83.6705,10.8916,2.5425],[-83.6756,10.8916,7.6131],[-83.6826,10.8974,2.5526],[-83.6765,10.9024,3.6076],[-83.6791,10.9095,1.1944],[-83.675299999999993,10.9066,1.0228],[-83.6732,10.9086,0.9841],[-83.6816,10.9194,5.5385],[-83.6882,10.9334,0.1501],[-83.6899,10.935,2.6395],[-83.6965,10.9357,2.0994],[-83.6973,10.9386,2.9801],[-83.6929,10.9378,5.1993],[-83.6921,10.9391,0.0],[-83.7004,10.9404,5.958],[-83.7043,10.9393,3.9225],[-83.708,10.9427,0.0502],[-83.7171,10.9415,0.0],[-83.7179,10.9368,0.776],[-83.7275,10.9385,3.286],[-83.7215,10.9311,0.0],[-83.7145,10.9267,1.242],[-83.7134,10.9189,16.4841],[-83.7301,10.9197,10.3941],[-83.7331,10.9225,12.6501],[-83.7304,10.9269,24.9732],[-83.73,10.9301,9.1472],[-83.7315,10.9323,23.5672],[-83.7453,10.9405,13.3048],[-83.7628,10.9573,13.1064],[-83.805,11.0217,18.0458],[-83.8138,11.0307,16.3126],[-83.8285,11.0411,7.9924],[-83.8413,11.0421,13.8385],[-83.8658,11.0475,1.4509],[-83.8749,11.0443,14.3867],[-83.8834,11.0375,10.7249],[-83.8869,11.0389,13.2891],[-83.8935,11.0479,13.0107],[-83.8922,11.0587,12.018],[-83.8932,11.0619,13.2519],[-83.9035,11.0773,12.9386],[-83.9004,11.0991,18.4902],[-83.9014,11.1025,19.1667],[-83.9051,11.1041,23.5418],[-83.908,11.1103,25.8265],[-83.9156,11.1109,26.9587],[-83.9273,11.1007,22.46],[-83.9377,11.1067,25.1299],[-83.9432,11.1037,35.0302],[-83.9483,11.1043,27.1202],[-83.9493,11.1011,20.0913],[-83.948,11.0971,29.974],[-83.9576,11.0943,32.5052],[-83.9634,11.0943,22.3611],[-83.9663,11.0917,31.109],[-83.9691,11.0957,34.302],[-83.9738,11.0963,38.3883],[-83.9786,11.0945,39.9904],[-83.9814,11.0995,42.7073],[-83.9844,11.0991,30.7113],[-83.9955,11.0871,106.6131],[-84.0041,11.0881,35.7602],[-84.0107,11.0825,30.1891],[-84.0273,11.0791,44.9188],[-84.0295,11.0761,26.6458],[-84.0345,11.0743,50.9477],[-84.0448,11.0811,59.3766],[-84.0525,11.0935,52.1308],[-84.0575,11.1117,95.613],[-84.0519,11.1151,47.279],[-84.0508,11.1187,61.5631],[-84.0528,11.1207,42.0267],[-84.0627,11.1191,87.8171],[-84.0648,11.1229,132.8622],[-84.0671,11.1237,161.2124],[-84.07,11.1231,145.0548],[-84.0765,11.1177,80.7213],[-84.0859,11.1149,79.6111],[-84.0921,11.1137,96.4128],[-84.1001,11.1155,81.1646],[-84.1147,11.0857,496.2306],[-84.1171,11.0787,558.231],[-84.117,11.0701,358.9526],[-84.115,11.0649,254.9302],[-84.1067,11.0561,168.6203],[-84.0797,11.0421,52.9815],[-84.0779,11.0331,149.237],[-84.0792,11.0287,145.7839],[-84.0838,11.0229,110.913],[-84.0953,11.0177,150.3051],[-84.105,11.0157,90.7682],[-84.1103,11.0125,110.0105],[-84.1108,11.0035,197.1458],[-84.1084,10.9989,244.0411],[-84.1051,10.9965,248.2935],[-84.0805,10.9859,86.3962],[-84.0767,10.9803,65.1254],[-84.0779,10.9765,56.1431],[-84.0837,10.9699,102.6293],[-84.0901,10.9659,71.4633],[-84.1029,10.9617,69.3822],[-84.1292,10.9579,132.491],[-84.1336,10.9515,92.2594],[-84.1314,10.9415,99.8735],[-84.1179,10.9234,252.7218],[-84.1178,10.9179,257.3433],[-84.1214,10.9121,244.9408],[-84.1348,10.9033,310.2935],[-84.1424,10.8923,207.6946],[-84.1482,10.8759,158.3078],[-84.1529,10.8411,65.8842],[-84.1495,10.8339,88.5964],[-84.1404,10.8275,84.8685],[-84.1354,10.8203,57.5419],[-84.1413,10.8165,46.2056],[-84.1435,10.8125,36.7426],[-84.138,10.7971,54.7329],[-84.1338,10.7963,54.1821],[-84.1313,10.7918,45.3168],[-84.1314,10.7881,37.7224],[-84.137,10.7871,17.0],[-84.1333,10.785,17.7599],[-84.1324,10.7719,25.8918],[-84.1273,10.7653,23.9228],[-84.1216,10.7638,17.0],[-84.1146,10.7659,17.0495],[-84.1072,10.7739,16.5],[-84.1022,10.7739,16.7756],[-84.0829,10.7589,23.0886],[-84.0709,10.7598,16.153],[-84.062,10.7639,15.0],[-84.0618,10.7729,17.8493],[-84.0557,10.7782,16.2113],[-84.0487,10.7778,15.4563],[-84.0426,10.7712,16.231],[-84.0358,10.7713,15.9444],[-84.0322,10.7799,18.0992],[-84.0311,10.7883,15.0315],[-84.028,10.7916,16.1195],[-84.0245,10.7926,14.0],[-84.0198,10.7903,15.842],[-84.0149,10.7845,13.3412],[-84.0146,10.7791,15.7977],[-84.0093,10.7731,15.1446],[-84.0053,10.7644,13.0],[-83.9981,10.7599,28.3708],[-83.9939,10.7592,13.0],[-83.991,10.7545,18.9082],[-83.9835,10.7495,13.3652],[-83.9722,10.7453,15.9101],[-83.9677,10.7293,14.3527],[-83.9551,10.724,17.7891],[-83.9391,10.7218,14.4869],[-83.9364,10.7192,14.9926],[-83.9368,10.7144,12.7453]]]]}
,"properties": {"GID_2": "NIC.17.4_1","GID_0": "NIC","country": "Nicaragua","GID_1": "NIC.17_1","province": "RíoSanJuan","NL_NAME_1": "NA","county": "SanJuandelNorte","VARNAME_2": "NA","NL_NAME_2": "NA","TYPE_2": "Municipio","ENGTYPE_2": "Municipality","CC_2": "NA","HASC_2": "NI.SJ.SJ","name": "San_Juandel_Norte.county","area_km2": 1569.896,"hist_schema_id": "Elevation0-9000","hist_area_km2": {"0": 126.939,"25": 516.256,"50": 348.647,"75": 181.862,"100": 130.66,"125": 95.414,"150": 59.023,"175": 37.705,"200": 27.254,"225": 16.802,"250": 10.452,"275": 6.183,"300": 4.164,"325": 2.873,"350": 1.645,"375": 0.874,"400": 0.562,"425": 0.583,"450": 0.395,"475": 0.27,"500": 0.312,"525": 0.166,"550": 0.354,"575": 0.229,"600": 0.229,"625": 0.042}}}