{"type":"Feature","properties":{"GID_1":"NIC.14_1","GID_0":"NIC","country":"Nicaragua","province":"Masaya","VARNAME_1":"NA","NL_NAME_1":"NA","TYPE_1":"Departamento","ENGTYPE_1":"Department","CC_1":"NA","HASC_1":"NI.MS","ISO_1":"NI-MS","name":"Masaya.province"},
"geometry":{"type": "MultiPolygon","coordinates": [[[[-86.095,11.8377,301.0451],[-86.0854,11.8288,272.1503],[-86.0725,11.8711,349.5749],[-86.0611,11.889099999999999,375.9113],[-86.049,11.9044,81.7213],[-86.0451,11.9064,73.0],[-86.0451,11.9098,73.0],[-86.0429,11.9102,73.0],[-86.0406,11.9173,73.0],[-86.0403,11.922,73.0],[-86.0249,11.9252,73.0],[-86.0236,11.9331,73.0],[-86.016,11.9483,204.5909],[-86.0013,11.9646,130.9357],[-85.9687,12.0097,40.7181],[-85.9686,12.0461,34.8861],[-85.9671,12.0532,36.1595],[-85.9749,12.0518,35.74],[-85.977,12.0536,36.015],[-85.9769,12.0571,36.8438],[-85.976,12.0621,35.2867],[-85.9643,12.0731,33.109],[-85.9663,12.075,32.3995],[-85.9789,12.0734,31.9432],[-85.9834,12.0765,32.1915],[-85.9839,12.0828,33.0428],[-85.9818,12.0915,31.0],[-85.9834,12.0972,31.0],[-85.9874,12.1028,31.0],[-85.9863,12.107,32.0985],[-86.0073,12.1312,33.862],[-86.0227,12.1352,34.78],[-86.0349,12.1403,36.8155],[-86.0489,12.138,47.304],[-86.0684,12.1262,82.4735],[-86.073,12.125,91.6064],[-86.0789,12.1241,101.8306],[-86.098,12.1256,104.3612],[-86.1185,12.12,84.2116],[-86.1273,12.1113,79.9107],[-86.1383,12.0938,98.1577],[-86.1675,12.0845,126.0323],[-86.1841,12.0589,175.7036],[-86.1991,12.041,236.2666],[-86.1935,12.0337,259.3109],[-86.1732,12.0147,300.4017],[-86.1653,12.0043,299.7152],[-86.183,11.975,512.2544],[-86.2268,11.9559,692.0311],[-86.2609,11.9859,640.1531],[-86.284,11.9511,828.6245],[-86.2757,11.9482,812.5763],[-86.2599,11.9382,734.7579],[-86.2503,11.9341,670.4594],[-86.2067,11.923,532.7261],[-86.1974,11.9185,516.726],[-86.1945,11.9142,525.7196],[-86.1919,11.9032,531.0438],[-86.1876,11.8966,516.843],[-86.1597,11.8843,478.5104],[-86.1569,11.8817,486.8374],[-86.1538,11.8605,485.4159],[-86.1486,11.8539,479.7331],[-86.137,11.8473,456.9509],[-86.095,11.8377,301.0451]]]]}}