{"type":"Feature","properties":{"ISO3166-1-Alpha-3":"NIC","country":"Nicaragua","fill":"#FF0","id":"660","name":"Masaya"},
"geometry":{"type": "Polygon","coordinates": [[[-86.00051,12.14381,33.2968],[-86.01836,12.14833,35.6389],[-86.02379,12.15125,35.1096],[-86.02557,12.15189,36.2911],[-86.02872,12.15228,35.6498],[-86.04575,12.14996,39.6077],[-86.08004,12.13631,90.767],[-86.10903,12.13128,88.138],[-86.12711,12.11797,74.8036],[-86.18791,12.05906,178.5003],[-86.18466,12.04632,211.3117],[-86.17016,12.03172,274.7194],[-86.16476,12.02423,300.6353],[-86.16205,12.01831,279.1226],[-86.16337,11.99604,377.2682],[-86.1745,11.97824,410.0884],[-86.18016,11.97167,476.9362],[-86.18636,11.96601,452.9318],[-86.19432,11.96175,446.2207],[-86.20367,11.95922,480.3825],[-86.21155,11.9585,509.6067],[-86.22344,11.96162,635.6675],[-86.23039,11.96477,504.8007],[-86.25775,11.98552,632.4859],[-86.28142,11.957,788.9849],[-86.27052,11.94423,767.4567],[-86.17908,11.90798,471.3748],[-86.14975,11.89436,465.5833],[-86.1366,11.87648,489.8122],[-86.1343,11.87403,486.8447],[-86.08112,11.8585,320.7434],[-86.07247,11.85618,315.5006],[-86.05335,11.89772,375.0421],[-86.04384,11.91839,73.0],[-86.04035,11.92589,73.0],[-86.00446,12.0041,78.126],[-85.96405,12.09138,32.3325],[-85.96731,12.1067,31.2037],[-86.00051,12.14381,33.2968]]]}}