{"type":"Feature","properties":{"GID_2":"NIC.7.6_1","GID_0":"NIC","country":"Nicaragua","GID_1":"NIC.7_1","province":"Estelí","NL_NAME_1":"NA","county":"SanNicolás","VARNAME_2":"NA","NL_NAME_2":"NA","TYPE_2":"Municipio","ENGTYPE_2":"Municipality","CC_2":"NA","HASC_2":"NI.ES.SN","name":"San_Nicolás.county"},
"geometry":{"type": "MultiPolygon","coordinates": [[[[-86.4137,12.976,784.0164],[-86.418,12.9618,741.9102],[-86.4308,12.9406,817.4255],[-86.4373,12.9233,988.7469],[-86.4367,12.9139,1006.8627],[-86.4334,12.9047,999.563],[-86.4221,12.8917,644.9622],[-86.3525,12.861,571.6882],[-86.292,12.8481,1033.5974],[-86.2752,12.8476,899.1945],[-86.2721,12.8491,902.9393],[-86.2663,12.8951,854.4154],[-86.2635,12.9022,1117.908],[-86.2596,12.9062,1121.6226],[-86.2723,12.9131,1118.5054],[-86.2772,12.9239,1214.0452],[-86.2802,12.9262,1311.6658],[-86.2877,12.9298,1245.7358],[-86.3008,12.9327,1269.8357],[-86.3072,12.9371,1289.8597],[-86.3116,12.9455,1111.6804],[-86.3167,12.9662,947.9124],[-86.3601,12.9855,1309.3224],[-86.379,12.9914,1472.6385],[-86.4137,12.976,784.0164]]]]}}