{"type": "Feature","bbox": [-84.9488,13.858,-84.3335,14.249],"geometry": {"type": "MultiPolygon","coordinates": [[[[-84.3335,14.249,520.4619],[-84.364,14.2471,226.7299],[-84.3915,14.2488,107.262],[-84.4078,14.2465,110.2253],[-84.5024,14.2453,136.6177],[-84.5311,14.2416,142.0298],[-84.5585,14.2427,147.6463],[-84.581,14.2403,172.3103],[-84.6034,14.2409,117.4132],[-84.8501,14.1335,496.5817],[-84.8635,14.1291,678.8593],[-84.8507,14.0707,304.5639],[-84.9488,13.9158,698.6893],[-84.8949,13.9075,520.9968],[-84.8619,13.9046,325.6216],[-84.8262,13.8985,220.7275],[-84.7785,13.9028,306.8843],[-84.7584,13.907,496.5912],[-84.7418,13.9074,428.2038],[-84.7235,13.9122,419.9443],[-84.6904,13.9118,392.5992],[-84.6832,13.9136,405.9846],[-84.6707,13.9205,536.5898],[-84.663,13.9224,557.5476],[-84.5961,13.9078,329.3382],[-84.5802,13.9096,253.7572],[-84.5684,13.907,176.9516],[-84.5589,13.9012,96.6219],[-84.5076,13.858,179.862],[-84.5054,13.8604,282.6368],[-84.5037,13.8715,157.6126],[-84.5004,13.8776,60.458],[-84.479,13.8875,83.0262],[-84.4787,13.8924,71.48],[-84.4845,13.8977,64.6568],[-84.485,13.9012,45.7986],[-84.4805,13.9025,46.8096],[-84.4794,13.905,45.2058],[-84.4838,13.9097,63.4108],[-84.4793,13.9116,50.7026],[-84.4723,13.9085,60.9228],[-84.4652,13.9078,57.0085],[-84.4634,13.9093,48.2809],[-84.4638,13.9172,63.2548],[-84.4612,13.9199,52.722],[-84.4581,13.9213,50.359],[-84.4494,13.9207,50.5329],[-84.4482,13.9224,50.392],[-84.4487,13.9247,48.556399999999996],[-84.4543,13.9298,48.6523],[-84.4652,13.9337,76.4611],[-84.4696,13.9371,62.61],[-84.4811,13.9593,188.6028],[-84.4812,13.9628,160.0014],[-84.472,13.9781,144.5802],[-84.4696,13.988,230.9477],[-84.4428,13.99,127.9989],[-84.43,13.9928,109.867],[-84.4186,13.9974,150.4532],[-84.4105,14.0027,104.4271],[-84.406,14.0065,107.264],[-84.4026,14.0139,335.3227],[-84.3335,14.249,520.4619]]]]}
,"properties": {"GID_2": "NIC.1.1_1","GID_0": "NIC","country": "Nicaragua","GID_1": "NIC.1_1","province": "AtlánticoNorte","NL_NAME_1": "NA","county": "Bonanza","VARNAME_2": "NA","NL_NAME_2": "NA","TYPE_2": "Municipio","ENGTYPE_2": "Municipality","CC_2": "NA","HASC_2": "NI.AN.BO","name": "Bonanza.county","area_km2": 1792.295,"hist_schema_id": "Elevation0-9000","hist_area_km2": {"50": 9.22,"75": 32.796,"100": 130.268,"125": 309.246,"150": 198.323,"175": 120.731,"200": 104.041,"225": 93.024,"250": 82.296,"275": 76.601,"300": 76.482,"325": 76.65,"350": 77.908,"375": 66.615,"400": 61.658,"425": 52.769,"450": 43.202,"475": 35.301,"500": 28.882,"525": 23.965,"550": 19.295,"575": 16.703,"600": 13.699,"625": 10.408,"650": 8.948,"675": 6.829,"700": 5.616,"725": 4.32,"750": 2.777,"775": 1.831,"800": 0.905,"825": 0.597,"850": 0.144,"875": 0.123,"900": 0.082,"925": 0.041}}}