{"type":"Feature","properties":{"GID_2":"NIC.4.3_1","GID_0":"NIC","country":"Nicaragua","GID_1":"NIC.4_1","province":"Carazo","NL_NAME_1":"NA","county":"ElRosario","VARNAME_2":"NA","NL_NAME_2":"NA","TYPE_2":"Municipio","ENGTYPE_2":"Municipality","CC_2":"NA","HASC_2":"NI.CA.ER","name":"El_Rosario.county"},
"geometry":{"type": "MultiPolygon","coordinates": [[[[-86.1368,11.8137,390.4827],[-86.1357,11.823,408.5997],[-86.1322,11.8325,422.012],[-86.1299,11.837,415.5303],[-86.1211,11.8441,406.6029],[-86.137,11.8473,456.9509],[-86.1514,11.8564,490.3889],[-86.164,11.8585,510.568],[-86.1687,11.8572,512.4738],[-86.1749,11.8471,505.2036],[-86.1766,11.8408,499.1544],[-86.1774,11.8328,493.513],[-86.1739,11.8307,485.0746],[-86.1736,11.8209,458.8287],[-86.1492,11.8123,405.196],[-86.14,11.812,392.3417],[-86.1368,11.8137,390.4827]]]]}}