{"type": "Feature","bbox": [-86.5557,13.6712,-86.4599,13.8004],"geometry": {"type": "MultiPolygon","coordinates": [[[[-86.5476,13.8004,1429.127],[-86.5537,13.7745,1143.1572],[-86.5557,13.753,1168.8287],[-86.5517,13.7435,1157.2112],[-86.5367,13.7201,1239.4304],[-86.5313,13.7058,1392.9143],[-86.529,13.685,1038.0774],[-86.5304,13.6712,1011.4297],[-86.492,13.6837,744.3633],[-86.4682,13.7013,1066.9602],[-86.4599,13.7007,921.1337],[-86.4667,13.7334,1272.292],[-86.4687,13.759,1541.2935],[-86.4681,13.7737,1664.6205],[-86.4909,13.7683,1680.0093],[-86.4991,13.7692,1384.5295],[-86.5165,13.7763,1336.8569],[-86.5226,13.7811,1331.4775],[-86.5345,13.7979,1410.0151],[-86.5395,13.8,1367.6196],[-86.5476,13.8004,1429.127]]]]}
,"properties": {"GID_2": "NIC.16.3_1","GID_0": "NIC","country": "Nicaragua","GID_1": "NIC.16_1","province": "NuevaSegovia","NL_NAME_1": "NA","county": "Dipilto","VARNAME_2": "NA","NL_NAME_2": "NA","TYPE_2": "Municipio","ENGTYPE_2": "Municipality","CC_2": "NA","HASC_2": "NI.NS.DI","name": "Dipilto.county","area_km2": 89.0566,"hist_schema_id": "Elevation0-9000","hist_area_km2": {"725": 0.2678,"750": 0.45319,"775": 0.70038,"800": 0.80338,"825": 1.02996,"850": 1.21536,"875": 1.38014,"900": 1.75092,"925": 2.08045,"950": 2.61596,"975": 3.37802,"1000": 2.82181,"1025": 3.66621,"1050": 3.08941,"1075": 3.72785,"1100": 4.30448,"1125": 4.86052,"1150": 4.6751,"1175": 5.56075,"1200": 6.03442,"1225": 5.56077,"1250": 4.20139,"1275": 3.48064,"1300": 2.67739,"1325": 2.36847,"1350": 2.36843,"1375": 1.50339,"1400": 1.21507,"1425": 0.98856,"1450": 0.7208,"1475": 0.86497,"1500": 0.88556,"1525": 0.78256,"1550": 0.51486,"1575": 0.70021,"1600": 0.65902,"1625": 1.13266,"1650": 1.37977,"1675": 1.11205,"1700": 0.6178,"1725": 0.32951,"1750": 0.28832,"1775": 0.14416,"1800": 0.06178,"1825": 0.06178,"1850": 0.02059}}}