{"type":"Feature","properties":{"GID_2":"NIC.15.11_1","GID_0":"NIC","country":"Nicaragua","GID_1":"NIC.15_1","province":"Matagalpa","NL_NAME_1":"NA","county":"Sébaco","VARNAME_2":"NA","NL_NAME_2":"NA","TYPE_2":"Municipio","ENGTYPE_2":"Municipality","CC_2":"NA","HASC_2":"NI.MT.SE","name":"Sébaco.county"},
"geometry":{"type": "MultiPolygon","coordinates": [[[[-86.1399,12.9949,517.1602],[-86.1365,12.986,587.0941],[-86.1245,12.9864,624.8236],[-86.1107,12.9748,490.6393],[-86.1109,12.964,533.4924],[-86.109,12.9563,578.5184],[-86.1148,12.9526,518.5052],[-86.1163,12.9475,522.4644],[-86.1229,12.9431,513.0155],[-86.1276,12.9354,504.1748],[-86.1339,12.9315,464.4741],[-86.1317,12.9179,468.8852],[-86.1343,12.9087,464.6191],[-86.1329,12.9064,464.582],[-86.1274,12.9059,465.1505],[-86.1286,12.8877,460.1331],[-86.1305,12.8867,460.1302],[-86.1381,12.8898,455.3262],[-86.1409,12.8877,456.7948],[-86.1413,12.8844,457.5715],[-86.1385,12.8795,458.5467],[-86.1424,12.8756,457.2506],[-86.1367,12.8671,457.3901],[-86.1367,12.8642,455.9496],[-86.1386,12.8621,455.0353],[-86.1473,12.8625,459.724],[-86.1538,12.8514,452.2909],[-86.1598,12.8465,450.3078],[-86.1636,12.8339,448.3654],[-86.1634,12.8206,448.3857],[-86.1179,12.8069,462.7049],[-86.0813,12.8037,593.3568],[-86.0342,12.8132,758.1649],[-86.0185,12.8057,821.5356],[-85.9949,12.789,1190.0468],[-85.9483,12.815,817.7982],[-85.9582,12.8301,704.796],[-85.9693,12.8424,915.5266],[-85.9774,12.8497,812.9379],[-85.9851,12.8538,695.0101],[-86.0248,12.8462,618.7672],[-86.0365,12.8503,580.9702],[-86.0293,12.8878,539.6676],[-86.0604,12.8907,602.1603],[-86.0737,12.941,544.3816],[-86.0338,12.987,1012.5513],[-86.0362,12.9993,993.2244],[-86.0414,13.0137,905.7533],[-86.0474,13.0215,800.5264],[-86.054,13.0258,684.2342],[-86.0625,13.0285,646.0068],[-86.0771,13.0298,693.1886],[-86.0814,13.0248,892.3295],[-86.0915,13.0291,642.5734],[-86.0998,13.0275,633.2365],[-86.1106,13.0306,698.4575],[-86.1144,13.0262,647.1611],[-86.1267,13.0236,545.6809],[-86.1335,13.0124,538.9929],[-86.1375,13.0093,504.3593],[-86.1449,13.0075,576.9919],[-86.145,13.0044,584.2181],[-86.1402,12.9991,516.5431],[-86.1399,12.9949,517.1602]]]]}}