{"type":"Feature","properties":{"GID_2":"NIC.13.5_1","GID_0":"NIC","country":"Nicaragua","GID_1":"NIC.13_1","province":"Managua","NL_NAME_1":"NA","county":"SanRafaeldelSur","VARNAME_2":"NA","NL_NAME_2":"NA","TYPE_2":"Municipio","ENGTYPE_2":"Municipality","CC_2":"NA","HASC_2":"NI.MN.SR","name":"San_Rafaeldel_Sur.county"},
"geometry":{"type": "MultiPolygon","coordinates": [[[[-86.3739,11.813,158.5091],[-86.3711,11.8246,205.7464],[-86.3659,11.8372,245.6349],[-86.3282,11.889,502.5997],[-86.3471,11.8953,445.149],[-86.3844,11.9108,322.201],[-86.4236,11.9382,309.6004],[-86.4305,11.9455,293.1433],[-86.4337,11.9543,300.8186],[-86.4394,11.9411,247.8259],[-86.4503,11.9267,220.2836],[-86.4599,11.9228,183.7719],[-86.4706,11.9213,166.9841],[-86.4799,11.914,146.5787],[-86.4927,11.914,151.958],[-86.498,11.9097,132.7408],[-86.5007,11.9093,129.2204],[-86.5089,11.912,119.0118],[-86.5262,11.9058,83.9147],[-86.5319,11.9072,103.0977],[-86.5463,11.9208,75.1307],[-86.5656,11.9209,52.0352],[-86.5716,11.9171,45.0788],[-86.5756,11.9117,43.8915],[-86.5816,11.9094,49.883],[-86.5871,11.9031,25.2361],[-86.5866,11.8972,25.1295],[-86.5754,11.8816,11.7025],[-86.5748,11.8757,12.1409],[-86.5768,11.8715,0.0],[-86.5479,11.8424,3.1792],[-86.521,11.8068,1.8921],[-86.5201,11.8046,14.2669],[-86.5218,11.8018,0.0],[-86.5188,11.7979,14.8886],[-86.5168,11.7893,0.0],[-86.5176,11.7829,0.0],[-86.5207,11.7832,0.0],[-86.5179,11.776,0.0],[-86.5143,11.776,8.0528],[-86.5032,11.769,18.1267],[-86.4924,11.7571,0.0],[-86.4885,11.7557,4.4066],[-86.4424,11.7207,3.4312],[-86.4407,11.721,3.4312],[-86.4393,11.7185,0.0],[-86.4302,11.7235,11.2497],[-86.4284,11.729,20.127],[-86.4311,11.7366,21.706],[-86.4358,11.7421,26.2463],[-86.436,11.7512,61.5316],[-86.4405,11.7575,37.6589],[-86.4357,11.7671,44.8117],[-86.4179,11.782,72.3051],[-86.4101,11.786,75.1562],[-86.3941,11.7904,99.2893],[-86.376,11.8124,143.7307],[-86.3739,11.813,158.5091]]]]}}