{"type": "Feature","bbox": [-87.0086,12.4729,-86.8864,12.6376],"geometry": {"type": "MultiPolygon","coordinates": [[[[-87.0086,12.4897,31.9891],[-87.0043,12.4875,34.401],[-86.9927,12.4871,39.5189],[-86.9827,12.4895,42.5994],[-86.962,12.4989,55.9759],[-86.9315,12.5036,74.0097],[-86.9222,12.5007,79.6138],[-86.915,12.4956,85.8385],[-86.902,12.4742,82.16],[-86.8951,12.4729,87.5589],[-86.8879,12.4742,93.8221],[-86.8864,12.506,101.9825],[-86.892,12.5442,135.7637],[-86.8898,12.5986,267.9525],[-86.8991,12.6376,249.472],[-86.9107,12.6207,253.2589],[-86.9239,12.6109,220.8074],[-86.9347,12.6059,191.0884],[-86.9398,12.5999,178.4713],[-86.9386,12.5579,117.1548],[-86.9407,12.5404,92.0221],[-86.9473,12.5253,74.4747],[-86.9538,12.5188,67.1657],[-86.9794,12.5054,50.6804],[-86.9844,12.5003,44.8518],[-87.0086,12.4897,31.9891]]]]}
,"properties": {"GID_2": "NIC.11.8_1","GID_0": "NIC","country": "Nicaragua","GID_1": "NIC.11_1","province": "León","NL_NAME_1": "NA","county": "Quezalguaque","VARNAME_2": "NA","NL_NAME_2": "NA","TYPE_2": "Municipio","ENGTYPE_2": "Municipality","CC_2": "NA","HASC_2": "NI.LE.QU","name": "Quezalguaque.county","area_km2": 88.57878,"hist_schema_id": "Elevation0-9000","hist_area_km2": {"25": 0.53821,"50": 6.74808,"75": 15.33784,"100": 21.56759,"125": 10.55472,"150": 7.88449,"175": 7.6151,"200": 6.0629,"225": 6.55925,"250": 4.96575,"275": 0.74485}}}