{"type":"Feature","properties":{"GID_1":"NIC.13_1","GID_0":"NIC","country":"Nicaragua","province":"Managua","VARNAME_1":"NA","NL_NAME_1":"NA","TYPE_1":"Departamento","ENGTYPE_1":"Department","CC_1":"NA","HASC_1":"NI.MN","ISO_1":"NI-MN","name":"Managua.province"},
"geometry":{"type": "MultiPolygon","coordinates": [[[[-86.381,11.8049,132.889],[-86.376,11.8124,143.7307],[-86.3739,11.813,158.5091],[-86.3711,11.8246,205.7464],[-86.3659,11.8372,245.6349],[-86.284,11.9511,828.6245],[-86.2609,11.9859,640.1531],[-86.2268,11.9559,692.0311],[-86.183,11.975,512.2544],[-86.1653,12.0043,299.7152],[-86.1732,12.0147,300.4017],[-86.1935,12.0337,259.3109],[-86.1991,12.041,236.2666],[-86.1841,12.0589,175.7036],[-86.1675,12.0845,126.0323],[-86.1383,12.0938,98.1577],[-86.1273,12.1113,79.9107],[-86.1201,12.1187,83.1552],[-86.1151,12.1214,96.8135],[-86.098,12.1256,104.3612],[-86.0789,12.1241,101.8306],[-86.073,12.125,91.6064],[-86.0684,12.1262,82.4735],[-86.0489,12.138,47.304],[-86.0373,12.1406,37.5234],[-86.0073,12.1312,33.862],[-85.9943,12.1302,32.6756],[-85.9787,12.1348,33.3769],[-85.9675,12.1403,38.8409],[-85.923,12.1534,39.9567],[-85.9106,12.1621,41.1417],[-85.9059,12.1685,41.6266],[-85.9042,12.1794,43.1511],[-85.8908,12.1902,45.0293],[-85.8867,12.1869,44.0585],[-85.872,12.1867,42.5479],[-85.8671,12.1798,40.3211],[-85.8498,12.1739,41.7607],[-85.8496,12.1801,43.8301],[-85.8521,12.1902,43.9189],[-85.8505,12.1948,49.8286],[-85.8424,12.1991,43.0392],[-85.8481,12.2052,45.1674],[-85.8487,12.2087,45.1539],[-85.8278,12.2412,51.552],[-85.8682,12.2754,59.5152],[-85.9059,12.3034,81.6922],[-85.9249,12.3235,87.5037],[-85.9301,12.3316,99.4474],[-85.9306,12.3344,99.4008],[-85.9272,12.3424,185.1809],[-85.9227,12.3606,119.0],[-85.912,12.3701,119.0],[-85.9132,12.3733,120.9726],[-85.921,12.3779,119.0],[-85.9239,12.3906,232.7027],[-85.9272,12.394,311.6906],[-85.9372,12.3964,388.8542],[-85.9424,12.4006,363.8582],[-85.9636,12.4348,363.5426],[-85.9751,12.4429,424.8442],[-85.9789,12.4554,393.9336],[-85.9777,12.4574,458.2183],[-85.9747,12.4576,407.1664],[-85.9732,12.4604,336.6339],[-85.9793,12.4736,285.3969],[-85.986,12.4835,410.6794],[-85.9858,12.487,430.9123],[-85.9804,12.4875,322.5597],[-85.9785,12.4892,288.2444],[-85.9814,12.4955,354.3578],[-85.9784,12.5022,410.7019],[-85.9725,12.5074,419.5777],[-86.0102,12.5189,573.6605],[-86.0467,12.5374,434.2963],[-86.0655,12.5439,518.2053],[-86.0788,12.555,493.1729],[-86.098,12.5769,494.8777],[-86.1189,12.5905,492.5026],[-86.1359,12.595,461.8319],[-86.1432,12.5929,324.2549],[-86.1488,12.5893,357.594],[-86.1564,12.5892,250.335],[-86.1842,12.613,745.0942],[-86.1964,12.6182,757.4409],[-86.225,12.6257,747.7214],[-86.2363,12.6265,634.3608],[-86.2641,12.6244,324.7677],[-86.2837,12.631,156.4883],[-86.3096,12.6264,164.5858],[-86.321,12.6221,119.8143],[-86.3267,12.6162,88.7857],[-86.3318,12.6058,82.6545],[-86.3505,12.5945,68.2359],[-86.3547,12.5836,63.9564],[-86.3587,12.5781,58.902],[-86.362,12.56,55.6334],[-86.3696,12.5463,53.0623],[-86.3705,12.5367,56.8328],[-86.3748,12.5312,51.6177],[-86.3698,12.5219,51.9704],[-86.371,12.5203,48.3312],[-86.378,12.5196,52.9152],[-86.3782,12.5167,50.11],[-86.3698,12.5139,49.3092],[-86.375,12.507,45.348],[-86.3671,12.4953,47.1328],[-86.3526,12.4904,48.1942],[-86.3519,12.4883,43.639],[-86.3571,12.4809,40.329],[-86.3532,12.4751,41.1959],[-86.3538,12.4729,40.0441],[-86.3595,12.4693,40.0],[-86.3572,12.4643,40.0],[-86.3594,12.4625,40.0],[-86.3693,12.4674,40.0],[-86.3787,12.4696,40.0],[-86.409,12.4592,40.0],[-86.4113,12.456,40.0],[-86.4402,12.4504,40.0],[-86.459,12.4419,40.0],[-86.4738,12.4308,41.7346],[-86.478,12.4254,42.0493],[-86.4901,12.3979,40.0],[-86.4938,12.3928,40.0],[-86.5008,12.3868,40.0],[-86.5119,12.3819,40.0],[-86.5404,12.3835,40.0],[-86.5564,12.3921,40.0],[-86.5885,12.4045,40.0],[-86.5927,12.4081,40.0],[-86.5917,12.4104,40.0],[-86.5853,12.4112,40.0],[-86.5845,12.4141,42.8086],[-86.588,12.4205,40.0],[-86.5911,12.4227,40.0],[-86.5961,12.4227,41.1555],[-86.6064,12.417,41.1066],[-86.6207,12.4037,60.4594],[-86.621,12.3994,67.9365],[-86.619,12.3953,56.9258],[-86.6132,12.3877,44.7975],[-86.6189,12.3621,56.1874],[-86.6186,12.3578,94.0539],[-86.6059,12.3394,57.7472],[-86.5992,12.3173,52.4206],[-86.5897,12.3116,46.8761],[-86.5736,12.3106,40.0],[-86.5531,12.3051,45.8845],[-86.5385,12.2972,40.0],[-86.5318,12.291,49.268],[-86.5437,12.254,104.7058],[-86.5382,12.2168,152.3279],[-86.546,12.1958,186.2023],[-86.5451,12.1918,175.0245],[-86.542,12.19,180.7911],[-86.5208,12.1843,226.0429],[-86.5137,12.1759,227.5049],[-86.5135,12.1677,220.38],[-86.5202,12.1543,163.9274],[-86.5178,12.1396,171.7897],[-86.5209,12.1366,170.2539],[-86.5378,12.1302,113.799],[-86.5469,12.1163,100.2067],[-86.5669,12.108,81.0208],[-86.5834,12.0968,74.9263],[-86.5962,12.0826,54.3585],[-86.6323,12.0894,52.1246],[-86.6356,12.0889,59.5444],[-86.6501,12.0806,23.2094],[-86.6574,12.0806,30.0868],[-86.6635,12.0778,30.5459],[-86.6681,12.0706,24.501],[-86.6684,12.067,35.5784],[-86.6568,12.0381,35.1975],[-86.6558,12.0311,44.1406],[-86.657,12.0263,34.6981],[-86.6658,12.0174,25.4655],[-86.6834,12.0057,4.7665],[-86.669,11.9926,4.6717],[-86.6643,11.9932,0.5498],[-86.6651,11.9904,0.0],[-86.6637,11.9879,0.4816],[-86.6385,11.9629,0.0],[-86.6243,11.9412,0.6848],[-86.6215,11.9412,3.4957],[-86.6226,11.9388,0.5747],[-86.6171,11.929,9.9712],[-86.6171,11.9254,8.9549],[-86.6185,11.9243,2.8663],[-86.6176,11.921,12.7916],[-86.6196,11.9196,8.196],[-86.6176,11.9151,9.4999],[-86.6201,11.9107,0.0],[-86.6185,11.9107,2.1412],[-86.6157,11.9071,2.3379],[-86.6162,11.9051,0.0],[-86.5835,11.8771,3.8865],[-86.5815,11.8774,6.7384],[-86.5818,11.8757,1.3895],[-86.5604,11.856,1.5577],[-86.5357,11.8274,1.2252],[-86.5343,11.8235,0.0],[-86.5201,11.8049,14.2669],[-86.5218,11.8018,0.0],[-86.5185,11.7971,14.8886],[-86.5168,11.7868,0.0],[-86.5176,11.7829,0.0],[-86.5207,11.7824,0.0],[-86.5179,11.776,0.0],[-86.5143,11.776,8.0528],[-86.5032,11.769,18.1267],[-86.4924,11.7571,0.0],[-86.4885,11.7557,4.4066],[-86.4424,11.7207,3.4312],[-86.4407,11.721,3.4312],[-86.4393,11.7185,0.0],[-86.4302,11.7235,11.2497],[-86.4284,11.729,20.127],[-86.4311,11.7366,21.706],[-86.4358,11.7421,26.2463],[-86.436,11.7512,61.5316],[-86.4405,11.7575,37.6589],[-86.4357,11.7671,44.8117],[-86.4179,11.782,72.3051],[-86.4101,11.786,75.1562],[-86.3941,11.7904,99.2893],[-86.381,11.8049,132.889]],
[[-86.4835,12.3418,40.0],[-86.4868,12.3496,40.0],[-86.4873,12.357,40.0],[-86.4807,12.3604,40.0],[-86.4697,12.3577,97.7347],[-86.4672,12.3523,51.3168],[-86.4685,12.3507,105.6514],[-86.4795,12.3407,40.0],[-86.4817,12.3401,40.0],[-86.4835,12.3418,40.0]]]]}}