{"type":"Feature","properties":{"ISO3166-1-Alpha-3":"NIC","country":"Nicaragua","fill":"#000","id":"659","name":"Managua"},
"geometry":{"type": "Polygon","coordinates": [[[-85.97227,12.52208,585.4237],[-85.98852,12.52526,492.2002],[-86.05032,12.54859,446.133],[-86.06001,12.55505,476.6731],[-86.07094,12.56378,490.5505],[-86.08621,12.58065,526.6479],[-86.10115,12.59412,465.2422],[-86.1189,12.59962,532.8718],[-86.28881,12.63646,163.1901],[-86.32834,12.61262,91.1444],[-86.34255,12.59926,74.3845],[-86.35098,12.58812,65.6575],[-86.35372,12.58236,64.1545],[-86.35488,12.57735,62.5023],[-86.35462,12.57381,61.8786],[-86.35633,12.56352,56.9981],[-86.35633,12.55988,57.785],[-86.35581,12.55701,57.6769],[-86.35609,12.55241,56.1576],[-86.35741,12.54611,55.4508],[-86.36346,12.52851,51.1368],[-86.36441,12.52381,52.1262],[-86.36392,12.52102,50.7517],[-86.36214,12.5159,49.0978],[-86.36105,12.51353,48.021],[-86.35147,12.50012,45.2312],[-86.35118,12.49981,45.2312],[-86.34529,12.49469,47.0544],[-86.34405,12.49283,46.3486],[-86.34328,12.4903,40.8754],[-86.34312,12.48394,41.7633],[-86.34258,12.48071,42.0076],[-86.34142,12.47691,40.0],[-86.34281,12.47384,40.0],[-86.34684,12.46911,40.0],[-86.44415,12.37488,40.0],[-86.51092,12.30886,40.0],[-86.52484,12.28974,40.947],[-86.52642,12.27419,95.8497],[-86.52655,12.20326,225.5072],[-86.52523,12.19652,219.6892],[-86.52252,12.19063,224.0893],[-86.51836,12.18722,227.1519],[-86.51334,12.18432,229.1857],[-86.50691,12.17688,213.5555],[-86.50552,12.15892,182.186],[-86.51825,12.13112,134.8231],[-86.53771,12.109,103.1962],[-86.57546,12.08076,65.6605],[-86.58109,12.078,62.4577],[-86.58404,12.07789,62.3769],[-86.5982,12.08084,52.78],[-86.61246,12.08611,42.5174],[-86.61427,12.08639,42.5382],[-86.61685,12.0865,44.0692],[-86.61964,12.08619,43.5823],[-86.62236,12.08549,68.8013],[-86.63734,12.08022,28.9195],[-86.6444,12.07875,29.8038],[-86.64804,12.07707,29.8117],[-86.65075,12.07534,22.6235],[-86.6522,12.07332,22.5872],[-86.65315,12.07087,21.5449],[-86.65328,12.068,21.4767],[-86.65284,12.06513,18.9373],[-86.65127,12.0597,17.5711],[-86.64434,12.04588,13.1063],[-86.63959,12.0403,14.2431],[-86.63838,12.03815,12.3301],[-86.63742,12.03459,12.4895],[-86.6375,12.03224,13.1331],[-86.63799,12.0296,11.7555],[-86.6423,12.02213,13.788],[-86.64584,12.01816,33.9828],[-86.6706,12.00061,1.3813],[-86.67072,12.00052,1.3813],[-86.66649,11.99531,1.8007],[-86.64188,11.97651,4.2069],[-86.63036,11.96491,11.3795],[-86.62548,11.951,4.8226],[-86.62222,11.9361,0.0],[-86.60521,11.90469,10.8871],[-86.58963,11.88284,1.1324],[-86.56326,11.85663,0.0],[-86.55321,11.85135,14.394],[-86.54239,11.84235,20.8762],[-86.51561,11.78311,7.0016],[-86.50234,11.76678,1.4183],[-86.50226,11.76685,1.4183],[-86.47717,11.79081,39.6695],[-86.4672,11.7968,49.3708],[-86.45929,11.79711,57.2291],[-86.45319,11.79791,62.3571],[-86.44177,11.80068,76.9519],[-86.43632,11.80272,81.7688],[-86.43242,11.80463,86.668],[-86.41994,11.81638,116.0542],[-86.40955,11.8314,171.7168],[-86.3825,11.85119,200.373],[-86.37521,11.85817,220.4908],[-86.35586,11.88925,403.1476],[-86.29328,11.93925,830.0045],[-86.28142,11.957,788.9849],[-86.25775,11.98552,632.4859],[-86.23039,11.96477,504.8007],[-86.22344,11.96162,635.6675],[-86.21155,11.9585,509.6067],[-86.20367,11.95922,480.3825],[-86.19432,11.96175,446.2207],[-86.18636,11.96601,452.9318],[-86.18016,11.97167,476.9362],[-86.1745,11.97824,410.0884],[-86.16337,11.99604,377.2682],[-86.16205,12.01831,279.1226],[-86.16476,12.02423,300.6353],[-86.17016,12.03172,274.7194],[-86.18466,12.04632,211.3117],[-86.18791,12.05906,178.5003],[-86.12711,12.11797,74.8036],[-86.10903,12.13128,88.138],[-86.08004,12.13631,90.767],[-86.04575,12.14996,39.6077],[-86.02872,12.15228,35.6498],[-86.02557,12.15189,36.2911],[-86.02379,12.15125,35.1096],[-86.01836,12.14833,35.6389],[-86.00051,12.14381,33.2968],[-85.91648,12.18083,43.9293],[-85.88506,12.20316,49.2156],[-85.87679,12.20618,49.7203],[-85.8693,12.20605,50.605],[-85.8515,12.19876,45.9421],[-85.8463,12.22631,47.3755],[-85.82982,12.25098,53.9274],[-85.82806,12.2568,58.9427],[-85.83021,12.26013,60.7168],[-85.91762,12.34113,221.213],[-85.92082,12.3464,193.1122],[-85.9225,12.35361,203.6273],[-85.9223,12.3703,119.0],[-85.92025,12.38994,187.8223],[-85.92144,12.39612,220.6422],[-85.92496,12.40165,151.0542],[-85.95015,12.42857,190.4111],[-85.96281,12.44526,217.5404],[-85.96963,12.45666,337.0089],[-85.97436,12.47087,261.9174],[-85.97836,12.50456,389.4562],[-85.97227,12.52208,585.4237]]]}}