{"type": "Feature","bbox": [-85.2909,11.9867,-84.8846,12.2809],"geometry": {"type": "MultiPolygon","coordinates": [[[[-85.16,11.994,97.7591],[-85.1547,12.0076,116.6857],[-85.1462,12.0198,278.6437],[-85.1437,12.0435,357.5476],[-85.14,12.0619,357.084],[-85.1322,12.0765,360.338],[-85.1244,12.079,402.1678],[-85.1044,12.09,359.387],[-85.0933,12.0981,311.4444],[-85.083,12.1106,357.483],[-85.0765,12.1151,367.2399],[-85.0528,12.1233,298.946],[-85.032,12.1369,376.0297],[-85.003,12.1389,503.1585],[-84.9717,12.1495,570.0793],[-84.9574,12.158,561.4551],[-84.9555,12.1656,430.9545],[-84.9592,12.1825,362.5776],[-84.9568,12.1928,338.9772],[-84.9488,12.1989,355.1544],[-84.9314,12.1987,342.313],[-84.9279,12.1996,291.0993],[-84.9236,12.2039,267.9785],[-84.9189,12.203,262.9641],[-84.9137,12.2052,251.691],[-84.9128,12.208,283.2621],[-84.9139,12.2122,267.3362],[-84.9087,12.2167,236.1255],[-84.9072,12.2209,225.1351],[-84.9059,12.2326,255.6515],[-84.8998,12.254,276.431],[-84.8972,12.2587,245.0887],[-84.8846,12.2652,255.9641],[-84.8848,12.2809,369.5732],[-84.9484,12.2716,283.1293],[-84.989,12.2633,266.0673],[-85.0389,12.2623,414.4001],[-85.0566,12.2568,462.3612],[-85.0879,12.2375,528.3917],[-85.1127,12.2261,520.3655],[-85.2166,12.1708,455.8543],[-85.2458,12.1583,657.5717],[-85.2651,12.1475,657.9724],[-85.2677,12.1257,414.0074],[-85.2741,12.0944,457.8049],[-85.2782,12.0828,388.9958],[-85.2909,12.0252,105.9261],[-85.2886,12.0253,100.5132],[-85.2818,12.0208,98.4728],[-85.2701,12.0052,132.3871],[-85.2623,11.9986,99.0334],[-85.2386,11.9895,166.2176],[-85.2059,11.9867,102.4242],[-85.1816,11.9912,91.394],[-85.1669,11.9915,93.5329],[-85.16,11.994,97.7591]]]]}
,"properties": {"GID_2": "NIC.6.5_1","GID_0": "NIC","country": "Nicaragua","GID_1": "NIC.6_1","province": "Chontales","NL_NAME_1": "NA","county": "SanPedrodeLóvago","VARNAME_2": "NA","NL_NAME_2": "NA","TYPE_2": "Municipio","ENGTYPE_2": "Municipality","CC_2": "NA","HASC_2": "NI.CO.SP","name": "San_Pedrode_Lóvago.county","area_km2": 635.3303,"hist_schema_id": "Elevation0-9000","hist_area_km2": {"75": 0.7051,"100": 11.5099,"125": 12.2146,"150": 10.493,"175": 9.6842,"200": 11.777,"225": 23.6298,"250": 39.1488,"275": 40.8478,"300": 43.5891,"325": 96.097,"350": 89.1506,"375": 59.3432,"400": 50.2003,"425": 36.2296,"450": 27.3581,"475": 17.4096,"500": 12.4976,"525": 9.2439,"550": 7.3166,"575": 8.063,"600": 5.7415,"625": 3.0471,"650": 1.907,"675": 1.8241,"700": 1.5547,"725": 1.7206,"750": 1.223,"775": 0.4768,"800": 0.4768,"825": 0.2695,"850": 0.1658,"875": 0.1865,"900": 0.1244,"925": 0.0622,"950": 0.0415}}}