{"type": "Feature","bbox": [-85.6763,11.9295,-85.4676,12.3161],"geometry": {"type": "MultiPolygon","coordinates": [[[[-85.6173,11.9312,31.0],[-85.6162,11.9295,31.0],[-85.612,11.9299,31.0],[-85.612799999999993,11.9351,31.0],[-85.617,11.9337,31.0],[-85.6173,11.9312,31.0]]],
[[[-85.6149,11.9417,31.0],[-85.6125,11.946,31.0],[-85.6142,11.9481,31.0],[-85.6188,11.9478,31.0],[-85.6196,11.9435,31.0],[-85.6184,11.9411,31.0],[-85.6149,11.9417,31.0]]],
[[[-85.6116,11.9757,31.0],[-85.6187,11.9727,31.0],[-85.6185,11.9651,31.0],[-85.6149,11.9612,31.0],[-85.6075,11.9701,31.0],[-85.6082,11.9758,31.0],[-85.6116,11.9757,31.0]]],
[[[-85.5607,12.3054,346.9236],[-85.5701,12.2989,226.7696],[-85.5821,12.2846,144.6228],[-85.5886,12.2716,150.8963],[-85.5927,12.2554,228.3555],[-85.5967,12.227,442.0289],[-85.5973,12.2098,307.2418],[-85.5989,12.2046,256.1049],[-85.6032,12.2003,213.2948],[-85.632,12.1857,217.2151],[-85.6351,12.1819,237.8099],[-85.6391,12.1721,358.3256],[-85.6416,12.1606,314.1319],[-85.6381,12.1416,73.1191],[-85.6394,12.1373,69.3794],[-85.6481,12.1252,49.0111],[-85.6606,12.1029,70.6528],[-85.6659,12.0886,35.442],[-85.6747,12.0789,37.4247],[-85.6763,12.0701,33.6775],[-85.669,12.0371,31.0],[-85.6632,12.0331,31.0],[-85.6527,12.0304,31.0],[-85.6517,12.0285,31.0],[-85.6531,12.0254,31.0],[-85.6597,12.0237,31.0],[-85.6613,12.0218,31.0],[-85.6594,12.0199,31.0],[-85.6466,12.0125,31.0],[-85.6397,12.0178,31.0],[-85.6305,12.0159,31.0],[-85.6261,12.0168,31.0],[-85.6077,12.026,31.0],[-85.5927,12.0241,31.0],[-85.5807,12.0178,31.0],[-85.5656,12.0064,31.0],[-85.5425,11.9785,31.0],[-85.5357,11.9825,31.0],[-85.5297,11.9935,31.2392],[-85.525,11.9983,33.0308],[-85.5184,12.013,37.8793],[-85.5139,12.0188,62.408],[-85.5019,12.0213,77.1189],[-85.4918,12.02,117.2067],[-85.487,12.0213,191.7177],[-85.4813,12.0254,239.5234],[-85.478,12.0345,220.0779],[-85.475,12.077,323.3155],[-85.468,12.1164,111.5565],[-85.4676,12.1363,155.072],[-85.4691,12.1463,192.2563],[-85.479,12.1742,201.5555],[-85.484,12.2006,198.6865],[-85.4784,12.2199,297.3701],[-85.4699,12.2327,228.4582],[-85.4769,12.2509,214.7405],[-85.4792,12.2678,291.4812],[-85.4785,12.2752,399.1231],[-85.4719,12.2959,300.8043],[-85.4699,12.3089,467.0182],[-85.4788,12.3113,461.2888],[-85.488,12.3161,451.1543],[-85.5054,12.3121,456.3829],[-85.5314,12.313,369.4558],[-85.5442,12.3116,201.8729],[-85.5607,12.3054,346.9236]]]]}
,"properties": {"GID_2": "NIC.6.2_1","GID_0": "NIC","country": "Nicaragua","GID_1": "NIC.6_1","province": "Chontales","NL_NAME_1": "NA","county": "Comalapa","VARNAME_2": "NA","NL_NAME_2": "NA","TYPE_2": "Municipio","ENGTYPE_2": "Municipality","CC_2": "NA","HASC_2": "NI.CO.CO","name": "Comalapa.county","area_km2": 558.6574,"hist_schema_id": "Elevation0-9000","hist_area_km2": {"25": 71.0428,"50": 36.3477,"75": 19.9453,"100": 19.1147,"125": 44.3394,"150": 44.6049,"175": 43.2134,"200": 35.7726,"225": 33.3266,"250": 31.3979,"275": 27.7289,"300": 24.3709,"325": 20.8476,"350": 19.8738,"375": 18.4642,"400": 14.6718,"425": 14.2781,"450": 13.139,"475": 9.4922,"500": 6.5495,"525": 3.3163,"550": 2.6948,"575": 2.3424,"600": 1.285,"625": 0.4974}}}