{"type": "Feature","bbox": [-83.335805017670936,14.224082765201445,-83.246907051277176,14.376269018928525],"geometry": {"type": "Polygon","coordinates": [[[-83.266923811922126,14.311214546832417,0.0],[-83.260889347315924,14.323577840171964,17.6653],[-83.26515762715934,14.337707318274283,13.6295],[-83.274577279227543,14.351836796376602,2.6019],[-83.291208852410492,14.370087372258752,11.0381],[-83.299156683843037,14.376269018928525,1.4972],[-83.3057798767035,14.375680290674268,2.496],[-83.308429153847683,14.363022633207606,0.0],[-83.3057798767035,14.358018443046348,0.0],[-83.292386308919,14.345949513833972,0.0],[-83.287382118757776,14.338590410655684,0.0],[-83.294888403999636,14.338590410655684,0.0],[-83.301217232732967,14.345655149706829,0.0],[-83.311372795119,14.351248068122345,0.0],[-83.335805017670936,14.359490263682034,2.209],[-83.335805017670936,14.352131160503717,0.0],[-83.320203718932959,14.333880584621568,0.0],[-83.315052346708157,14.322106019536307,0.0],[-83.314757982581014,14.305032900162672,0.0],[-83.3169657135345,14.302089258891357,0.0],[-83.321381175441488,14.297968161111498,0.0],[-83.325943819412018,14.292375242696011,0.0],[-83.328445914492647,14.283838683009179,0.0],[-83.328298732429076,14.275890851576634,0.0],[-83.32697409385699,14.26970920490686,0.0],[-83.322117085759317,14.256462819185941,0.0],[-83.310931248928313,14.250869900770425,0.0],[-83.306368604957768,14.251458629024711,0.0],[-83.301658778923667,14.256462819185941,0.0],[-83.287382118757776,14.24468825410068,0.0],[-83.27766810256243,14.230558775998361,0.0],[-83.267806904303512,14.224082765201445,0.0],[-83.253235880010507,14.236151694413849,3.6891],[-83.246907051277176,14.252930449660369,4.2365],[-83.247937325722134,14.272652846178175,3.4236],[-83.2550020647733,14.291197786187467,0.9766],[-83.266923811922126,14.305032900162672,0.0],[-83.266923811922126,14.311214546832417,0.0],[-83.266923811922126,14.311214546832417,0.0],[-83.266923811922126,14.311214546832417,0.0],[-83.266923811922126,14.311214546832417,0.0],[-83.266923811922126,14.311214546832417,0.0]]]}
,"properties": {"featurecla": "Lake","scalerank": 8,"name": "null187","name_abb": null,"name_alt": null,"note": "_untitled_19","delta": null,"dam_name": null,"year": -99,"admin": null,"min_zoom": 6.0,"min_label": 7.0,"area_km2": 90.93479,"hist_schema_id": "Elevation0-9000","hist_area_km2": {"0": 90.15417,"25": 0.78063}}}