{"type":"Feature","properties":{"GID_2":"NIC.14.2_1","GID_0":"NIC","country":"Nicaragua","GID_1":"NIC.14_1","province":"Masaya","NL_NAME_1":"NA","county":"LaConcepción","VARNAME_2":"NA","NL_NAME_2":"NA","TYPE_2":"Municipio","ENGTYPE_2":"Municipality","CC_2":"NA","HASC_2":"NI.MS.LC","name":"La_Concepción.county"},
"geometry":{"type": "MultiPolygon","coordinates": [[[[-86.1958,11.9171,516.726],[-86.1804,11.933,497.5693],[-86.1673,11.9495,428.4203],[-86.1275,11.9593,129.9343],[-86.1132,11.9601,123.0],[-86.1151,11.9727,123.0],[-86.1173,11.977,123.0],[-86.1165,11.9787,123.0],[-86.1729,11.9721,429.4082],[-86.183,11.975,512.2544],[-86.2268,11.9559,692.0311],[-86.2609,11.9859,640.1531],[-86.284,11.9511,828.6245],[-86.2757,11.9482,812.5763],[-86.2599,11.9382,734.7579],[-86.2503,11.9341,670.4594],[-86.2067,11.923,532.7261],[-86.1958,11.9171,516.726]]]]}}