{"type":"Feature","properties":{"GID_2":"NIC.1.7_1","GID_0":"NIC","country":"Nicaragua","GID_1":"NIC.1_1","province":"AtlánticoNorte","NL_NAME_1":"NA","county":"Waspán","VARNAME_2":"Waspam","NL_NAME_2":"NA","TYPE_2":"Municipio","ENGTYPE_2":"Municipality","CC_2":"NA","HASC_2":"NI.AN.WP","name":"Waspán.county"},
"geometry":{"type": "MultiPolygon","coordinates": [[[[-84.7921,14.8058,75.9096],[-84.7929,14.8095,83.5626],[-84.7984,14.8108,92.0324],[-84.803,14.8176,93.0986],[-84.8102,14.8177,84.9445],[-84.8197,14.8233,90.9903],[-84.8385,14.8197,129.7507],[-84.8601,14.807,115.1861],[-84.8682,14.8071,150.1866],[-84.8807,14.8102,109.2006],[-84.8874,14.8082,109.4795],[-84.899,14.8094,108.0344],[-84.9034,14.8077,104.1437],[-84.9122,14.7972,101.0027],[-84.9165,14.7858,139.7852],[-84.9264,14.7719,102.8125],[-84.9279,14.7679,92.5921],[-84.9271,14.7605,94.4684],[-84.9289,14.7579,92.9429],[-84.9399,14.7543,102.6992],[-84.9615,14.7513,103.7087],[-84.9772,14.7372,116.1638],[-84.9879,14.7346,92.778],[-84.9979,14.7223,116.6474],[-85.0117,14.7141,106.0127],[-85.0174,14.7069,173.5319],[-85.0281,14.698,97.1908],[-85.0298,14.6925,118.1783],[-85.0287,14.6888,120.7064],[-85.0242,14.6869,125.0394],[-85.0233,14.6844,117.0567],[-85.0319,14.6691,136.0429],[-85.0433,14.6702,124.7207],[-85.05,14.6654,127.3652],[-85.0519,14.6599,126.1114],[-85.0494,14.6523,142.2359],[-85.0459,14.6484,125.1394],[-85.0309,14.6402,135.6437],[-85.0279,14.6365,124.1763],[-85.0263,14.6309,111.833],[-85.0287,14.6243,100.875],[-85.0423,14.6109,106.9502],[-85.0405,14.6074,118.0263],[-85.0278,14.606,157.8334],[-85.0149,14.6067,138.1167],[-85.0096,14.5994,120.7013],[-84.9935,14.5922,143.5652],[-84.9904,14.5849,132.9656],[-84.9901,14.5798,145.706],[-84.9987,14.5671,143.8858],[-85.0001,14.5563,143.2167],[-85.0064,14.5457,183.6822],[-85.007,14.5369,179.815],[-84.9994,14.5306,142.4231],[-85.0007,14.5253,139.8066],[-85.0054,14.5207,158.6558],[-85.0058,14.5171,170.3095],[-84.9997,14.5118,159.578],[-84.9918,14.5006,184.7528],[-84.9765,14.4988,177.7322],[-84.9664,14.4825,159.5765],[-84.9672,14.4725,184.9936],[-84.9689,14.4696,167.0814],[-84.9751,14.4665,169.0187],[-84.9777,14.4614,172.1357],[-84.982,14.4602,156.1877],[-84.9824,14.4526,175.3837],[-84.9858,14.4459,149.7527],[-84.98,14.4382,178.009],[-84.981,14.4215,161.4819],[-84.9795,14.4112,211.5053],[-84.981,14.4086,185.7729],[-84.9869,14.405,187.493],[-84.9915,14.4053,188.9731],[-84.9958,14.4028,164.3155],[-84.9975,14.3967,196.5064],[-84.9947,14.3905,197.2473],[-84.984,14.3847,244.0792],[-84.9814,14.3807,186.7157],[-84.9786,14.3685,184.5096],[-84.9758,14.3651,210.8711],[-84.9681,14.3635,211.8596],[-84.9657,14.3613,192.7756],[-84.9617,14.3491,204.1012],[-84.9585,14.3449,217.2542],[-84.956,14.343,212.375],[-84.951,14.3449,214.3074],[-84.948,14.343,205.1922],[-84.9429,14.3308,249.0065],[-84.9394,14.3294,233.3556],[-84.9023,14.3295,345.3619],[-84.8246,14.324,415.715],[-84.8635,14.1291,678.8593],[-84.8501,14.1335,496.5817],[-84.6034,14.2409,117.4132],[-84.581,14.2403,172.3103],[-84.5585,14.2427,147.6463],[-84.5311,14.2416,142.0298],[-84.5024,14.2453,136.6177],[-84.4078,14.2465,110.2253],[-84.3915,14.2488,107.262],[-84.364,14.2471,226.7299],[-84.3335,14.249,520.4619],[-84.2569,14.3575,122.1508],[-84.1953,14.3625,85.1816],[-84.1822,14.3684,84.6617],[-84.1802,14.3712,81.9535],[-84.1841,14.3839,85.1797],[-84.1786,14.3973,73.1125],[-84.1854,14.4239,86.4675],[-84.1846,14.4318,64.7061],[-84.1798,14.4347,63.2081],[-84.1688,14.4332,67.6535],[-84.1623,14.4347,62.2885],[-84.16,14.4374,58.0008],[-84.1604,14.4457,69.1071],[-84.1588,14.4478,66.9495],[-84.1551,14.4464,54.8745],[-84.1494,14.4397,65.4274],[-84.1425,14.437,66.1421],[-84.1384,14.4273,55.7214],[-84.1342,14.4271,54.2063],[-84.1288,14.4303,55.502],[-84.1202,14.4321,57.171],[-84.1153,14.4357,53.1168],[-84.1101,14.4354,56.8027],[-84.1055,14.4319,59.2837],[-84.0997,14.4194,57.0575],[-84.0944,14.4186,53.8237],[-84.0791,14.4101,57.1854],[-84.0706,14.4006,49.5551],[-84.068,14.3997,53.9673],[-84.0642,14.4038,64.3956],[-84.0621,14.4042,60.4495],[-84.0589,14.4022,57.1369],[-84.0567,14.3972,53.4544],[-84.0483,14.3931,63.5557],[-84.0439,14.3885,64.0278],[-84.0344,14.3745,46.6813],[-84.0311,14.3733,50.0906],[-84.0238,14.3773,49.9505],[-84.0218,14.3763,50.3304],[-84.0203,14.3714,50.4353],[-84.0179,14.3707,46.9907],[-84.0084,14.3751,48.916],[-83.9714,14.3761,51.5059],[-83.9609,14.3846,56.3878],[-83.96,14.3825,58.7448],[-83.9614,14.3805,57.8773],[-83.9599,14.3782,49.8667],[-83.9484,14.3808,46.8638],[-83.9428,14.3865,55.3878],[-83.9406,14.3856,54.6081],[-83.9378,14.381,43.4544],[-83.9353,14.3805,42.4069],[-83.9306,14.3882,48.0705],[-83.9223,14.39,56.1447],[-83.9105,14.3909,61.7221],[-83.907,14.3897,57.9327],[-83.9017,14.392,62.1852],[-83.8289,14.3947,64.9452],[-83.8154,14.4023,57.5917],[-83.713,14.4723,38.0028],[-83.7122,14.4827,41.8679],[-83.7249,14.6091,59.6327],[-83.7178,14.6129,53.0854],[-83.6963,14.6147,58.903],[-83.6807,14.6217,57.2844],[-83.6729,14.6368,46.0952],[-83.6606,14.6447,35.1407],[-83.66,14.6471,37.5982],[-83.6632,14.6545,34.6591],[-83.6613,14.6577,36.943],[-83.6516,14.6535,31.8372],[-83.5349,14.6825,45.3781],[-83.5258,14.6825,45.4401],[-83.516,14.6795,40.0385],[-83.5074,14.6793,39.4044],[-83.4903,14.6856,26.095],[-83.4714,14.6975,25.6218],[-83.4584,14.7037,17.7995],[-83.4422,14.7035,12.1303],[-83.4291,14.6995,13.4806],[-83.4205,14.6987,11.7489],[-83.4145,14.7023,26.3917],[-83.4128,14.7075,14.3026],[-83.3712,14.7129,0.559],[-83.3553,14.6738,0.0],[-83.33,14.6745,0.9472],[-83.3278,14.7039,0.7434],[-83.2971,14.7039,5.1431],[-83.3012,14.7371,1.4104],[-83.2991,14.7679,0.0],[-83.3035,14.7682,3.4637],[-83.3051,14.7621,3.8458],[-83.3057,14.7671,0.0],[-83.3112,14.7696,1.9001],[-83.314,14.7807,4.7645],[-83.3107,14.7857,1.5582],[-83.3063,14.7815,2.4825],[-83.3029,14.784,2.3781],[-83.2965,14.8137,4.2257],[-83.2821,14.8438,1.1799],[-83.269,14.8851,0.0],[-83.259,14.9079,0.0],[-83.244,14.9282,2.8708],[-83.2204,14.9507,6.7051],[-83.2135,14.954,2.0215],[-83.1985,14.9571,0.0],[-83.176,14.9668,0.0],[-83.1637,14.9757,0.0],[-83.1543,14.9871,2.8672],[-83.1507,14.9874,0.0],[-83.1513,14.9893,5.6265],[-83.1474,14.9913,4.1521],[-83.147,14.9929,10.1316],[-83.1489,14.9952,3.7437],[-83.1514,14.9953,3.8865],[-83.157,14.992,3.9659],[-83.1684,14.9897,3.2948],[-83.1962,14.9933,0.4726],[-83.2092,14.993,1.5638],[-83.2255,14.9843,1.8432],[-83.2369,14.9805,2.8818],[-83.2533,14.9845,2.6591],[-83.2742,14.9838,3.3336],[-83.2769,14.9822,4.123],[-83.2805,14.9741,5.5772],[-83.2837,14.9742,6.3293],[-83.2917,14.9778,8.4065],[-83.2926,14.9802,10.2588],[-83.291,14.9829,2.9829],[-83.2794,14.9914,0.0],[-83.2785,14.9971,4.1048],[-83.2809,14.999,3.8236],[-83.3032,14.9947,7.8224],[-83.3307,15.0076,3.3023],[-83.3448,15.0108,6.4119],[-83.3476,15.01,1.5068],[-83.3497,14.9975,5.6997],[-83.3556,14.9961,9.3936],[-83.36,15.0,5.2923],[-83.3624,15.0065,5.2589],[-83.3665,15.0105,5.4633],[-83.3773,15.0149,0.0],[-83.3892,15.0151,5.1143],[-83.3973,15.0246,5.2088],[-83.4048,15.0259,6.5383],[-83.4073,15.0213,1.2828],[-83.4063,15.0072,2.6251],[-83.4085,15.0034,4.9559],[-83.4204,14.9942,4.1854],[-83.4249,14.9888,6.2148],[-83.4277,14.9873,7.2631],[-83.4398,14.9883,4.1472],[-83.4556,14.9776,5.9019],[-83.4681,14.9751,5.2148],[-83.4839,14.9871,5.7249],[-83.4822,14.9933,7.0008],[-83.4837,15.0,8.3787],[-83.4921,15.004,5.4595],[-83.4981,15.0029,5.3668],[-83.5066,14.9988,8.976],[-83.5136,14.9907,7.3549],[-83.5178,14.9802,9.2352],[-83.5289,14.9898,6.7778],[-83.5317,14.9863,6.4652],[-83.5303,14.9758,8.5149],[-83.5257,14.9671,7.6506],[-83.5297,14.966,7.6844],[-83.5348,14.9715,8.6339],[-83.5416,14.974,5.7045],[-83.5453,14.9674,8.0891],[-83.545,14.962,10.9162],[-83.5416,14.9522,3.2345],[-83.5353,14.9442,7.8802],[-83.5378,14.9423,2.0],[-83.5501,14.9488,8.1321],[-83.5525,14.9473,7.9184],[-83.5514,14.9422,8.2151],[-83.5451,14.935,8.3426],[-83.5472,14.9312,7.6873],[-83.5588,14.9337,9.6793],[-83.5628,14.9314,9.2001],[-83.5649,14.926,9.2923],[-83.5636,14.91,8.1991],[-83.5653,14.9053,9.9132],[-83.5689,14.905,10.5849],[-83.5749,14.909,9.9458],[-83.5785,14.9087,11.2426],[-83.5838,14.9041,13.1875],[-83.5874,14.9045,10.5278],[-83.5922,14.9089,11.638],[-83.5977,14.9102,9.7592],[-83.6018,14.9083,8.6946],[-83.6027,14.9048,9.4505],[-83.598,14.8989,10.0814],[-83.5988,14.8961,11.1373],[-83.6194,14.8903,10.391],[-83.6195,14.886,9.4265],[-83.6147,14.8804,3.0],[-83.6168,14.8758,12.8231],[-83.6246,14.8673,8.7718],[-83.6216,14.8567,10.2702],[-83.6252,14.8548,11.3252],[-83.6308,14.86,9.7121],[-83.6302,14.8694,12.507],[-83.6337,14.8729,11.2094],[-83.6473,14.8751,17.5786],[-83.6542,14.8752,14.232],[-83.6595,14.8706,11.7529],[-83.6715,14.8712,15.2086],[-83.6897,14.8606,13.4665],[-83.6973,14.867,13.1873],[-83.7009,14.8662,14.76],[-83.7014,14.8592,14.496],[-83.6999,14.8533,9.6038],[-83.706,14.8488,16.4399],[-83.714,14.8481,12.5461],[-83.7177,14.8435,16.6899],[-83.7138,14.8411,17.6939],[-83.7062,14.8402,14.3951],[-83.7034,14.8378,16.4991],[-83.7063,14.8308,6.6723],[-83.7052,14.8257,4.5],[-83.7112,14.8258,13.6353],[-83.7148,14.8302,14.4452],[-83.7203,14.8322,14.0031],[-83.7284,14.83,15.0818],[-83.7388,14.8314,19.234],[-83.742,14.8298,16.0551],[-83.7405,14.8255,16.2595],[-83.7366,14.8227,16.6936],[-83.735,14.8184,14.1471],[-83.7359,14.8157,27.8859],[-83.7399,14.8154,17.0383],[-83.7522,14.8226,8.9343],[-83.757,14.8235,16.9385],[-83.7628,14.8161,18.7998],[-83.7613,14.8071,17.8586],[-83.7634,14.8021,19.3871],[-83.7742,14.8038,17.7169],[-83.7852,14.8145,15.7494],[-83.7881,14.8119,24.2971],[-83.7883,14.8021,19.5618],[-83.7952,14.7979,18.7444],[-83.8151,14.8061,16.2345],[-83.8195,14.8038,19.1671],[-83.8184,14.8006,24.0949],[-83.8013,14.7918,20.2649],[-83.7962,14.787,21.8147],[-83.7994,14.7851,21.386],[-83.8169,14.787,24.3663],[-83.8355,14.7837,11.5],[-83.8515,14.7668,33.4913],[-83.8635,14.7678,31.2039],[-83.8772,14.7618,31.8086],[-83.8792,14.7626,34.0741],[-83.8818,14.7778,23.16],[-83.8857,14.7806,24.1117],[-83.889,14.7799,20.828],[-83.8924,14.7671,16.8354],[-83.8897,14.7624,26.4702],[-83.8989,14.759,33.8247],[-83.918,14.7722,17.9923],[-83.9237,14.7676,25.5918],[-83.9365,14.7682,19.5296],[-83.9385,14.7655,28.6353],[-83.9304,14.7466,36.5792],[-83.9321,14.7427,32.3203],[-83.9401,14.7433,38.6297],[-83.95,14.7504,20.3022],[-83.9548,14.7505,23.439],[-83.9803,14.74,34.9743],[-83.9887,14.7421,34.5673],[-84.0034,14.7493,29.3381],[-84.0074,14.749,27.1357],[-84.0273,14.7384,32.9733],[-84.0436,14.7425,35.446],[-84.0471,14.7531,22.007],[-84.0458,14.7597,28.5242],[-84.0485,14.7644,29.7858],[-84.0521,14.7649,31.0002],[-84.0647,14.7573,29.4411],[-84.0776,14.7524,39.8161],[-84.0824,14.7533,39.9755],[-84.0847,14.756,32.66],[-84.0862,14.767,32.0908],[-84.0848,14.7783,35.1891],[-84.0871,14.7818,34.1117],[-84.0991,14.7851,44.433],[-84.1136,14.7838,30.9701],[-84.1177,14.7784,25.9952],[-84.1182,14.7702,42.7904],[-84.1152,14.7604,30.0471],[-84.1066,14.7431,36.8619],[-84.0992,14.7376,31.5617],[-84.1003,14.7344,34.1164],[-84.0985,14.7223,43.1282],[-84.1021,14.7212,37.3204],[-84.1241,14.7262,40.3435],[-84.1289,14.7259,45.5374],[-84.1398,14.7213,38.922],[-84.1464,14.7136,47.1763],[-84.1802,14.7079,43.5263],[-84.1902,14.7092,38.4497],[-84.2061,14.7157,40.3305],[-84.2188,14.7268,46.8921],[-84.2287,14.7312,37.7782],[-84.2233,14.7425,46.5496],[-84.2225,14.7483,30.3062],[-84.2292,14.7535,41.4283],[-84.2336,14.7551,40.8684],[-84.2388,14.7544,40.6633],[-84.2635,14.7376,46.9452],[-84.2676,14.7322,44.0018],[-84.269,14.7189,45.5908],[-84.2593,14.6977,57.007],[-84.2594,14.693,47.6229],[-84.2631,14.6853,38.6762],[-84.2624,14.6818,42.5183],[-84.2545,14.6746,45.4806],[-84.2573,14.6704,50.8787],[-84.2788,14.6551,47.7265],[-84.2964,14.6604,51.9502],[-84.3004,14.6644,36.4361],[-84.3034,14.6769,41.3214],[-84.3093,14.6817,46.929],[-84.317,14.679,54.106],[-84.3207,14.6728,52.5458],[-84.3267,14.671,62.7753],[-84.3411,14.6724,55.5432],[-84.3483,14.676,55.0424],[-84.3511,14.6791,46.0807],[-84.351,14.6858,43.6739],[-84.3431,14.7017,45.8911],[-84.3539,14.7042,46.926],[-84.3646,14.7117,43.413],[-84.3683,14.7087,43.1792],[-84.3676,14.702,47.388],[-84.3708,14.6966,48.8026],[-84.3773,14.6908,43.6309],[-84.3832,14.6773,51.1759],[-84.4084,14.6538,63.2268],[-84.41,14.6433,51.2118],[-84.4331,14.6319,50.1233],[-84.4577,14.6302,57.0832],[-84.4624,14.6253,51.019],[-84.4661,14.6155,61.0003],[-84.4691,14.6145,60.6441],[-84.498,14.621,44.0],[-84.5058,14.6267,48.2438],[-84.507,14.6334,56.6915],[-84.511,14.6344,55.8359],[-84.5212,14.6301,61.2191],[-84.5271,14.6311,52.0766],[-84.5344,14.6287,59.39],[-84.5376,14.6367,58.7703],[-84.5369,14.6415,53.0844],[-84.5279,14.6443,55.5183],[-84.5232,14.6503,52.2314],[-84.5245,14.6538,49.9888],[-84.5354,14.654,55.4734],[-84.542,14.6512,55.0262],[-84.5538,14.6507,62.6583],[-84.5605,14.6463,64.8],[-84.5693,14.6535,55.8329],[-84.5818,14.6501,63.5753],[-84.5903,14.6576,54.3459],[-84.5985,14.6545,62.2633],[-84.6054,14.6556,65.5249],[-84.6152,14.6611,56.1729],[-84.6284,14.6604,76.7279],[-84.6326,14.662,67.8118],[-84.6339,14.6678,53.244],[-84.6374,14.6723,56.0302],[-84.6427,14.6727,52.0],[-84.6539,14.6684,66.258],[-84.6595,14.6678,66.68],[-84.6706,14.6737,64.7592],[-84.6765,14.6799,62.4173],[-84.6754,14.6853,61.7147],[-84.681,14.687,62.0642],[-84.6888,14.6708,65.3061],[-84.6958,14.6609,68.5586],[-84.705,14.6617,72.1547],[-84.7059,14.671,64.0845],[-84.7122,14.6887,61.6832],[-84.7227,14.691,83.7182],[-84.7468,14.7115,71.2458],[-84.7506,14.7257,68.6674],[-84.7458,14.7375,63.6946],[-84.749,14.7445,71.4196],[-84.7609,14.7389,70.5129],[-84.7665,14.7403,75.826],[-84.7713,14.7471,71.9008],[-84.769,14.7512,68.5479],[-84.7653,14.7531,72.0972],[-84.7565,14.7514,66.3147],[-84.7521,14.7574,70.2055],[-84.7546,14.7664,71.2667],[-84.775,14.779,80.7329],[-84.7756,14.7777,78.1876],[-84.7823,14.7837,82.8916],[-84.7895,14.7937,90.2646],[-84.7921,14.8058,75.9096]],
[[-84.9238,14.7526,107.7818],[-84.9239,14.7521,107.7818],[-84.9299,14.7516,109.4719],[-84.9254,14.7531,111.5427],[-84.9238,14.7526,107.7818]]]]}}