{"type":"Feature","properties":{"ISO3166-1-Alpha-3":"NIC","country":"Nicaragua","fill":"#000","id":"24","name":"Rivas"},
"geometry":{"type": "Polygon","coordinates": [[[-85.52291,11.68053,31.0],[-85.89436,11.68205,31.0],[-85.927,11.67272,45.0861],[-85.97134,11.66148,55.7505],[-85.97606,11.66306,57.4931],[-85.98593,11.67303,65.8677],[-85.98981,11.67707,63.6294],[-85.99415,11.67975,64.9786],[-85.99919,11.68097,66.2517],[-86.00092,11.68104,66.7368],[-86.00338,11.68084,68.2557],[-86.00617,11.67913,70.6329],[-86.00909,11.67621,73.2142],[-86.02469,11.64332,138.1458],[-86.03557,11.62575,216.8631],[-86.03932,11.62317,181.3366],[-86.06707,11.60932,74.8904],[-86.07058,11.60578,77.1368],[-86.07813,11.60472,78.8801],[-86.10169,11.61082,58.5562],[-86.13662,11.58792,89.9116],[-86.13972,11.58405,32.3654],[-86.14626,11.57183,42.0971],[-86.17512,11.51961,0.0],[-86.1752,11.51947,0.0],[-86.16666,11.49262,0.0],[-86.16275,11.48452,0.6482],[-86.1483,11.47175,0.0],[-86.10473,11.44729,0.0],[-86.07059,11.41169,0.0],[-86.04393,11.3981,0.0],[-86.01037,11.35798,0.0],[-85.99486,11.34365,0.0],[-85.96011,11.33401,0.0],[-85.95682,11.32978,0.0],[-85.94152,11.31912,57.4815],[-85.9368,11.31696,20.2786],[-85.92801,11.31074,45.0614],[-85.82132,11.19282,59.3585],[-85.80309,11.16608,90.7559],[-85.79369,11.13003,53.6027],[-85.7858,11.11225,0.0],[-85.77172,11.10468,0.0],[-85.75231,11.10171,60.7497],[-85.70242,11.0812,21.5834],[-85.70174,11.08088,21.4294],[-85.67758,11.11963,291.9089],[-85.65931,11.15883,186.1495],[-85.63115,11.19622,88.0106],[-85.59779,11.20994,82.4226],[-85.56916,11.19539,360.9837],[-85.54095,11.17033,89.074],[-85.50863,11.15242,194.8951],[-85.40742,11.11545,120.6658],[-85.27236,11.0662,75.0214],[-85.23648,11.0531,51.7585],[-85.09284,11.00065,40.679],[-84.9314,10.94189,38.4627],[-84.9084,10.93936,40.2038],[-84.88497,10.94768,33.0228],[-84.94179,10.98011,33.2252],[-85.02733,11.00862,34.749],[-85.16175,11.0575,38.8549],[-85.21063,11.07787,42.8798],[-85.30024,11.11046,67.4357],[-85.34097,11.14712,37.1957],[-85.10152,11.63146,31.0],[-85.52291,11.68053,31.0]]]}}