{"type": "Feature","bbox": [-86.174,11.0782,-85.4626,11.6849],"geometry": {"type": "MultiPolygon","coordinates": [[[[-85.6373,11.1735,135.1459],[-85.6217,11.1998,74.6019],[-85.6249,11.2256,59.5401],[-85.6347,11.227,78.4266],[-85.6593,11.2523,66.4516],[-85.6762,11.2648,57.2025],[-85.6926,11.2899,48.7886],[-85.7017,11.3023,42.2451],[-85.7063,11.3062,41.8179],[-85.7124,11.3159,36.7891],[-85.7293,11.323,56.4953],[-85.7489,11.3442,48.0643],[-85.7539,11.3544,41.3175],[-85.7648,11.3689,41.9855],[-85.7709,11.3866,43.1443],[-85.7817,11.4071,40.5459],[-85.7834,11.424,37.1403],[-85.7926,11.4563,46.4803],[-85.793,11.477,35.9563],[-85.7962,11.4901,37.2939],[-85.8011,11.4991,38.8274],[-85.8369,11.5489,33.4462],[-85.8522,11.5912,33.2948],[-85.8639,11.6366,39.1062],[-85.8686,11.6774,35.1591],[-85.8758,11.6808,32.1839],[-85.8797,11.6849,32.0169],[-85.8826,11.6845,31.0],[-85.8783,11.6556,41.8905],[-85.8716,11.646,34.6817],[-85.8701,11.6415,36.7825],[-85.8716,11.6394,36.0831],[-85.8749,11.6399,35.4725],[-85.8856,11.655,34.4615],[-85.9004,11.6671,73.9133],[-85.9013,11.6712,80.7769],[-85.9199,11.6591,43.8246],[-85.9457,11.6561,49.0319],[-85.962,11.6509,53.1271],[-85.9648,11.6453,52.863],[-85.9805,11.6465,56.9631],[-85.9943,11.6532,71.3023],[-85.9976,11.6532,90.9738],[-86.0074,11.6499,137.0734],[-86.0161,11.6428,110.1506],[-86.0205,11.6358,138.9142],[-86.0241,11.6224,93.9289],[-86.0268,11.6192,91.0893],[-86.0323,11.6169,109.5258],[-86.0567,11.616,91.9994],[-86.0679,11.6131,100.8181],[-86.0853,11.6009,69.8719],[-86.0922,11.6023,109.1879],[-86.0954,11.6052,81.3262],[-86.1003,11.6062,76.1879],[-86.1135,11.6048,66.1713],[-86.1178,11.5985,61.6359],[-86.1466,11.5712,29.1895],[-86.1506,11.5557,21.9377],[-86.1575,11.5503,21.29],[-86.1559,11.5423,14.0163],[-86.157,11.5392,12.6752],[-86.1619,11.5355,10.6784],[-86.1621,11.5279,16.8423],[-86.1665,11.5231,5.6968],[-86.174,11.5187,0.0],[-86.169,11.5154,3.844],[-86.1657,11.5076,0.0],[-86.1721,11.5032,0.0],[-86.1738,11.4996,0.0],[-86.1718,11.4987,0.0],[-86.1732,11.496,0.0],[-86.1696,11.4965,1.2022],[-86.1698,11.4941,0.0],[-86.1679,11.4935,0.0],[-86.1668,11.4946,9.1457],[-86.1604,11.4869,2.6723],[-86.1624,11.4829,0.0],[-86.1601,11.4824,0.9376],[-86.1607,11.4799,0.0],[-86.1596,11.4807,0.2879],[-86.1576,11.4782,0.0],[-86.1574,11.4821,9.498],[-86.1518,11.4815,1.7621],[-86.1485,11.4793,0.0],[-86.1482,11.4765,0.0],[-86.1426,11.4771,8.2262],[-86.1415,11.4746,0.0],[-86.136,11.4726,0.0],[-86.131,11.474,3.181],[-86.1187,11.4671,5.0089],[-86.1104,11.459,16.8237],[-86.1054,11.4565,0.0],[-86.1046,11.4547,0.0],[-86.1062,11.4518,0.0],[-86.1018,11.4527,6.5049],[-86.0887,11.4441,5.5961],[-86.0849,11.4329,0.0],[-86.0818,11.4338,45.0208],[-86.0779,11.4271,3.6919],[-86.0754,11.4276,45.7525],[-86.0729,11.4255,42.1865],[-86.0721,11.4146,7.4554],[-86.0687,11.4143,19.9522],[-86.0665,11.4115,0.0],[-86.0604,11.4137,0.0],[-86.0599,11.4118,0.0],[-86.046,11.4051,0.0],[-86.0454,11.4007,0.0],[-86.0426,11.4024,14.7589],[-86.0379,11.3991,7.8573],[-86.0346,11.3949,7.841],[-86.0357,11.3924,0.0],[-86.0335,11.391,0.0],[-86.0326,11.3862,1.8012],[-86.0385,11.384,0.0],[-86.0373,11.3829,0.0],[-86.0315,11.3838,16.1168],[-86.0298,11.3819,32.2187],[-86.0326,11.3796,0.0],[-86.031,11.3779,0.0],[-86.0287,11.3788,24.5488],[-86.0254,11.3754,0.0],[-86.0198,11.3754,16.3321],[-86.0207,11.3721,2.0289],[-86.0146,11.3743,21.1914],[-86.0118,11.3738,26.086],[-86.0074,11.3685,0.0],[-86.0113,11.3621,0.0],[-86.0085,11.3599,0.0],[-86.0048,11.361,35.1809],[-86.0027,11.3568,0.0],[-86.0035,11.3543,0.0],[-86.0013,11.3565,0.0],[-85.9993,11.3565,1.9142],[-85.9995,11.3549,0.0],[-85.9976,11.356,0.0],[-85.9954,11.3547,17.1718],[-85.9957,11.3499,10.3897],[-85.9932,11.3482,12.056],[-85.9932,11.346,2.2774],[-85.9885,11.3476,2.8641],[-85.9838,11.3454,13.4477],[-85.981,11.3412,0.0],[-85.9793,11.3471,9.587],[-85.9782,11.3454,0.0],[-85.9723,11.3449,3.5223],[-85.9504,11.3291,13.2621],[-85.9498,11.3257,0.0],[-85.9471,11.3249,0.0],[-85.9476,11.3215,0.0],[-85.9446,11.3215,36.6112],[-85.944,11.3185,0.0],[-85.939,11.3165,0.0],[-85.9371,11.3129,0.0],[-85.9335,11.3112,24.6789],[-85.9335,11.3096,44.0267],[-85.9362,11.3093,0.0],[-85.934,11.3063,0.0],[-85.9321,11.3065,12.4482],[-85.9268,11.3029,0.0],[-85.9265,11.3071,31.7244],[-85.9215,11.3074,4.2034],[-85.9199,11.3054,19.1893],[-85.9212,11.3021,0.0],[-85.919,11.3032,0.0],[-85.9154,11.2996,13.1406],[-85.9201,11.2954,0.0],[-85.9146,11.2974,11.8978],[-85.9112,11.2926,0.1412],[-85.9079,11.2921,18.1907],[-85.9076,11.2868,0.0],[-85.9037,11.2865,0.0],[-85.9032,11.2829,9.407],[-85.9051,11.2832,0.0],[-85.9054,11.2807,15.216],[-85.8996,11.2763,0.0],[-85.9013,11.2746,15.9764],[-85.9035,11.276,0.0],[-85.9035,11.2732,0.0],[-85.8999,11.2727,6.3923],[-85.8976,11.2696,0.0],[-85.8949,11.2721,19.9578],[-85.8921,11.2713,0.0],[-85.891,11.269,4.1795],[-85.8887,11.271,1.6773],[-85.8865,11.2701,0.7702],[-85.8876,11.2663,10.1111],[-85.8938,11.2663,0.0],[-85.8938,11.2629,0.0],[-85.8921,11.2629,0.0],[-85.8893,11.2588,6.4782],[-85.8867,11.2596,4.6962],[-85.8835,11.2565,0.0],[-85.8796,11.2613,3.3321],[-85.8752,11.2598,0.0],[-85.8734,11.2574,7.8399],[-85.8732,11.2513,4.084],[-85.8793,11.2499,3.9933],[-85.8812,11.2421,12.5513],[-85.8793,11.2415,0.0],[-85.8768,11.2435,14.1039],[-85.8763,11.2407,7.1639],[-85.8732,11.239,3.6769],[-85.8715,11.2421,24.7195],[-85.8673,11.2374,1.9513],[-85.8688,11.2363,0.0],[-85.8682,11.2343,8.9155],[-85.866,11.2357,22.9057],[-85.8629,11.2346,2.4221],[-85.854,11.2254,26.3662],[-85.8526,11.2204,0.0],[-85.8509,11.2215,2.9728],[-85.8468,11.2207,22.6931],[-85.849,11.2171,0.0],[-85.8424,11.2126,3.9204],[-85.8429,11.2066,0.5157],[-85.839,11.2082,2.9614],[-85.8351,11.206,9.5543],[-85.8288,11.196,27.8473],[-85.8246,11.1935,4.562],[-85.8246,11.1901,0.0],[-85.8193,11.1871,3.2399],[-85.8193,11.1829,0.0],[-85.8171,11.1835,8.6094],[-85.8142,11.1796,2.8222],[-85.8129,11.1726,20.1149],[-85.8096,11.1713,3.0713],[-85.8074,11.1679,0.0],[-85.8079,11.1626,0.0],[-85.806,11.1599,0.0],[-85.8026,11.159,24.4782],[-85.8013,11.1563,3.929],[-85.7999,11.1485,12.873],[-85.8021,11.146,10.0116],[-85.799,11.1446,0.0],[-85.796,11.1462,2.5655],[-85.7946,11.144,0.0],[-85.794,11.1343,14.4676],[-85.799,11.1327,0.0],[-85.7993,11.1293,0.0],[-85.7957,11.1268,0.0],[-85.7962,11.1246,0.0],[-85.789,11.1199,0.0],[-85.7896,11.116,4.8929],[-85.786,11.1143,0.0],[-85.7857,11.1165,0.0],[-85.7826,11.1157,0.0],[-85.7818,11.1174,19.497],[-85.7799,11.1174,26.2282],[-85.779,11.1124,0.0],[-85.7812,11.1115,0.0],[-85.7782,11.1079,0.0],[-85.7757,11.1113,9.8896],[-85.7737,11.1107,40.5359],[-85.7701,11.1057,0.0],[-85.7657,11.109,6.0473],[-85.7604,11.1071,7.3706],[-85.7577,11.1029,5.2141],[-85.7599,11.0999,0.0],[-85.7565,11.0982,0.0],[-85.7538,11.0993,8.8959],[-85.7532,11.0971,0.0],[-85.7454,11.0968,0.0],[-85.7426,11.0874,11.5695],[-85.7396,11.0885,0.0],[-85.7393,11.0915,3.0614],[-85.736,11.0918,0.0],[-85.7332,11.0885,0.0],[-85.7199,11.0885,0.0],[-85.7171,11.0854,0.0],[-85.7142,11.086,13.6459],[-85.709,11.0799,0.0],[-85.6961,11.0799,0.0],[-85.6943,11.0782,0.0],[-85.6373,11.1735,135.1459]]],
[[[-86.0026,11.3525,3.9471],[-86.0046,11.3526,0.0],[-86.0032,11.3504,0.0],[-86.0021,11.3507,0.0],[-86.0026,11.3525,3.9471]]],
[[[-85.6269,11.5696,190.766],[-85.66,11.561,152.0423],[-85.6894,11.5464,109.6338],[-85.6937,11.5429,61.5963],[-85.6998,11.5352,49.3108],[-85.6997,11.5237,55.1556],[-85.7082,11.512,42.3291],[-85.719,11.4926,31.0],[-85.7188,11.4882,31.0],[-85.7169,11.4859,31.0],[-85.7008,11.4717,31.0],[-85.6774,11.4585,31.0],[-85.6682,11.4595,31.0],[-85.6489,11.4714,31.0],[-85.6414,11.4703,31.0],[-85.6354,11.4638,31.0],[-85.6308,11.4676,31.0],[-85.626,11.4684,31.0],[-85.6267,11.4741,31.0],[-85.6255,11.4783,31.0],[-85.6039,11.4788,31.0],[-85.5932,11.475,31.0],[-85.575,11.4614,31.0],[-85.5702,11.453,31.0],[-85.5751,11.4408,31.0],[-85.5756,11.4337,31.0],[-85.5676,11.4103,31.0],[-85.5538,11.3987,31.0],[-85.5449,11.3862,31.0],[-85.5333,11.38,31.0],[-85.5199,11.3773,31.0],[-85.5077,11.3781,31.0],[-85.4789,11.3895,31.0],[-85.4722,11.3936,31.0],[-85.4666,11.4006,31.0],[-85.463,11.4099,31.0],[-85.4626,11.4305,66.6465],[-85.4665,11.4488,123.6363],[-85.4771,11.4603,242.8969],[-85.4787,11.4709,191.6969],[-85.4811,11.4759,160.0193],[-85.485,11.4784,141.2385],[-85.487,11.4775,143.7009],[-85.4874,11.4716,236.1537],[-85.492,11.4686,329.3766],[-85.5101,11.4755,246.8096],[-85.5151,11.475,285.5075],[-85.5285,11.47,315.0682],[-85.5342,11.473,235.1905],[-85.5451,11.471,147.7847],[-85.5522,11.4728,70.5135],[-85.5613,11.4837,33.9135],[-85.5679,11.5102,82.4821],[-85.5699,11.5321,72.8713],[-85.5644,11.5528,46.9999],[-85.5675,11.5611,50.9338],[-85.5877,11.5769,63.1694],[-85.6068,11.576,106.9637],[-85.6174,11.5688,174.615],[-85.6269,11.5696,190.766]]],
[[[-85.5568,11.5224,31.0],[-85.5556,11.5256,31.0],[-85.5573,11.5287,31.0],[-85.5613,11.5305,35.8372],[-85.5615,11.5244,47.1249],[-85.5596,11.5224,37.3746],[-85.5568,11.5224,31.0]]]]}
,"properties": {"GID_1": "NIC.18_1","GID_0": "NIC","country": "Nicaragua","province": "Rivas","VARNAME_1": "NA","NL_NAME_1": "NA","TYPE_1": "Departamento","ENGTYPE_1": "Department","CC_1": "NA","HASC_1": "NI.RI","ISO_1": "NI-RI","name": "Rivas.province","area_km2": 1905.0,"hist_schema_id": "Elevation0-9000","hist_area_km2": {"0": 38.329,"25": 229.015,"50": 419.738,"75": 310.884,"100": 205.766,"125": 153.453,"150": 125.026,"175": 93.191,"200": 75.696,"225": 58.532,"250": 43.425,"275": 34.198,"300": 25.675,"325": 17.672,"350": 12.162,"375": 8.752,"400": 6.382,"425": 3.741,"450": 3.45,"475": 2.743,"500": 2.057,"525": 2.057,"550": 2.057,"575": 1.849,"600": 1.683,"625": 1.33,"650": 1.621,"675": 1.267,"700": 1.454,"725": 1.475,"750": 1.08,"775": 1.06,"800": 1.164,"825": 1.496,"850": 1.164,"875": 0.956,"900": 1.018,"925": 1.288,"950": 1.184,"975": 1.06,"1000": 1.33,"1025": 0.81,"1050": 0.79,"1075": 0.748,"1100": 0.644,"1125": 0.748,"1150": 0.436,"1175": 0.519,"1200": 0.457,"1225": 0.208,"1250": 0.436,"1275": 0.27,"1300": 0.332,"1325": 0.208,"1350": 0.166,"1375": 0.125,"1400": 0.021,"1425": 0.104,"1450": 0.125,"1475": 0.125,"1525": 0.062,"1550": 0.021,"1575": 0.083,"1600": 0.062,"1625": 0.021}}}