{"type":"Feature","properties":{"GID_2":"NIC.13.4_1","GID_0":"NIC","country":"Nicaragua","GID_1":"NIC.13_1","province":"Managua","NL_NAME_1":"NA","county":"SanFranciscoLibre","VARNAME_2":"NA","NL_NAME_2":"NA","TYPE_2":"Municipio","ENGTYPE_2":"Municipality","CC_2":"NA","HASC_2":"NI.MN.SF","name":"San_Francisco_Libre.county"},
"geometry":{"type": "MultiPolygon","coordinates": [[[[-86.3572,12.4643,40.0],[-86.3462,12.47,40.0],[-86.3366,12.4863,40.0],[-86.3296,12.4917,40.0],[-86.3215,12.4916,40.0],[-86.3094,12.4881,40.0],[-86.2937,12.4888,40.0],[-86.2877,12.4847,40.0],[-86.2791,12.4669,40.0],[-86.2778,12.4505,40.0],[-86.2731,12.4386,40.0],[-86.2736,12.4308,40.0],[-86.2808,12.4176,40.0],[-86.2826,12.4073,40.0],[-86.2807,12.4049,40.0],[-86.2777,12.4055,40.0],[-86.271,12.4122,40.0],[-86.268,12.4128,40.0],[-86.2655,12.4107,40.0],[-86.2657,12.4083,40.0],[-86.2725,12.4027,40.0],[-86.2704,12.4006,40.0],[-86.2645,12.3999,40.0],[-86.2477,12.3929,40.0],[-86.2398,12.3829,40.0],[-86.2309,12.3594,40.0],[-86.2202,12.3402,40.0],[-86.2136,12.3219,40.0],[-86.2073,12.297,40.6316],[-86.2056,12.265,40.0],[-86.2015,12.2621,40.0],[-86.1931,12.2698,40.0],[-86.1708,12.2963,40.0],[-86.1538,12.3089,40.0],[-86.1363,12.3288,40.0],[-86.133,12.3297,40.0],[-86.1226,12.3247,40.0],[-86.1159,12.3241,40.0],[-86.1153,12.3297,40.0],[-86.1234,12.3385,40.0],[-86.1213,12.3461,40.7039],[-86.1234,12.3512,40.7625],[-86.1173,12.359,42.3987],[-86.1151,12.3713,44.4413],[-86.1231,12.4116,53.1752],[-86.1219,12.4512,96.1093],[-86.1502,12.4759,111.4328],[-86.1229,12.5759,464.1842],[-86.098,12.5769,494.8777],[-86.1189,12.5905,492.5026],[-86.1309,12.5947,441.0106],[-86.1398,12.5944,378.9013],[-86.1488,12.5893,357.594],[-86.1564,12.5892,250.335],[-86.1842,12.613,745.0942],[-86.1964,12.6182,757.4409],[-86.2193,12.6245,738.819],[-86.2307,12.6267,809.0114],[-86.2641,12.6244,324.7677],[-86.2837,12.631,156.4883],[-86.3069,12.627,159.3457],[-86.3186,12.6234,136.0255],[-86.3244,12.6194,104.4409],[-86.3318,12.6058,82.6545],[-86.3484,12.5963,69.2069],[-86.3521,12.592,66.5703],[-86.3547,12.5836,63.9564],[-86.3596,12.5752,60.8486],[-86.3631,12.5566,57.4706],[-86.3696,12.5463,53.0623],[-86.3705,12.5367,56.8328],[-86.3748,12.5312,51.6177],[-86.3698,12.5219,51.9704],[-86.371,12.5203,48.3312],[-86.378,12.5196,52.9152],[-86.3782,12.5167,50.11],[-86.3698,12.5139,49.3092],[-86.375,12.507,45.348],[-86.3671,12.4953,47.1328],[-86.3526,12.4904,48.1942],[-86.3519,12.4883,43.639],[-86.3571,12.4809,40.329],[-86.3532,12.4751,41.1959],[-86.3538,12.4729,40.0441],[-86.3595,12.4693,40.0],[-86.3572,12.4643,40.0]]]]}}