{"type":"Feature","properties":{"GID_2":"NIC.2.2_1","GID_0":"NIC","country":"Nicaragua","GID_1":"NIC.2_1","province":"AtlánticoSur","NL_NAME_1":"NA","county":"BocanadePaiwas","VARNAME_2":"BocanasdePaiwa","NL_NAME_2":"NA","TYPE_2":"Municipio","ENGTYPE_2":"Municipality","CC_2":"NA","HASC_2":"NI.AS.BP","name":"Bocanade_Paiwas.county"},
"geometry":{"type": "MultiPolygon","coordinates": [[[[-84.9879,12.7065,224.8679],[-84.9295,12.7288,251.1715],[-84.8834,12.6914,264.2847],[-84.8777,12.6931,272.0587],[-84.8586,12.7057,328.8616],[-84.8491,12.7076,317.0247],[-84.842,12.7072,327.7708],[-84.8327,12.7049,340.378],[-84.825,12.6987,278.1986],[-84.8215,12.695,326.4423],[-84.8167,12.6839,308.6402],[-84.7964,12.7314,239.1008],[-84.7632,12.6569,294.7097],[-84.7347,12.6718,210.7258],[-84.7055,12.6549,196.5497],[-84.6888,12.7156,95.5343],[-84.6704,12.7189,91.0008],[-84.6395,12.7353,88.3182],[-84.6357,12.7411,83.9325],[-84.6153,12.7561,75.2146],[-84.6123,12.7643,78.4202],[-84.6143,12.7736,78.7889],[-84.6268,12.7962,92.3696],[-84.6403,12.8154,107.7422],[-84.6492,12.8347,95.9293],[-84.6643,12.8764,189.1731],[-84.6886,12.9321,119.1047],[-84.7065,13.0043,105.0387],[-84.7234,13.0405,88.5407],[-84.7292,13.0348,78.4804],[-84.7323,13.0272,87.6153],[-84.7299,13.0162,75.2437],[-84.7341,13.0015,104.2411],[-84.7279,12.9876,78.5532],[-84.7285,12.982,86.6981],[-84.7336,12.9766,86.6811],[-84.7407,12.9742,94.3839],[-84.7443,12.9697,106.1104],[-84.7443,12.9621,102.2413],[-84.7396,12.9523,124.5303],[-84.7411,12.9491,109.7491],[-84.7562,12.945,103.0415],[-84.7651,12.9393,91.0203],[-84.7749,12.9369,65.9389],[-84.7817,12.9373,60.5201],[-84.7865,12.9459,112.6009],[-84.7893,12.9477,146.4326],[-84.8405,12.9381,144.8137],[-84.8527,12.9274,88.8084],[-84.867,12.9207,110.199],[-84.8892,12.8972,134.5565],[-84.9038,12.8911,93.018],[-84.9175,12.8907,211.2963],[-84.9236,12.8886,319.321],[-84.9281,12.8827,181.9682],[-84.9322,12.8669,147.5595],[-84.9371,12.8572,305.1923],[-84.9445,12.8507,311.5251],[-84.9488,12.849,236.9615],[-84.9739,12.8523,221.7651],[-84.9909,12.8515,158.3115],[-85.0209,12.8635,267.1553],[-85.0313,12.8586,223.338],[-85.0546,12.8346,317.1589],[-85.0735,12.8254,165.0362],[-85.0832,12.8231,331.2964],[-85.0893,12.8233,281.0925],[-85.107,12.8306,221.9812],[-85.1215,12.8346,268.0459],[-85.1438,12.8373,174.5054],[-85.1447,12.8352,172.5265],[-85.1424,12.8309,170.2967],[-85.1338,12.8199,219.6112],[-85.1332,12.813,228.7554],[-85.1417,12.8007,147.8041],[-85.1616,12.7795,199.7569],[-85.1676,12.778,173.2864],[-85.1758,12.7835,180.2977],[-85.1857,12.7855,247.1615],[-85.2008,12.7952,194.2009],[-85.2075,12.7968,184.5303],[-85.2225,12.7789,239.8708],[-85.2265,12.771,353.3878],[-85.2283,12.7541,247.4747],[-85.2267,12.7444,279.0607],[-85.2217,12.7363,278.1337],[-85.2092,12.7246,260.2734],[-85.2079,12.7004,274.167],[-85.1917,12.6638,199.4375],[-85.1741,12.6452,201.0744],[-85.1665,12.6309,230.8159],[-85.1616,12.6259,209.4709],[-85.1498,12.6209,207.8925],[-85.1434,12.6213,233.1684],[-85.1415,12.6231,256.7531],[-85.1364,12.6339,319.6609],[-85.1384,12.643,254.2227],[-85.1439,12.6544,287.1288],[-85.1448,12.6619,276.8261],[-85.1364,12.6697,346.5921],[-85.1303,12.6826,364.3793],[-85.1185,12.6914,390.9644],[-85.1118,12.6989,289.0387],[-85.1105,12.7029,346.3698],[-85.1115,12.7089,307.1461],[-85.1191,12.7178,229.1426],[-85.1205,12.7235,203.2428],[-85.1185,12.7257,219.975],[-85.112799999999993,12.7262,266.8995],[-85.1105,12.7289,231.9523],[-85.1132,12.7377,223.7158],[-85.1126,12.7412,175.2804],[-85.1029,12.7595,259.371],[-85.097,12.7669,332.6288],[-85.0816,12.7722,270.6277],[-85.0619,12.783,151.864],[-85.055,12.7832,130.9528],[-85.0432,12.7783,147.7751],[-85.0324,12.7704,183.4968],[-85.0201,12.7546,142.3698],[-85.0058,12.7458,181.66],[-85.0013,12.7409,211.1952],[-84.9977,12.7351,159.9077],[-84.9931,12.7184,219.4439],[-84.9879,12.7065,224.8679]]]]}}