{"type":"Feature","properties":{"GID_2":"NIC.3.6_1","GID_0":"NIC","country":"Nicaragua","GID_1":"NIC.3_1","province":"Boaco","NL_NAME_1":"NA","county":"Teustepe","VARNAME_2":"NA","NL_NAME_2":"NA","TYPE_2":"Municipio","ENGTYPE_2":"Municipality","CC_2":"NA","HASC_2":"NI.BO.TE","name":"Teustepe.county"},
"geometry":{"type": "MultiPolygon","coordinates": [[[[-85.6687,12.4313,465.3941],[-85.6758,12.4277,384.1112],[-85.683,12.4171,534.4664],[-85.6937,12.4139,412.2994],[-85.702,12.4137,397.6397],[-85.7072,12.4152,367.0261],[-85.7199,12.4224,334.0917],[-85.7369,12.4217,214.1097],[-85.7455,12.4345,181.7855],[-85.7429,12.4445,193.6792],[-85.7435,12.4492,201.0269],[-85.7502,12.4642,230.2439],[-85.7487,12.4764,260.4585],[-85.755,12.4849,252.0941],[-85.7595,12.4953,255.6392],[-85.7629,12.4935,259.8362],[-85.7695,12.4941,352.4668],[-85.7741,12.4954,491.9763],[-85.7797,12.5014,592.1395],[-85.7864,12.5009,365.745],[-85.7882,12.5025,340.1295],[-85.786,12.5146,394.267],[-85.7882,12.5208,298.7902],[-85.8145,12.5204,359.9819],[-85.8301,12.5271,446.6156],[-85.8368,12.5279,436.7641],[-85.8427,12.5272,471.5863],[-85.8725,12.5159,673.0388],[-85.8846,12.5152,605.2646],[-85.8975,12.5212,639.7947],[-85.9174,12.5462,560.793],[-85.9322,12.5416,692.8246],[-85.9531,12.5274,788.5582],[-85.9653,12.5115,500.7892],[-85.9784,12.5022,410.7019],[-85.9814,12.4955,354.3578],[-85.9785,12.4892,288.2444],[-85.9804,12.4875,322.5597],[-85.9858,12.487,430.9123],[-85.9851,12.4816,390.6021],[-85.9793,12.4736,285.3969],[-85.9732,12.4604,336.6339],[-85.9747,12.4576,407.1664],[-85.9777,12.4574,458.2183],[-85.9789,12.4554,393.9336],[-85.9751,12.4429,424.8442],[-85.9636,12.4348,363.5426],[-85.9424,12.4006,363.8582],[-85.9372,12.3964,388.8542],[-85.9272,12.394,311.6906],[-85.9239,12.3906,232.7027],[-85.921,12.3779,119.0],[-85.9132,12.3733,120.9726],[-85.912,12.3701,119.0],[-85.9227,12.3606,119.0],[-85.9272,12.3424,185.1809],[-85.9306,12.3344,99.4008],[-85.9286,12.329,95.0144],[-85.9059,12.3034,81.6922],[-85.8682,12.2754,59.5152],[-85.8278,12.2412,51.552],[-85.7558,12.2538,246.8417],[-85.7531,12.2737,377.3881],[-85.7254,12.2801,527.7743],[-85.7066,12.3579,499.8226],[-85.6561,12.4076,539.402],[-85.6687,12.4313,465.3941]]]]}}