{"type":"Feature","properties":{"GID_2":"NIC.14.6_1","GID_0":"NIC","country":"Nicaragua","GID_1":"NIC.14_1","province":"Masaya","NL_NAME_1":"NA","county":"Nindirí","VARNAME_2":"NA","NL_NAME_2":"NA","TYPE_2":"Municipio","ENGTYPE_2":"Municipality","CC_2":"NA","HASC_2":"NI.MS.NN","name":"Nindirí.county"},
"geometry":{"type": "MultiPolygon","coordinates": [[[[-86.1991,12.041,236.2666],[-86.1935,12.0337,259.3109],[-86.1732,12.0147,300.4017],[-86.1653,12.0043,299.7152],[-86.183,11.975,512.2544],[-86.1729,11.9721,429.4082],[-86.1472,11.976,320.0445],[-86.1206,11.9778,131.1191],[-86.1065,11.9813,123.0],[-86.1026,11.9837,232.7029],[-86.0964,12.0286,210.7046],[-86.1028,12.0398,208.7673],[-86.1035,12.0488,209.6351],[-86.0982,12.075,181.4355],[-86.0951,12.1036,137.1641],[-86.0961,12.1194,114.9953],[-86.098,12.1256,104.3612],[-86.1185,12.12,84.2116],[-86.1273,12.1113,79.9107],[-86.1383,12.0938,98.1577],[-86.1675,12.0845,126.0323],[-86.1841,12.0589,175.7036],[-86.1991,12.041,236.2666]]]]}}