{"type": "Feature","bbox": [-86.0324,12.6096,-85.8133,12.815],"geometry": {"type": "MultiPolygon","coordinates": [[[[-85.8619,12.6161,385.8674],[-85.8562,12.6196,404.2515],[-85.847,12.6296,402.5673],[-85.8418,12.6431,450.0093],[-85.8316,12.6427,459.2583],[-85.8309,12.6481,521.1366],[-85.8191,12.6541,526.6772],[-85.8143,12.6608,454.7833],[-85.8133,12.6648,404.0239],[-85.8162,12.6703,340.6678],[-85.823,12.6747,320.3799],[-85.8349,12.6858,402.2842],[-85.8458,12.6991,716.2263],[-85.8762,12.7219,782.546],[-85.8826,12.7243,787.3194],[-85.8905,12.7192,917.6014],[-85.9086,12.7183,736.2667],[-85.9139,12.7184,598.6766],[-85.9226,12.7223,581.7438],[-85.9231,12.73,795.5107],[-85.9195,12.7441,732.5929],[-85.9211,12.7675,880.0531],[-85.9185,12.8016,613.8652],[-85.9357,12.8055,1042.0643],[-85.9483,12.815,817.7982],[-85.9949,12.789,1190.0468],[-86.0034,12.7726,1003.1861],[-86.0065,12.7552,538.6785],[-86.0158,12.7237,681.4277],[-86.031,12.6926,480.6437],[-86.0324,12.6716,432.4024],[-86.0305,12.6607,400.7927],[-86.0259,12.6512,472.1849],[-86.019,12.6483,398.1428],[-86.0068,12.6467,512.9337],[-85.9993,12.643,419.6433],[-85.9845,12.631,451.6412],[-85.9742,12.6301,537.0623],[-85.9639,12.6257,417.6223],[-85.9575,12.6274,507.513],[-85.9476,12.6366,449.0429],[-85.9412,12.6366,369.8465],[-85.9359,12.6322,373.5254],[-85.9252,12.6171,441.6235],[-85.9159,12.6177,396.2635],[-85.8872,12.6096,406.887],[-85.8619,12.6161,385.8674]]]]}
,"properties": {"GID_2": "NIC.15.12_1","GID_0": "NIC","country": "Nicaragua","GID_1": "NIC.15_1","province": "Matagalpa","NL_NAME_1": "NA","county": "Terrabona","VARNAME_2": "NA","NL_NAME_2": "NA","TYPE_2": "Municipio","ENGTYPE_2": "Municipality","CC_2": "NA","HASC_2": "NI.MT.TE","name": "Terrabona.county","area_km2": 299.604,"hist_schema_id": "Elevation0-9000","hist_area_km2": {"325": 2.7927,"350": 4.1168,"375": 12.4752,"400": 31.1975,"425": 18.1429,"450": 14.3773,"475": 15.3488,"500": 15.4721,"525": 15.9269,"550": 15.2438,"575": 13.5063,"600": 11.5824,"625": 10.4033,"650": 9.2037,"675": 9.555,"700": 8.8932,"725": 9.8443,"750": 8.6034,"775": 8.3551,"800": 8.4584,"825": 7.7553,"850": 8.417,"875": 6.8868,"900": 6.2454,"925": 4.6736,"950": 4.7356,"975": 5.5626,"1000": 4.1564,"1025": 3.2259,"1050": 2.0059,"1075": 1.034,"1100": 0.5584,"1125": 0.3309,"1150": 0.3929,"1175": 0.1034,"1200": 0.0207}}}