{"type": "Feature","bbox": [-84.1587,12.0663,-83.6651,12.5496],"geometry": {"type": "MultiPolygon","coordinates": [[[[-83.7426,12.1673,0.0],[-83.7424,12.171,0.0],[-83.7385,12.1732,0.0],[-83.7346,12.1721,8.694],[-83.7329,12.1675,8.4145],[-83.7299,12.1674,0.0],[-83.7301,12.1687,0.0],[-83.7276,12.1673,5.5124],[-83.6953,12.1667,10.9509],[-83.6886,12.1733,6.2803],[-83.6857,12.174,3.8523],[-83.6837,12.1826,8.41],[-83.6818,12.1846,5.1075],[-83.6793,12.184,0.9763],[-83.6799,12.1996,2.0119],[-83.6729,12.2371,0.0],[-83.6651,12.2668,7.1797],[-83.6696,12.2681,5.1434],[-83.7185,12.2432,11.197],[-83.768,12.326,13.5059],[-83.7753,12.3224,10.0638],[-83.7867,12.3206,3.2856],[-83.8006,12.3193,3.2933],[-83.8041,12.3206,3.6236],[-83.8141,12.3329,11.9116],[-83.8192,12.3348,12.9724],[-83.8255,12.3331,27.2034],[-83.8303,12.3337,53.5123],[-83.8459,12.3516,17.082],[-83.8596,12.362,6.8061],[-83.874,12.3662,24.7123],[-83.8938,12.3782,21.7898],[-83.9137,12.4,15.5071],[-83.9202,12.4023,23.5481],[-83.9462,12.405,45.9285],[-83.9714,12.4185,52.8338],[-83.9862,12.4235,50.1543],[-84.009,12.4351,52.5062],[-84.0095,12.4374,46.8024],[-83.9584,12.5496,124.6694],[-84.0543,12.5401,53.6678],[-84.0911,12.5403,59.0384],[-84.1136,12.5359,66.2933],[-84.1587,12.5314,231.4953],[-84.1445,12.5094,127.8449],[-84.1225,12.4664,108.6385],[-84.1116,12.4358,45.4677],[-84.085,12.3786,45.941],[-84.0716,12.3438,22.8149],[-84.0584,12.2982,21.6446],[-84.0526,12.2926,18.1549],[-84.0315,12.2806,14.8948],[-84.0105,12.2609,15.8199],[-84.0051,12.2586,12.6153],[-83.9979,12.0863,2.7646],[-83.9845,12.0847,1.2056],[-83.9793,12.0815,6.3304],[-83.9723,12.0711,14.3492],[-83.962,12.0663,13.876],[-83.955,12.0695,2.8103],[-83.9524,12.0754,4.7493],[-83.9447,12.0814,14.2285],[-83.9395,12.088,7.9907],[-83.9325,12.1024,6.9094],[-83.9232,12.1054,1.7511],[-83.9136,12.1024,1.1038],[-83.8985,12.1039,1.0216],[-83.8915,12.1076,0.7791],[-83.8926,12.1227,0.5],[-83.88,12.1264,0.8161],[-83.8623,12.1286,0.8922],[-83.8527,12.1371,0.9402],[-83.8371,12.1445,1.3886],[-83.8213,12.1483,1.331],[-83.8043,12.1487,2.3205],[-83.7858,12.1443,3.6375],[-83.7803,12.1416,5.12],[-83.7767,12.1447,0.0],[-83.7698,12.1436,0.0],[-83.7565,12.1468,7.9646],[-83.7525,12.1486,11.2366],[-83.7457,12.1628,1.5381],[-83.7466,12.1654,2.5552],[-83.7426,12.1673,0.0]]]]}
,"properties": {"GID_2": "NIC.2.4_1","GID_0": "NIC","country": "Nicaragua","GID_1": "NIC.2_1","province": "AtlánticoSur","NL_NAME_1": "NA","county": "KukraHill","VARNAME_2": "NA","NL_NAME_2": "NA","TYPE_2": "Municipio","ENGTYPE_2": "Municipality","CC_2": "NA","HASC_2": "NI.AS.KH","name": "Kukra_Hill.county","area_km2": 1180.5635,"hist_schema_id": "Elevation0-9000","hist_area_km2": {"0": 335.5242,"25": 465.1135,"50": 236.7202,"75": 107.0977,"100": 21.8642,"125": 9.4822,"150": 3.4161,"175": 0.8487,"200": 0.3312,"225": 0.1035,"250": 0.0207,"275": 0.0207,"300": 0.0207}}}