{"type": "Feature","bbox": [-86.5593,13.4955,-86.3779,13.5962],"geometry": {"type": "MultiPolygon","coordinates": [[[[-86.3884,13.5363,1044.4445],[-86.3911,13.5421,982.2645],[-86.3786,13.568,769.7624],[-86.3779,13.5723,780.6296],[-86.3814,13.5768,835.3619],[-86.386,13.5782,919.7184],[-86.4285,13.587,721.4956],[-86.455,13.5888,904.8448],[-86.4812,13.5958,632.7723],[-86.4996,13.5962,767.3084],[-86.5206,13.593,742.2596],[-86.5419,13.5863,585.0389],[-86.5593,13.5738,569.9098],[-86.5485,13.5554,709.9318],[-86.5368,13.5421,708.5137],[-86.5248,13.532,762.4429],[-86.5141,13.5264,876.1041],[-86.4729,13.5121,721.4707],[-86.4534,13.5028,701.6342],[-86.443,13.4955,647.5658],[-86.4179,13.5075,694.8254],[-86.4183,13.5221,804.0913],[-86.4156,13.5261,882.4938],[-86.4073,13.5307,947.0656],[-86.3884,13.5363,1044.4445]]]]}
,"properties": {"GID_2": "NIC.12.8_1","GID_0": "NIC","country": "Nicaragua","GID_1": "NIC.12_1","province": "Madriz","NL_NAME_1": "NA","county": "Totogalpa","VARNAME_2": "Totolgalpa","NL_NAME_2": "NA","TYPE_2": "Municipio","ENGTYPE_2": "Municipality","CC_2": "NA","HASC_2": "NI.MD.TO","name": "Totogalpa.county","area_km2": 136.8207,"hist_schema_id": "Elevation0-9000","hist_area_km2": {"550": 0.103,"575": 0.474,"600": 2.0197,"625": 4.39,"650": 7.2346,"675": 10.5118,"700": 13.4182,"725": 15.9951,"750": 15.9951,"775": 13.5833,"800": 11.7075,"825": 9.4196,"850": 7.0699,"875": 5.5446,"900": 4.9262,"925": 4.246,"950": 3.3391,"975": 1.9993,"1000": 1.113,"1025": 0.9275,"1050": 0.6596,"1075": 0.3504,"1100": 0.4534,"1125": 0.3298,"1150": 0.2061,"1175": 0.1649,"1200": 0.103,"1225": 0.103,"1250": 0.1237,"1275": 0.0824,"1300": 0.1855,"1325": 0.0412}}}