{"type": "Feature","bbox": [-85.7114,12.6359,-85.4111,12.8257],"geometry": {"type": "MultiPolygon","coordinates": [[[[-85.4111,12.698,324.7614],[-85.4237,12.7123,292.6313],[-85.4356,12.7207,237.4406],[-85.454,12.7277,324.9259],[-85.4615,12.7323,325.303],[-85.4831,12.7682,285.5922],[-85.4872,12.7718,246.5177],[-85.4971,12.7759,247.1634],[-85.5146,12.775,250.5646],[-85.5201,12.7776,248.6941],[-85.5285,12.7881,269.5222],[-85.5286,12.7946,253.2261],[-85.5266,12.8001,242.5228],[-85.5282,12.8056,251.0344],[-85.537,12.8075,256.6698],[-85.5559,12.8069,284.7614],[-85.5617,12.8133,266.8329],[-85.5759,12.8151,286.2785],[-85.5884,12.8257,275.1091],[-85.5979,12.8167,273.4499],[-85.6108,12.8167,321.1707],[-85.6175,12.8011,336.1273],[-85.6263,12.7938,423.2379],[-85.6339,12.7959,292.4569],[-85.651,12.8104,417.0554],[-85.6571,12.8118,290.4833],[-85.6622,12.8091,301.3607],[-85.6705,12.8124,367.9606],[-85.7005,12.7991,340.4549],[-85.7044,12.7952,301.9702],[-85.7088,12.7838,309.4826],[-85.7114,12.7626,323.3101],[-85.7073,12.7224,708.4904],[-85.7043,12.7029,1066.3496],[-85.6973,12.6799,569.4655],[-85.6914,12.672,512.202],[-85.678,12.662,582.9246],[-85.6528,12.6503,417.2725],[-85.6362,12.6448,407.7515],[-85.6304,12.6413,489.1831],[-85.6279,12.6359,412.6625],[-85.6173,12.6381,555.5084],[-85.6114,12.6429,503.1932],[-85.6071,12.6442,641.6652],[-85.6006,12.6402,488.6237],[-85.5962,12.6395,446.4013],[-85.5929,12.6449,512.7357],[-85.5838,12.65,330.0163],[-85.5638,12.65,462.554],[-85.5599,12.6531,398.6656],[-85.5531,12.6707,289.6418],[-85.5481,12.6764,281.8616],[-85.541,12.6798,293.9167],[-85.5279,12.6827,248.4776],[-85.5229,12.6829,264.3824],[-85.5157,12.6795,281.4805],[-85.5114,12.6798,309.8549],[-85.4988,12.6882,297.3128],[-85.4861,12.6845,371.446],[-85.4703,12.6824,274.6208],[-85.4542,12.6689,303.4644],[-85.4457,12.6666,369.4196],[-85.4337,12.6814,339.5719],[-85.4202,12.6865,330.6791],[-85.4111,12.698,324.7614]]]]}
,"properties": {"GID_2": "NIC.15.5_1","GID_0": "NIC","country": "Nicaragua","GID_1": "NIC.15_1","province": "Matagalpa","NL_NAME_1": "NA","county": "MuyMuy","VARNAME_2": "NA","NL_NAME_2": "NA","TYPE_2": "Municipio","ENGTYPE_2": "Municipality","CC_2": "NA","HASC_2": "NI.MT.MM","name": "Muy_Muy.county","area_km2": 420.4256,"hist_schema_id": "Elevation0-9000","hist_area_km2": {"225": 1.3857,"250": 43.6969,"275": 90.9066,"300": 67.0442,"325": 46.1185,"350": 22.9974,"375": 16.6281,"400": 14.312,"425": 11.0239,"450": 9.6176,"475": 9.7624,"500": 9.7419,"525": 7.5082,"550": 7.8391,"575": 7.8183,"600": 7.9217,"625": 5.9775,"650": 5.2949,"675": 4.8606,"700": 4.4676,"725": 3.8678,"750": 2.875,"775": 2.3372,"800": 1.9856,"825": 1.4685,"850": 1.0962,"875": 1.0342,"900": 0.9721,"925": 1.1583,"950": 1.1376,"975": 1.2203,"1000": 1.3444,"1025": 1.3031,"1050": 1.0962,"1075": 0.8687,"1100": 0.5998,"1125": 0.5585,"1150": 0.2275,"1175": 0.2275,"1200": 0.1034,"1225": 0.0207}}}