{"type":"Feature","properties":{"GID_2":"NIC.15.4_1","GID_0":"NIC","country":"Nicaragua","GID_1":"NIC.15_1","province":"Matagalpa","NL_NAME_1":"NA","county":"Matiguás","VARNAME_2":"NA","NL_NAME_2":"NA","TYPE_2":"Municipio","ENGTYPE_2":"Municipality","CC_2":"NA","HASC_2":"NI.MT.MS","name":"Matiguás.county"},
"geometry":{"type": "MultiPolygon","coordinates": [[[[-85.2075,12.7968,184.5303],[-85.2091,12.7992,184.1853],[-85.2168,12.8033,190.4859],[-85.2222,12.8104,183.8347],[-85.2417,12.8261,200.6099],[-85.2522,12.8495,209.7745],[-85.2793,12.8842,229.5564],[-85.2917,12.8964,254.8435],[-85.317,12.9145,391.2736],[-85.3223,12.9213,342.0548],[-85.3245,12.9347,347.2744],[-85.321,12.961,299.0424],[-85.3175,12.9647,277.7431],[-85.3031,12.9695,324.3058],[-85.3007,12.9748,275.3733],[-85.3007,12.9798,295.0927],[-85.3059,12.9845,239.7919],[-85.3244,12.9928,233.9547],[-85.3332,12.9984,241.6276],[-85.3435,13.0187,417.3217],[-85.3543,13.0345,339.3742],[-85.3757,13.045,434.3752],[-85.3817,13.0504,246.8088],[-85.3878,13.0606,432.0365],[-85.3886,13.0731,167.9484],[-85.3905,13.0784,209.962],[-85.402,13.0653,387.4661],[-85.4073,13.0625,438.1512],[-85.4169,13.0607,303.5629],[-85.4484,13.078,274.3928],[-85.4549,13.0795,320.8887],[-85.4633,13.0771,392.3497],[-85.4754,13.0661,263.171],[-85.4829,13.0635,222.5216],[-85.4861,13.0639,314.6245],[-85.5036,13.0743,454.4075],[-85.5153,13.078,358.1575],[-85.5235,13.0729,407.7131],[-85.531,13.0707,349.0406],[-85.5662,13.0769,606.6936],[-85.5795,13.0703,335.0137],[-85.5808,13.0674,310.368],[-85.5796,13.0595,341.5518],[-85.5882,13.054,435.3465],[-85.6359,13.0421,545.4338],[-85.6411,13.0417,603.0596],[-85.6508,13.0443,522.7487],[-85.6575,13.0287,659.1022],[-85.6622,12.9876,950.2314],[-85.6616,12.974,1116.884],[-85.6576,12.9594,1002.637],[-85.6541,12.951,689.5815],[-85.6239,12.9192,392.2041],[-85.6176,12.9073,342.4411],[-85.6113,12.8948,302.2379],[-85.5884,12.8257,275.1091],[-85.5759,12.8151,286.2785],[-85.5617,12.8133,266.8329],[-85.5559,12.8069,284.7614],[-85.537,12.8075,256.6698],[-85.5282,12.8056,251.0344],[-85.5266,12.8001,242.5228],[-85.5286,12.7946,253.2261],[-85.5285,12.7881,269.5222],[-85.5201,12.7776,248.6941],[-85.5146,12.775,250.5646],[-85.4971,12.7759,247.1634],[-85.4872,12.7718,246.5177],[-85.4831,12.7682,285.5922],[-85.4732,12.7499,277.7573],[-85.4591,12.7301,317.3506],[-85.4356,12.7207,237.4406],[-85.4237,12.7123,292.6313],[-85.4111,12.698,324.7614],[-85.4065,12.7006,339.7111],[-85.3976,12.7022,351.6556],[-85.3782,12.6898,264.9361],[-85.3646,12.6852,246.6002],[-85.3609,12.6789,241.9799],[-85.3561,12.6634,249.2498],[-85.3538,12.6609,245.6734],[-85.3504,12.6617,236.6809],[-85.3438,12.6698,220.9033],[-85.3212,12.6674,224.2103],[-85.3171,12.6658,220.8898],[-85.3093,12.6544,298.0584],[-85.2933,12.6495,280.0173],[-85.2752,12.6479,311.1397],[-85.2704,12.6446,329.6608],[-85.269,12.6413,265.5286],[-85.2706,12.6365,283.9487],[-85.2766,12.63,288.8018],[-85.277,12.6259,252.9563],[-85.2736,12.6238,249.1437],[-85.2606,12.6245,231.72559999999999],[-85.2526,12.6225,238.60059999999999],[-85.2469,12.6317,264.3022],[-85.2433,12.6311,267.9196],[-85.231,12.6184,187.7588],[-85.2175,12.5919,228.9087],[-85.2147,12.5889,277.4646],[-85.2101,12.5875,228.8419],[-85.2016,12.5944,221.8326],[-85.1961,12.5954,226.256],[-85.1849,12.5947,249.7562],[-85.1744,12.5917,216.2676],[-85.1671,12.5949,263.683],[-85.1644,12.599,293.4094],[-85.1632,12.6052,246.714],[-85.1659,12.6214,328.4047],[-85.1616,12.6259,209.4709],[-85.1665,12.6309,230.8159],[-85.1741,12.6452,201.0744],[-85.1917,12.6638,199.4375],[-85.2079,12.7004,274.167],[-85.2092,12.7246,260.2734],[-85.2217,12.7363,278.1337],[-85.2267,12.7444,279.0607],[-85.2283,12.7541,247.4747],[-85.2256,12.7736,319.7268],[-85.2075,12.7968,184.5303]]]]}}