{"type": "Feature","bbox": [-84.7961,11.9108,-84.3515,12.3516],"geometry": {"type": "MultiPolygon","coordinates": [[[[-84.7809,12.2623,206.5318],[-84.7819,12.2574,222.8917],[-84.7961,12.234,307.5241],[-84.7957,12.2235,359.8258],[-84.7877,12.2015,247.1298],[-84.7849,12.1793,213.445],[-84.7769,12.1597,243.0028],[-84.7684,12.132,436.2814],[-84.7524,12.1096,270.9966],[-84.7434,12.0921,126.319],[-84.7399,12.0732,229.8684],[-84.7344,12.0062,177.7948],[-84.7311,11.9893,121.4624],[-84.7231,11.9786,127.847],[-84.7084,11.9674,111.3493],[-84.6802,11.9576,132.6539],[-84.6553,11.9462,115.6333],[-84.6189,11.9329,98.9236],[-84.573,11.9108,161.0593],[-84.562,11.9276,84.672],[-84.5514,11.9329,79.7186],[-84.5421,11.94,201.2292],[-84.5342,11.9411,203.9781],[-84.5143,11.9399,89.8704],[-84.5063,11.9433,88.5463],[-84.498,11.9629,84.7251],[-84.5005,11.9772,70.8652],[-84.4992,11.9796,74.9449],[-84.4812,11.9819,115.9814],[-84.4758,11.9796,116.3856],[-84.469,11.9683,104.2928],[-84.4642,11.9644,99.6221],[-84.4549,11.9617,69.3496],[-84.4203,11.9594,78.6385],[-84.3965,11.953,56.5435],[-84.3914,11.9547,55.6024],[-84.3844,11.96,68.949],[-84.3673,11.9635,108.1327],[-84.3593,11.9795,66.261],[-84.3563,11.9826,96.1063],[-84.3515,11.9841,118.7138],[-84.3561,11.9904,75.2086],[-84.3717,11.9955,118.3518],[-84.3945,11.9959,129.6287],[-84.4191,12.0011,143.8446],[-84.4285,12.0053,146.4637],[-84.432,12.0135,167.6617],[-84.4246,12.0214,148.5815],[-84.4237,12.0233,143.2007],[-84.425,12.0265,160.9628],[-84.4349,12.0309,220.2973],[-84.446,12.0399,240.1226],[-84.4499,12.0453,226.8922],[-84.4522,12.0529,204.2009],[-84.4518,12.0616,379.8304],[-84.4424,12.0744,240.798],[-84.4419,12.088,266.1195],[-84.4432,12.0944,280.6768],[-84.4461,12.0992,201.1616],[-84.4531,12.1079,83.4666],[-84.4839,12.1345,266.5993],[-84.505,12.1658,442.8458],[-84.5439,12.2146,237.4673],[-84.5603,12.2297,170.899],[-84.5808,12.2374,160.7377],[-84.581,12.2754,165.3333],[-84.5701,12.3167,102.3321],[-84.5701,12.334,87.5055],[-84.5729,12.341,83.935],[-84.5817,12.3487,99.321],[-84.5867,12.3516,91.1533],[-84.5907,12.3516,105.7122],[-84.6038,12.3438,157.8834],[-84.6216,12.3386,177.764],[-84.6458,12.3363,231.0087],[-84.6707,12.3152,150.5419],[-84.678,12.3123,196.0317],[-84.6815,12.312,234.1455],[-84.6965,12.3174,156.7007],[-84.7067,12.3174,227.3143],[-84.7396,12.3062,171.7343],[-84.7468,12.2991,171.853],[-84.7551,12.2773,184.9619],[-84.7598,12.2705,190.3589],[-84.7731,12.2635,235.4648],[-84.7809,12.2623,206.5318]]]]}
,"properties": {"GID_2": "NIC.2.7_1","GID_0": "NIC","country": "Nicaragua","GID_1": "NIC.2_1","province": "AtlánticoSur","NL_NAME_1": "NA","county": "MuelledelosBueyes","VARNAME_2": "NA","NL_NAME_2": "NA","TYPE_2": "Municipio","ENGTYPE_2": "Municipality","CC_2": "NA","HASC_2": "NI.AS.MB","name": "Muelledelos_Bueyes.county","area_km2": 1227.2707,"hist_schema_id": "Elevation0-9000","hist_area_km2": {"25": 1.244,"50": 14.4742,"75": 86.2722,"100": 165.5844,"125": 130.0892,"150": 110.357,"175": 129.6318,"200": 128.832,"225": 118.5271,"250": 105.3679,"275": 88.393,"300": 64.4965,"325": 36.0206,"350": 22.9225,"375": 13.5341,"400": 6.6326,"425": 3.0054,"450": 1.4301,"475": 0.3109,"500": 0.1243,"525": 0.0207}}}