{"type":"Feature","properties":{"GID_2":"NIC.12.2_1","GID_0":"NIC","country":"Nicaragua","GID_1":"NIC.12_1","province":"Madriz","NL_NAME_1":"NA","county":"Palacagüina","VARNAME_2":"NA","NL_NAME_2":"NA","TYPE_2":"Municipio","ENGTYPE_2":"Municipality","CC_2":"NA","HASC_2":"NI.MD.PA","name":"Palacagüina.county"},
"geometry":{"type": "MultiPolygon","coordinates": [[[[-86.3104,13.4289,868.2817],[-86.3182,13.4744,496.6389],[-86.3555,13.4848,615.2921],[-86.3645,13.4897,646.7366],[-86.3635,13.5006,764.8811],[-86.3677,13.5164,870.1153],[-86.3816,13.5317,897.3288],[-86.3884,13.5363,1044.4445],[-86.4073,13.5307,947.0656],[-86.4156,13.5261,882.4938],[-86.4183,13.5221,804.0913],[-86.4179,13.5075,694.8254],[-86.443,13.4955,647.5658],[-86.4503,13.4881,656.8828],[-86.4616,13.4676,763.0145],[-86.4689,13.4403,728.986],[-86.4726,13.4379,666.2767],[-86.4842,13.435,703.2836],[-86.486,13.4319,743.9385],[-86.4864,13.4255,680.5648],[-86.485,13.4184,677.0238],[-86.4691,13.4135,664.0659],[-86.4455,13.403,623.0576],[-86.435,13.4017,608.3358],[-86.418,13.4038,561.4178],[-86.3967,13.4108,537.1899],[-86.3717,13.4147,559.5806],[-86.334,13.425,885.1537],[-86.3104,13.4289,868.2817]]]]}}