{"type": "Feature","bbox": [-86.7852,13.6452,-86.6429,13.7871],"geometry": {"type": "MultiPolygon","coordinates": [[[[-86.7622,13.6452,682.6507],[-86.7513,13.6522,781.5868],[-86.7378,13.6567,774.298],[-86.7123,13.6522,534.9236],[-86.7057,13.6523,498.935],[-86.7005,13.6615,537.8838],[-86.6801,13.6745,742.9515],[-86.6772,13.6803,1003.8755],[-86.6774,13.685,1061.4047],[-86.6798,13.6903,1008.962],[-86.6785,13.6957,974.4434],[-86.6647,13.7005,1098.9691],[-86.6572,13.7056,1052.9597],[-86.6475,13.7215,1060.4027],[-86.6429,13.7577,1135.4467],[-86.6472,13.7782,910.9709],[-86.6537,13.7778,860.7502],[-86.6669,13.7829,805.1322],[-86.7153,13.7871,786.9289],[-86.7244,13.7846,761.4111],[-86.7415,13.7742,574.3412],[-86.7485,13.7735,558.8849],[-86.7569,13.7747,495.1849],[-86.7628,13.7731,388.1918],[-86.7682,13.7499,323.4904],[-86.7619,13.7208,288.6346],[-86.763,13.7146,309.8837],[-86.7705,13.6939,358.1765],[-86.7852,13.6651,694.647],[-86.785,13.6567,755.5912],[-86.7832,13.6532,799.9449],[-86.7622,13.6452,682.6507]]]]}
,"properties": {"GID_2": "NIC.16.11_1","GID_0": "NIC","country": "Nicaragua","GID_1": "NIC.16_1","province": "NuevaSegovia","NL_NAME_1": "NA","county": "SantaMaría","VARNAME_2": "NA","NL_NAME_2": "NA","TYPE_2": "Municipio","ENGTYPE_2": "Municipality","CC_2": "NA","HASC_2": "NI.NS.SM","name": "Santa_María.county","area_km2": 167.6814,"hist_schema_id": "Elevation0-9000","hist_area_km2": {"275": 0.206,"300": 2.6571,"325": 4.6552,"350": 5.8705,"375": 4.6346,"400": 4.2638,"425": 4.2227,"450": 4.2433,"475": 4.1197,"500": 4.0373,"525": 4.9231,"550": 5.8295,"575": 5.4997,"600": 7.0035,"625": 6.3854,"650": 6.447,"675": 5.1288,"700": 6.447,"725": 9.104,"750": 9.3304,"775": 8.6712,"800": 7.5178,"825": 5.9319,"850": 5.2931,"875": 4.2222,"900": 4.4073,"925": 4.3249,"950": 3.5835,"975": 2.8832,"1000": 2.8626,"1025": 2.5743,"1050": 2.0595,"1075": 1.8124,"1100": 1.7919,"1125": 1.5859,"1150": 0.9268,"1175": 0.9886,"1200": 0.4325,"1225": 0.4325,"1250": 0.1854,"1275": 0.1853}}}