{"type": "Feature","bbox": [-86.1173,11.8971,-85.9699,12.1262],"geometry": {"type": "MultiPolygon","coordinates": [[[[-85.9699,12.0072,40.8343],[-85.9773,12.0112,41.7961],[-86.0245,12.0249,115.629],[-86.0589,12.0372,191.334],[-86.0604,12.0736,135.9654],[-86.0653,12.1189,86.0916],[-86.0684,12.1262,82.4735],[-86.0789,12.1241,101.8306],[-86.098,12.1256,104.3612],[-86.0961,12.1194,114.9953],[-86.0951,12.1036,137.1641],[-86.0982,12.075,181.4355],[-86.1035,12.0488,209.6351],[-86.1028,12.0398,208.7673],[-86.0964,12.0286,210.7046],[-86.099,12.0032,219.8421],[-86.1026,11.9837,232.7029],[-86.1165,11.9787,123.0],[-86.1173,11.977,123.0],[-86.1151,11.9727,123.0],[-86.1132,11.9604,123.0],[-86.1128,11.9427,275.3097],[-86.1118,11.9429,275.3097],[-86.1088,11.937,303.7847],[-86.1013,11.9153,432.2516],[-86.0987,11.8971,450.3189],[-86.0838,11.915,487.4164],[-86.0656,11.9247,341.6008],[-86.0555,11.9263,75.831],[-86.0486,11.9232,73.0],[-86.0459,11.9239,73.0],[-86.0395,11.9218,73.0],[-86.0249,11.9252,73.0],[-86.0236,11.9331,73.0],[-86.016,11.9483,204.5909],[-86.0069,11.9574,158.6538],[-85.9699,12.0072,40.8343]]]]}
,"properties": {"GID_2": "NIC.14.4_1","GID_0": "NIC","country": "Nicaragua","GID_1": "NIC.14_1","province": "Masaya","NL_NAME_1": "NA","county": "Masaya","VARNAME_2": "NA","NL_NAME_2": "NA","TYPE_2": "Municipio","ENGTYPE_2": "Municipality","CC_2": "NA","HASC_2": "NI.MS.MY","name": "Masaya.county","area_km2": 182.648,"hist_schema_id": "Elevation0-9000","hist_area_km2": {"50": 5.3713,"75": 14.3737,"100": 12.4618,"125": 20.1975,"150": 17.7091,"175": 16.9836,"200": 19.037,"225": 22.2527,"250": 21.2794,"275": 6.8656,"300": 5.0611,"325": 3.63,"350": 3.1737,"375": 2.7382,"400": 2.8834,"425": 2.925,"450": 3.174,"475": 1.4107,"500": 0.4149,"525": 0.2697,"550": 0.2074,"575": 0.1245,"600": 0.1037}}}