{"type": "Feature","bbox": [-86.621,12.1505,-86.0951,12.4917],"geometry": {"type": "MultiPolygon","coordinates": [[[[-86.409,12.4592,40.0],[-86.4113,12.456,40.0],[-86.4402,12.4504,40.0],[-86.4635,12.4389,40.0],[-86.4738,12.4308,41.7346],[-86.478,12.4254,42.0493],[-86.4901,12.3979,40.0],[-86.4938,12.3928,40.0],[-86.5008,12.3868,40.0],[-86.5119,12.3819,40.0],[-86.5404,12.3835,40.0],[-86.5564,12.3921,40.0],[-86.5885,12.4045,40.0],[-86.5927,12.4081,40.0],[-86.5917,12.4104,40.0],[-86.5853,12.4112,40.0],[-86.5845,12.4141,42.8086],[-86.588,12.4205,40.0],[-86.5911,12.4227,40.0],[-86.5961,12.4227,41.1555],[-86.6064,12.417,41.1066],[-86.6207,12.4037,60.4594],[-86.621,12.3994,67.9365],[-86.619,12.3953,56.9258],[-86.6132,12.3877,44.7975],[-86.6189,12.3621,56.1874],[-86.6186,12.3578,94.0539],[-86.6059,12.3394,57.7472],[-86.5992,12.3173,52.4206],[-86.5897,12.3116,46.8761],[-86.5736,12.3106,40.0],[-86.5531,12.3051,45.8845],[-86.5385,12.2972,40.0],[-86.5281,12.2886,53.0016],[-86.5086,12.2844,40.0],[-86.4949,12.2796,40.0],[-86.4367,12.2442,40.0],[-86.4249,12.2413,40.0],[-86.4178,12.2423,40.0],[-86.413,12.2451,40.0],[-86.4043,12.2542,40.0],[-86.398,12.2649,40.8931],[-86.3847,12.2754,48.601],[-86.373,12.2824,44.7081],[-86.3555,12.2892,46.258],[-86.3417,12.2879,57.4933],[-86.3312,12.2897,51.7364],[-86.3227,12.2882,52.6967],[-86.3174,12.282,58.9903],[-86.3085,12.2755,49.1947],[-86.3045,12.2699,45.8052],[-86.2967,12.2478,50.5863],[-86.2966,12.2355,76.6234],[-86.294,12.2286,45.5279],[-86.2933,12.2206,47.7637],[-86.295,12.2099,40.0],[-86.2985,12.2029,40.0],[-86.3046,12.197,40.0],[-86.3323,12.1787,40.0],[-86.3331,12.1703,40.6248],[-86.3253,12.1597,40.0],[-86.3206,12.1567,64.9863],[-86.3133,12.1568,56.0005],[-86.3091,12.1593,51.3496],[-86.2926,12.1591,55.3479],[-86.2526,12.1505,66.9078],[-86.2262,12.1558,62.825],[-86.1934,12.1551,63.6815],[-86.1866,12.1572,57.0535],[-86.1757,12.1642,46.4291],[-86.1513,12.161,46.3278],[-86.1269,12.1635,49.0692],[-86.117,12.1665,45.6937],[-86.1137,12.1695,44.8075],[-86.1073,12.1878,45.1536],[-86.1084,12.2029,40.0],[-86.107,12.2195,43.8684],[-86.0985,12.2548,53.537],[-86.0979,12.2628,48.4136],[-86.1014,12.2889,40.0],[-86.1007,12.2914,42.2811],[-86.0957,12.2955,46.4392],[-86.0951,12.2987,47.1987],[-86.0963,12.3007,44.6829],[-86.0987,12.2992,43.7682],[-86.1013,12.3014,40.0],[-86.0985,12.3145,40.0],[-86.1021,12.3172,40.0],[-86.1113,12.3193,40.0],[-86.1159,12.3241,40.0],[-86.1226,12.3247,40.0],[-86.133,12.3297,40.0],[-86.1363,12.3288,40.0],[-86.1538,12.3089,40.0],[-86.1708,12.2963,40.0],[-86.1976,12.2652,40.0],[-86.2015,12.2621,40.0],[-86.2042,12.2629,40.0],[-86.2056,12.265,40.0],[-86.2073,12.297,40.6316],[-86.2136,12.3219,40.0],[-86.2202,12.3402,40.0],[-86.2309,12.3594,40.0],[-86.2398,12.3829,40.0],[-86.2477,12.3929,40.0],[-86.2645,12.3999,40.0],[-86.2704,12.4006,40.0],[-86.2725,12.4027,40.0],[-86.2657,12.4083,40.0],[-86.2655,12.4107,40.0],[-86.268,12.4128,40.0],[-86.271,12.4122,40.0],[-86.2777,12.4055,40.0],[-86.2807,12.4049,40.0],[-86.2826,12.4073,40.0],[-86.2808,12.4176,40.0],[-86.2736,12.4308,40.0],[-86.2731,12.4386,40.0],[-86.2778,12.4505,40.0],[-86.2791,12.4669,40.0],[-86.2895,12.4868,40.0],[-86.2991,12.4895,40.0],[-86.3094,12.4881,40.0],[-86.3215,12.4916,40.0],[-86.3296,12.4917,40.0],[-86.3366,12.4863,40.0],[-86.3462,12.47,40.0],[-86.3594,12.4625,40.0],[-86.3693,12.4674,40.0],[-86.3787,12.4696,40.0],[-86.409,12.4592,40.0]],
[[-86.4856,12.3463,40.0],[-86.4875,12.3546,40.0],[-86.4858,12.3587,40.0],[-86.4807,12.3604,40.0],[-86.4697,12.3577,97.7347],[-86.4677,12.3553,89.8732],[-86.4685,12.3507,105.6514],[-86.4795,12.3407,40.0],[-86.4817,12.3401,40.0],[-86.4856,12.3463,40.0]]]]}
,"properties": {"GID_2": "NIC.13.1_1","GID_0": "NIC","country": "Nicaragua","GID_1": "NIC.13_1","province": "Managua","NL_NAME_1": "NA","county": "LagodeManagua","VARNAME_2": "NA","NL_NAME_2": "NA","TYPE_2": "Waterbody","ENGTYPE_2": "Waterbody","CC_2": "NA","HASC_2": "lake","name": "Lagode_Managua.county","area_km2": 1038.5855,"hist_schema_id": "Elevation0-9000","hist_area_km2": {"50": 1036.0582,"75": 2.0301,"100": 0.3522,"125": 0.0829,"150": 0.0414,"200": 0.0207}}}