{"type":"Feature","properties":{"GID_2":"NIC.2.5_1","GID_0":"NIC","country":"Nicaragua","GID_1":"NIC.2_1","province":"AtlánticoSur","NL_NAME_1":"NA","county":"LaCruzdeRíoGrande","VARNAME_2":"NA","NL_NAME_2":"NA","TYPE_2":"Municipio","ENGTYPE_2":"Municipality","CC_2":"NA","HASC_2":"NI.AS.LC","name":"La_Cruzde_Río_Grande.county"},
"geometry":{"type": "MultiPolygon","coordinates": [[[[-84.7437,13.2201,82.6505],[-84.8002,13.1427,63.853],[-84.7942,13.1416,83.3441],[-84.792,13.1388,62.5232],[-84.7923,13.1314,67.1687],[-84.7792,13.1306,65.1473],[-84.7728,13.1253,73.7227],[-84.7623,13.0947,64.4179],[-84.7529,13.0745,40.9041],[-84.737799999999993,13.0601,66.1803],[-84.7353,13.0518,52.9683],[-84.7309,13.0497,66.3128],[-84.7198,13.0515,82.6845],[-84.7172,13.0506,81.9945],[-84.7234,13.0405,88.5407],[-84.7065,13.0043,105.0387],[-84.6886,12.9321,119.1047],[-84.6643,12.8764,189.1731],[-84.6554,12.8498,109.316],[-84.6437,12.8217,100.0961],[-84.6268,12.7962,92.3696],[-84.613,12.7701,77.535],[-84.6135,12.7587,73.7509],[-84.6176,12.754,82.0324],[-84.6388,12.7381,88.5661],[-84.6407,12.7299,85.5263],[-84.6365,12.6622,176.613],[-84.6347,12.6526,159.4532],[-84.6294,12.6436,163.4945],[-84.614,12.6334,180.1294],[-84.5862,12.6244,153.7366],[-84.5518,12.6207,114.0439],[-84.5363,12.6138,106.5694],[-84.5204,12.6047,122.2082],[-84.4981,12.5874,135.8045],[-84.4737,12.563,125.5473],[-84.4652,12.5465,122.9798],[-84.4658,12.5358,125.6524],[-84.4732,12.5058,110.6111],[-84.4738,12.4974,104.9584],[-84.4706,12.4769,93.2476],[-84.4647,12.4658,104.7501],[-84.4592,12.4626,114.8005],[-84.4516,12.4631,109.7741],[-84.4302,12.4753,63.983],[-84.4232,12.4744,59.3319],[-84.4166,12.4679,53.008],[-84.402,12.4473,66.5839],[-84.3939,12.4418,114.1229],[-84.3583,12.4355,44.7456],[-84.3483,12.4291,82.4391],[-84.3423,12.4298,88.7146],[-84.3234,12.4331,53.8444],[-84.2984,12.4418,56.2446],[-84.2699,12.4478,122.6988],[-84.233,12.4588,138.4664],[-84.225,12.4653,139.6081],[-84.2144,12.4782,143.1247],[-84.2024,12.4873,142.1447],[-84.1764,12.5159,207.53],[-84.1587,12.5314,231.4953],[-84.1136,12.5359,66.2933],[-84.0911,12.5403,59.0384],[-84.0543,12.5401,53.6678],[-83.9584,12.5496,124.6694],[-83.9537,12.5583,114.627],[-83.9489,12.5779,24.9242],[-83.9457,12.6071,36.836],[-83.9406,12.6327,32.7735],[-83.9669,12.6723,38.9726],[-83.9821,12.6998,48.0859],[-84.0001,12.7187,52.7909],[-84.0047,12.738,46.6236],[-84.009,12.7473,27.0553],[-84.0216,12.7597,26.3204],[-84.0295,12.7721,21.0133],[-84.0311,12.7787,13.7667],[-84.0272,12.7939,23.0249],[-84.0212,12.8028,14.023],[-84.0089,12.8152,35.1584],[-84.0029,12.8288,23.8462],[-83.9836,12.8364,1.8926],[-83.9811,12.8415,5.9483],[-83.9741,12.8338,0.9729],[-83.9636,12.8178,1.3487],[-83.9449,12.8146,3.399],[-83.9424,12.8152,8.3751],[-83.9393,12.8231,2.783],[-83.9362,12.824,5.4259],[-83.9323,12.8209,3.4091],[-83.928,12.8123,2.4637],[-83.9147,12.8017,2.0483],[-83.9029,12.7974,2.7083],[-83.893,12.7904,3.0128],[-83.889,12.7892,5.7277],[-83.8742,12.7941,2.2623],[-83.8675,12.7882,21.4332],[-83.8646,12.7892,16.8507],[-83.8544,12.8076,2.3058],[-83.8497,12.8088,3.6868],[-83.8335,12.8066,4.0962],[-83.827,12.8096,17.0275],[-83.8253,12.8129,9.9119],[-83.8237,12.8352,3.2017],[-83.8268,12.8352,3.0199],[-83.8327,12.8401,2.4098],[-83.8345,12.8515,0.505],[-83.8447,12.8665,0.7623],[-83.8546,12.8996,10.5136],[-83.8625,12.9035,8.6661],[-83.8759,12.8991,7.8485],[-83.884,12.8984,7.8976],[-83.8903,12.9025,13.2832],[-83.8957,12.9115,9.6596],[-83.9088,12.92,3.661],[-83.9371,12.9225,10.299],[-83.9519,12.9278,15.0289],[-83.9766,12.9396,7.1489],[-83.9943,12.9414,28.3671],[-84.0055,12.9449,20.9026],[-84.023,12.9537,20.6549],[-84.0326,12.9707,36.2191],[-84.0362,13.0036,35.7263],[-84.0218,13.0726,59.3715],[-84.0206,13.0943,31.9606],[-84.0213,13.1026,13.7482],[-84.0244,13.1112,35.732],[-84.0333,13.1199,41.2803],[-84.0353,13.1248,43.1355],[-84.0354,13.1273,41.4663],[-84.0293,13.1347,31.5543],[-84.0281,13.1395,29.5207],[-84.0312,13.1483,29.1506],[-84.0368,13.1573,18.1844],[-84.0393,13.1706,30.9014],[-84.0365,13.1793,23.8786],[-84.0178,13.1928,28.4148],[-84.0155,13.202,24.917],[-84.0081,13.2038,17.8536],[-84.0064,13.2098,20.1258],[-84.0082,13.2192,18.4329],[-84.0098,13.2186,23.597],[-84.0176,13.2224,9.4119],[-84.0224,13.2212,19.2976],[-84.0344,13.2106,7.1306],[-84.051,13.2054,9.6401],[-84.0566,13.2146,9.9964],[-84.0612,13.2182,19.1049],[-84.0684,13.2194,4.7975],[-84.0716,13.2132,7.155],[-84.0696,13.201,14.6434],[-84.0996,13.197,18.154],[-84.1132,13.1934,2.725],[-84.115,13.1944,4.2472],[-84.1208,13.2097,19.1772],[-84.1412,13.2851,8.575],[-84.144,13.2923,24.5666],[-84.147,13.2937,21.1305],[-84.1646,13.2927,10.1193],[-84.1772,13.2878,28.1716],[-84.1924,13.2882,17.1425],[-84.1984,13.2868,24.9837],[-84.2138,13.2772,30.7306],[-84.2257,13.2667,34.7814],[-84.2338,13.2645,23.241],[-84.2431,13.2662,16.9364],[-84.2471,13.2706,15.6153],[-84.2499,13.2801,17.5112],[-84.2552,13.2835,16.1434],[-84.2599,13.2825,29.0248],[-84.2638,13.2788,18.497],[-84.2717,13.28,30.9649],[-84.2769,13.2771,30.8051],[-84.2797,13.2776,19.4341],[-84.2847,13.282,28.037],[-84.2907,13.2821,34.144],[-84.3002,13.2771,29.795],[-84.3103,13.2645,31.7486],[-84.3211,13.2553,55.958],[-84.3356,13.256,58.3261],[-84.5326,13.2498,82.0996],[-84.5812,13.2417,54.7849],[-84.6079,13.2406,58.7125],[-84.7437,13.2201,82.6505]]]]}}