{"type":"Feature","properties":{"GID_2":"NIC.7.2_1","GID_0":"NIC","country":"Nicaragua","GID_1":"NIC.7_1","province":"Estelí","NL_NAME_1":"NA","county":"Estelí","VARNAME_2":"NA","NL_NAME_2":"NA","TYPE_2":"Municipio","ENGTYPE_2":"Municipality","CC_2":"NA","HASC_2":"NI.ES.ES","name":"Estelí.county"},
"geometry":{"type": "MultiPolygon","coordinates": [[[[-86.4595,13.2487,1361.5795],[-86.4561,13.2387,1265.804],[-86.4563,13.2323,1281.0641],[-86.4723,13.2061,962.6605],[-86.4749,13.1935,899.1413],[-86.4729,13.1232,1255.8406],[-86.4738,13.1144,1162.7725],[-86.4764,13.108,1037.0139],[-86.4635,13.0957,792.4167],[-86.4583,13.0865,901.2015],[-86.4512,13.066,811.4725],[-86.4459,13.0564,1171.3114],[-86.4224,13.0301,859.3936],[-86.4089,13.0112,1078.4722],[-86.4084,13.0052,1211.6958],[-86.4137,12.976,784.0164],[-86.379,12.9914,1472.6385],[-86.375,12.9908,1526.0369],[-86.3167,12.9662,947.9124],[-86.3152,12.9598,997.1767],[-86.3092,12.9738,1204.3811],[-86.294,13.0233,1350.4039],[-86.2906,13.0278,1330.2406],[-86.2782,13.0236,1011.1873],[-86.2681,13.0241,830.0043],[-86.2497,13.0519,646.4869],[-86.2126,13.0647,883.8661],[-86.1931,13.0682,904.2617],[-86.1817,13.0731,820.5663],[-86.1626,13.078,696.0011],[-86.1632,13.0817,816.9824],[-86.185,13.0937,850.1757],[-86.2157,13.1231,884.8124],[-86.2271,13.1384,1162.2629],[-86.2322,13.1531,1096.1091],[-86.2507,13.1646,1229.197],[-86.2611,13.1766,1352.666],[-86.2617,13.1853,1355.9081],[-86.2387,13.2228,1417.067],[-86.238,13.228,1394.1869],[-86.2425,13.2341,1394.2407],[-86.2448,13.2406,1376.941],[-86.2402,13.2435,1384.6415],[-86.2302,13.2448,1373.2079],[-86.2288,13.2472,1369.191],[-86.2312,13.2545,1173.7803],[-86.2371,13.2548,1147.8252],[-86.2488,13.249,1328.6213],[-86.2561,13.2494,1421.1534],[-86.3011,13.2606,1313.4218],[-86.369,13.2808,909.7139],[-86.3784,13.2783,872.3467],[-86.4409,13.2496,938.7683],[-86.4512,13.2478,1322.4355],[-86.4595,13.2487,1361.5795]]]]}}