{"type":"Feature","properties":{"GID_2":"NIC.6.6_1","GID_0":"NIC","country":"Nicaragua","GID_1":"NIC.6_1","province":"Chontales","NL_NAME_1":"NA","county":"SantoDomingo","VARNAME_2":"NA","NL_NAME_2":"NA","TYPE_2":"Municipio","ENGTYPE_2":"Municipality","CC_2":"NA","HASC_2":"NI.CO.SD","name":"Santo_Domingo.county"},
"geometry":{"type": "MultiPolygon","coordinates": [[[[-84.9069,12.5709,146.5483],[-84.9361,12.5716,166.9946],[-84.9496,12.5633,189.8069],[-84.9653,12.5456,404.3202],[-84.9909,12.5015,441.2613],[-84.9996,12.4837,441.9335],[-85.0119,12.434,273.9135],[-85.0248,12.3602,242.0903],[-85.0484,12.3501,224.9572],[-85.0682,12.353,245.0161],[-85.0758,12.3417,217.2752],[-85.0917,12.332,217.513],[-85.1045,12.315,239.6188],[-85.116,12.3051,245.5988],[-85.1076,12.2282,481.994],[-85.0833,12.24,488.0215],[-85.0605,12.2549,553.12],[-85.0389,12.2623,414.4001],[-84.989,12.2633,266.0673],[-84.9484,12.2716,283.1293],[-84.8848,12.2809,369.5732],[-84.8477,12.2885,298.2009],[-84.8171,12.2931,271.6071],[-84.8016,12.2934,277.939],[-84.8104,12.3078,339.4679],[-84.8209,12.3314,336.073],[-84.823,12.3342,346.1868],[-84.8299,12.3372,338.3814],[-84.8372,12.3432,346.3008],[-84.8491,12.3604,262.1971],[-84.863,12.3869,194.519],[-84.8694,12.4086,188.2102],[-84.8703,12.4149,133.6615],[-84.8691,12.4198,173.7828],[-84.862799999999993,12.4276,155.0035],[-84.8562,12.4414,143.4259],[-84.8465,12.4504,147.478],[-84.8453,12.4534,173.7263],[-84.8485,12.463,140.7429],[-84.8474,12.4654,134.2735],[-84.8358,12.4725,170.724],[-84.8489,12.4807,136.4167],[-84.8641,12.4848,155.3734],[-84.8733,12.4929,127.2781],[-84.8784,12.5008,120.0686],[-84.8899,12.5271,120.2928],[-84.8953,12.5516,134.5731],[-84.9053,12.5569,133.8376],[-84.9069,12.5709,146.5483]]]]}}