{"type": "Feature","bbox": [-85.9296,11.3267,-85.7855,11.4799],"geometry": {"type": "MultiPolygon","coordinates": [[[[-85.8939,11.4447,201.302],[-85.8982,11.4323,193.6202],[-85.8962,11.4267,164.1201],[-85.8897,11.4189,109.6724],[-85.8891,11.4126,100.924],[-85.8918,11.4099,221.4023],[-85.9039,11.4045,24.6795],[-85.9062,11.4019,31.5585],[-85.9072,11.3895,142.0516],[-85.9114,11.3832,150.2378],[-85.916,11.3799,124.9484],[-85.9289,11.3771,47.9521],[-85.9296,11.3741,75.4501],[-85.928,11.3558,72.175299999999993],[-85.9154,11.3405,74.3114],[-85.8987,11.3267,70.8655],[-85.8854,11.341,135.5692],[-85.8829,11.341,77.5195],[-85.8644,11.3314,69.8844],[-85.8469,11.3278,77.5374],[-85.839,11.328,59.579],[-85.8241,11.3325,55.8061],[-85.8079,11.3411,62.7209],[-85.7969,11.3495,43.319],[-85.7927,11.3547,43.432],[-85.7855,11.3695,41.0032],[-85.8011,11.3712,69.6117],[-85.8046,11.3736,69.4368],[-85.7993,11.4045,52.364],[-85.7993,11.4134,48.6736],[-85.802,11.4253,49.4704],[-85.8083,11.4364,59.2671],[-85.8189,11.4484,52.7083],[-85.8281,11.4488,60.9329],[-85.8346,11.4537,63.0267],[-85.8396,11.461,64.1192],[-85.847,11.478,62.5788],[-85.8494,11.4799,61.6891],[-85.8558,11.4688,73.5097],[-85.8683,11.4658,137.3615],[-85.8748,11.4588,111.8678],[-85.8786,11.4518,121.2752],[-85.8853,11.4457,146.2724],[-85.8939,11.4447,201.302]]]]}
,"properties": {"GID_2": "NIC.18.6_1","GID_0": "NIC","country": "Nicaragua","GID_1": "NIC.18_1","province": "Rivas","NL_NAME_1": "NA","county": "Rivas","VARNAME_2": "NA","NL_NAME_2": "NA","TYPE_2": "Municipio","ENGTYPE_2": "Municipality","CC_2": "NA","HASC_2": "NI.RI.RI","name": "Rivas.county","area_km2": 160.1869,"hist_schema_id": "Elevation0-9000","hist_area_km2": {"25": 1.5796,"50": 56.142,"75": 48.8846,"100": 22.0307,"125": 11.8673,"150": 7.7314,"175": 5.2167,"200": 4.1155,"225": 2.1409,"250": 0.4573,"275": 0.0208}}}