{"type": "Feature","bbox": [-86.0623,13.6357,-85.8248,13.9223],"geometry": {"type": "MultiPolygon","coordinates": [[[[-85.91,13.9037,610.4031],[-85.9189,13.9073,426.1022],[-85.927,13.9036,438.5986],[-85.9435,13.9075,473.7993],[-85.9471,13.9004,539.8488],[-85.947,13.8794,483.5718],[-85.9504,13.8728,502.8876],[-85.9712,13.8741,564.0981],[-86.0021,13.8684,914.9167],[-86.0051,13.8665,966.6665],[-86.0066,13.8632,990.2986],[-86.003,13.8337,907.1816],[-86.0043,13.8318,987.3179],[-86.0576,13.8001,1006.6527],[-86.061,13.7912,815.7444],[-86.0623,13.7763,951.6864],[-86.0592,13.7701,1005.0464],[-86.050299999999993,13.7668,960.405],[-86.0456,13.7631,919.5406],[-86.0447,13.7578,915.5232],[-86.0467,13.7487,890.7966],[-86.045,13.7444,867.4061],[-86.0404,13.7401,892.7737],[-86.0185,13.7267,1029.8253],[-86.0179,13.7029,827.4345],[-86.0137,13.693,753.0925],[-86.0132,13.6846,839.7745],[-86.0162,13.6724,708.8478],[-86.0185,13.6686,851.5185],[-86.023,13.6655,624.9342],[-86.0239,13.659,565.0922],[-86.0213,13.6542,560.4596],[-86.0133,13.6468,508.5445],[-86.0102,13.6399,560.7308],[-86.0048,13.6402,486.7508],[-85.989,13.646,564.4601],[-85.9768,13.6472,649.0958],[-85.9489,13.6451,720.1813],[-85.9168,13.6357,507.2884],[-85.9123,13.6683,613.7229],[-85.9027,13.7044,1040.5031],[-85.8901,13.7193,971.8085],[-85.8885,13.7238,1184.4713],[-85.8884,13.7388,886.3431],[-85.8921,13.7499,971.2313],[-85.893,13.7646,922.2294],[-85.889,13.779,859.3215],[-85.8813,13.7902,797.3484],[-85.8635,13.8069,814.4219],[-85.8542,13.8292,754.5095],[-85.8429,13.8458,680.8939],[-85.8248,13.8527,407.1556],[-85.8282,13.8541,394.2827],[-85.8328,13.8665,441.0853],[-85.8445,13.8772,347.2565],[-85.8438,13.9032,383.2141],[-85.8513,13.9133,417.1114],[-85.8637,13.9194,359.7411],[-85.8755,13.9193,577.6105],[-85.8827,13.9223,515.4824],[-85.8879,13.9221,401.2429],[-85.8946,13.9144,542.5279],[-85.8941,13.9082,489.8205],[-85.896,13.9036,444.1449],[-85.901,13.8999,415.7313],[-85.91,13.9037,610.4031]]]]}
,"properties": {"GID_2": "NIC.16.7_1","GID_0": "NIC","country": "Nicaragua","GID_1": "NIC.16_1","province": "NuevaSegovia","NL_NAME_1": "NA","county": "Murra","VARNAME_2": "NA","NL_NAME_2": "NA","TYPE_2": "Municipio","ENGTYPE_2": "Municipality","CC_2": "NA","HASC_2": "NI.NS.MU","name": "Murra.county","area_km2": 447.6438,"hist_schema_id": "Elevation0-9000","hist_area_km2": {"300": 0.0206,"325": 0.1852,"350": 0.9056,"375": 2.3874,"400": 3.3138,"425": 4.2607,"450": 5.0018,"475": 5.7019,"500": 6.0111,"525": 7.2464,"550": 8.1324,"575": 9.224,"600": 11.0367,"625": 11.3249,"650": 12.108,"675": 13.2617,"700": 13.9207,"725": 13.3443,"750": 14.024,"775": 14.4976,"800": 14.1681,"825": 14.3741,"850": 16.8864,"875": 17.9981,"900": 21.6022,"925": 23.3733,"950": 21.4373,"975": 20.9016,"1000": 18.4921,"1025": 17.9567,"1050": 16.989,"1075": 16.6796,"1100": 15.4854,"1125": 13.982,"1150": 12.5815,"1175": 9.9045,"1200": 8.1749,"1225": 5.0242,"1250": 3.0268,"1275": 1.606,"1300": 0.6588,"1325": 0.3706,"1350": 0.0618}}}