{"type": "Feature","bbox": [-87.3851,12.7418,-87.1202,12.9827],"geometry": {"type": "MultiPolygon","coordinates": [[[[-87.1202,12.843,2.0914],[-87.1387,12.8499,0.5],[-87.1715,12.8673,11.0226],[-87.1854,12.8911,3.9173],[-87.1899,12.8964,1.0],[-87.1983,12.8985,1.0],[-87.211,12.8943,0.0],[-87.2204,12.8956,1.0],[-87.2244,12.906,0.8645],[-87.2293,12.9115,4.3475],[-87.2473,12.9107,1.0],[-87.2609,12.9021,1.0],[-87.2791,12.9,0.0],[-87.285,12.9035,2.6124],[-87.3,12.9199,4.6071],[-87.3041,12.9265,0.0],[-87.3085,12.9279,0.0],[-87.3153,12.9278,4.2165],[-87.3281,12.9235,0.0],[-87.3307,12.9221,0.0],[-87.3315,12.917,2.1495],[-87.3356,12.9138,1.0],[-87.3355,12.9117,1.0],[-87.3269,12.9092,1.0],[-87.3147,12.9021,1.9789],[-87.3155,12.8974,1.5703],[-87.3117,12.8926,6.6503],[-87.3133,12.888,1.3976],[-87.3067,12.8794,0.7341],[-87.3064,12.8769,1.0553],[-87.3037,12.8745,1.0],[-87.2892,12.8705,1.0],[-87.2874,12.8665,9.6092],[-87.2848,12.8466,161.3125],[-87.2821,12.8417,238.8373],[-87.2415,12.8263,103.915],[-87.2281,12.8161,181.8131],[-87.2158,12.8104,112.2177],[-87.1927,12.8177,70.7701],[-87.1905,12.8171,47.1997],[-87.1651,12.7904,8.8913],[-87.1461,12.7653,23.5512],[-87.1443,12.7622,27.7308],[-87.1441,12.7528,35.1521],[-87.1226,12.7418,65.2865],[-87.1223,12.7648,34.1782],[-87.1285,12.7971,54.5644],[-87.1297,12.8121,6.2901],[-87.1242,12.8351,1.1846],[-87.1202,12.843,2.0914]]],
[[[-87.3776,12.9318,0.0],[-87.3575,12.93,7.5219],[-87.3113,12.9323,4.6709],[-87.3062,12.9355,2.0601],[-87.2967,12.9482,1.0],[-87.282,12.9561,1.0],[-87.2604,12.9627,3.859],[-87.2577,12.9659,0.3418],[-87.2601,12.9693,2.4242],[-87.2747,12.9772,7.2262],[-87.311,12.9827,2.6214],[-87.3249,12.9713,3.1639],[-87.3304,12.9699,0.0],[-87.3337,12.9654,4.6291],[-87.3374,12.9654,0.0],[-87.3385,12.9632,0.0],[-87.3501,12.9576,1.1192],[-87.3671,12.9535,1.3755],[-87.3812,12.9465,0.0],[-87.3821,12.9424,1.9597],[-87.3849,12.9424,0.0],[-87.3851,12.9407,1.573],[-87.3776,12.9318,0.0]]]]}
,"properties": {"GID_2": "NIC.5.8_1","GID_0": "NIC","country": "Nicaragua","GID_1": "NIC.5_1","province": "Chinandega","NL_NAME_1": "NA","county": "PuertoMorazán","VARNAME_2": "NA","NL_NAME_2": "NA","TYPE_2": "Municipio","ENGTYPE_2": "Municipality","CC_2": "NA","HASC_2": "NI.CI.PM","name": "Puerto_Morazán.county","area_km2": 217.7326,"hist_schema_id": "Elevation0-9000","hist_area_km2": {"0": 145.6263,"25": 37.3968,"50": 18.6883,"75": 5.4367,"100": 2.7287,"125": 2.7082,"150": 1.9019,"175": 1.5712,"200": 0.8889,"225": 0.6202,"250": 0.1654}}}