{"type":"Feature","properties":{"GID_1":"NIC.2_1","GID_0":"NIC","country":"Nicaragua","province":"AtlánticoSur","VARNAME_1":"RegiónAutónomadelAtlánticoNo","NL_NAME_1":"NA","TYPE_1":"RegiónAutónoma","ENGTYPE_1":"AutonomousRegion","CC_1":"NA","HASC_1":"NI.AS","ISO_1":"NA","name":"Atlántico_Sur.province"},
"geometry":{"type": "MultiPolygon","coordinates": [[[[-84.1154,11.1195,156.195],[-84.0921,11.1137,96.4128],[-84.0765,11.1177,80.7213],[-84.07,11.1231,145.0548],[-84.0671,11.1237,161.2124],[-84.0648,11.1229,132.8622],[-84.0627,11.1191,87.8171],[-84.0528,11.1207,42.0267],[-84.0508,11.1187,61.5631],[-84.0519,11.1151,47.279],[-84.0575,11.1117,95.613],[-84.0525,11.0935,52.1308],[-84.0448,11.0811,59.3766],[-84.0345,11.0743,50.9477],[-84.0295,11.0761,26.6458],[-84.0273,11.0791,44.9188],[-84.0107,11.0825,30.1891],[-84.0041,11.0881,35.7602],[-83.9955,11.0871,106.6131],[-83.9844,11.0991,30.7113],[-83.9814,11.0995,42.7073],[-83.9786,11.0945,39.9904],[-83.9738,11.0963,38.3883],[-83.9691,11.0957,34.302],[-83.9663,11.0917,31.109],[-83.9634,11.0943,22.3611],[-83.9576,11.0943,32.5052],[-83.948,11.0971,29.974],[-83.9493,11.1011,20.0913],[-83.9483,11.1043,27.1202],[-83.9432,11.1037,35.0302],[-83.9377,11.1067,25.1299],[-83.9273,11.1007,22.46],[-83.9156,11.1109,26.9587],[-83.908,11.1103,25.8265],[-83.9051,11.1041,23.5418],[-83.9014,11.1025,19.1667],[-83.9004,11.0991,18.4902],[-83.9035,11.0773,12.9386],[-83.8932,11.0619,13.2519],[-83.8922,11.0587,12.018],[-83.8935,11.0479,13.0107],[-83.889,11.0407,13.2546],[-83.8834,11.0375,10.7249],[-83.8749,11.0443,14.3867],[-83.8658,11.0475,1.4509],[-83.8413,11.0421,13.8385],[-83.8285,11.0411,7.9924],[-83.8192,11.0351,14.7541],[-83.805,11.0217,18.0458],[-83.7628,10.9573,13.1064],[-83.7453,10.9405,13.3048],[-83.7315,10.9323,23.5672],[-83.73,10.9301,9.1472],[-83.7304,10.9269,24.9732],[-83.7331,10.9225,12.6501],[-83.7301,10.9197,10.3941],[-83.7134,10.9189,16.4841],[-83.7145,10.9267,1.242],[-83.7215,10.9311,0.0],[-83.7275,10.9385,3.286],[-83.7193,10.9377,3.1087],[-83.7196,10.941,0.0],[-83.7357,10.9496,2.8759],[-83.7535,10.966,8.0175],[-83.7676,10.984,2.611],[-83.7779,11.001,3.4086],[-83.7804,11.0065,5.2458],[-83.764,10.981,0.3671],[-83.7515,10.966,1.0089],[-83.7407,10.956,4.9445],[-83.7304,10.9476,2.3815],[-83.7215,10.9429,0.7817],[-83.7146,10.9438,0.0],[-83.7276,10.949,3.6647],[-83.7374,10.9574,4.2243],[-83.7582,10.9801,5.2953],[-83.7718,10.9993,5.8365],[-83.7951,11.0393,0.654],[-83.806,11.0613,4.2775],[-83.829,11.1171,0.0],[-83.8376,11.1429,1.2276],[-83.8399,11.1451,5.6336],[-83.8393,11.149,0.0],[-83.8604,11.2243,4.3733],[-83.8671,11.2568,5.8374],[-83.8715,11.289,0.0],[-83.8749,11.2924,2.7772],[-83.8729,11.2991,0.0],[-83.8746,11.3174,0.0],[-83.874,11.3543,0.0],[-83.8701,11.3813,0.0],[-83.866,11.3971,0.0],[-83.8604,11.399,3.3229],[-83.8579,11.4104,0.0],[-83.8521,11.4113,0.0],[-83.8487,11.4218,9.3641],[-83.8476,11.4232,0.0],[-83.8457,11.4226,0.0],[-83.8399,11.4363,21.4746],[-83.8324,11.4371,17.5697],[-83.8301,11.4435,0.0],[-83.8268,11.4477,4.9869],[-83.824,11.4474,6.2492],[-83.8224,11.4443,0.0],[-83.8187,11.4477,11.012],[-83.8151,11.4465,0.0],[-83.8138,11.444,0.0],[-83.8115,11.446,12.8764],[-83.8082,11.4457,23.9391],[-83.8068,11.4424,0.0],[-83.8021,11.4443,6.9087],[-83.7996,11.441,0.0],[-83.8001,11.4446,1.5153],[-83.7912,11.474,6.9145],[-83.7879,11.4768,0.0],[-83.7843,11.4765,1.3213],[-83.7843,11.4732,0.0],[-83.7832,11.4749,0.0],[-83.7815,11.4743,0.0],[-83.7821,11.4765,11.7416],[-83.7735,11.5071,0.0],[-83.7749,11.5085,1.29],[-83.7854,11.5088,1.8343],[-83.7862,11.5113,0.0],[-83.7896,11.504,0.0],[-83.7935,11.504,0.0],[-83.7951,11.5063,0.0],[-83.7918,11.5046,1.1972],[-83.7893,11.5054,0.0],[-83.7893,11.5101,4.7351],[-83.7871,11.5135,8.4472],[-83.7768,11.5124,12.3011],[-83.7721,11.5101,0.0],[-83.7604,11.5435,1.1022],[-83.7515,11.5618,10.998],[-83.7479,11.5629,3.3304],[-83.7465,11.5607,1.8079],[-83.7418,11.5612,0.0],[-83.7399,11.5651,0.0],[-83.7368,11.5655,25.8939],[-83.736,11.5638,4.4177],[-83.734,11.5649,0.0],[-83.7337,11.5674,5.4268],[-83.7299,11.5649,0.0],[-83.7282,11.5668,0.0],[-83.7249,11.5668,0.0],[-83.724,11.5643,0.0],[-83.7204,11.5668,6.0837],[-83.7174,11.5668,0.0],[-83.7171,11.5643,0.0],[-83.7151,11.5629,8.0749],[-83.7157,11.5607,0.9948],[-83.7129,11.5596,0.0],[-83.7132,11.5671,1.3449],[-83.7063,11.5801,0.0],[-83.7038,11.581,0.0],[-83.7035,11.5827,12.2708],[-83.7001,11.5832,0.0],[-83.6957,11.5882,2.3525],[-83.6915,11.5885,0.0],[-83.6918,11.591,7.3799],[-83.6868,11.5985,0.0],[-83.6771,11.6057,5.9389],[-83.674,11.6049,0.0],[-83.6746,11.6032,0.0],[-83.6701,11.6038,26.0669],[-83.6699,11.6004,0.0],[-83.6676,11.5988,1.446],[-83.6607,11.5979,0.9034],[-83.6607,11.5929,0.0],[-83.6535,11.5899,0.0],[-83.6546,11.5935,32.9782],[-83.6535,11.5943,11.1532],[-83.6507,11.594,21.5577],[-83.649,11.596,14.5484],[-83.6454,11.5943,0.0],[-83.6476,11.5988,9.9995],[-83.6462,11.5993,0.0],[-83.6462,11.6046,2.2766],[-83.6429,11.6051,0.0],[-83.6457,11.6074,0.0],[-83.646,11.6101,0.0],[-83.6432,11.6176,0.0],[-83.6474,11.6179,4.1389],[-83.6501,11.6201,2.3919],[-83.6554,11.6301,9.6123],[-83.6643,11.6893,0.0],[-83.6682,11.7015,0.7838],[-83.6776,11.7649,1.4077],[-83.6865,11.7965,0.0],[-83.6874,11.7985,3.1904],[-83.6896,11.7982,8.3066],[-83.6915,11.8004,10.9962],[-83.6999,11.8215,9.9233],[-83.704,11.8563,0.3251],[-83.7199,11.8574,0.0],[-83.726,11.8615,4.8868],[-83.729,11.8665,3.4324],[-83.7387,11.8719,0.0],[-83.7418,11.8715,2.9268],[-83.7418,11.8674,3.6309],[-83.7479,11.8599,1.094],[-83.7493,11.8546,0.0],[-83.7476,11.8503,2.9919],[-83.7524,11.8396,0.0],[-83.7482,11.8135,3.384],[-83.7437,11.8105,2.9026],[-83.7459,11.8043,3.9934],[-83.7515,11.8013,3.4246],[-83.7582,11.8029,0.0],[-83.7618,11.8018,11.6799],[-83.7634,11.8035,1.7494],[-83.766,11.8018,7.2458],[-83.7838,11.8001,6.9568],[-83.7874,11.8051,10.8283],[-83.786,11.8138,0.0],[-83.7901,11.8168,3.9571],[-83.7937,11.816,0.0],[-83.796,11.8174,0.0],[-83.8121,11.8321,0.0],[-83.8135,11.8376,4.5793],[-83.8196,11.8465,3.063],[-83.8185,11.8537,0.0],[-83.8143,11.8584,1.6258],[-83.8179,11.8607,0.0],[-83.8213,11.8607,4.6292],[-83.8254,11.8643,1.3405],[-83.8349,11.8643,1.1522],[-83.8393,11.8737,0.0],[-83.8401,11.8815,6.7193],[-83.8326,11.8846,1.1865],[-83.8238,11.8943,2.2702],[-83.8174,11.894,4.3607],[-83.8115,11.8963,0.0],[-83.806,11.9015,3.1583],[-83.8012,11.9026,0.0],[-83.7991,11.9071,3.9358],[-83.8026,11.914,0.0],[-83.8018,11.9169,0.0],[-83.7985,11.9174,0.0],[-83.7985,11.9226,1.5962],[-83.7893,11.9276,1.1315],[-83.7879,11.9313,3.0738],[-83.7796,11.9324,0.0],[-83.781,11.934,2.7076],[-83.7799,11.9393,3.4971],[-83.7746,11.9424,6.988],[-83.769,11.9429,0.0],[-83.7707,11.9479,3.2571],[-83.7696,11.9499,0.0],[-83.7651,11.9515,0.0],[-83.7682,11.9546,0.0],[-83.7707,11.9549,6.852],[-83.7732,11.9593,0.0],[-83.7704,11.9626,4.809],[-83.7715,11.9671,2.6582],[-83.769,11.9688,0.0],[-83.7721,11.9785,2.3454],[-83.7665,11.9835,0.0],[-83.7618,11.9838,9.859],[-83.7596,11.9876,14.5633],[-83.7646,11.9943,0.0],[-83.7632,11.9996,0.8266],[-83.7643,12.0054,2.0022],[-83.7585,12.0068,0.0],[-83.759,12.0112,0.0],[-83.7565,12.0146,0.5331],[-83.7607,12.0174,3.3951],[-83.7588,12.0176,0.0],[-83.7596,12.0204,11.227],[-83.7585,12.0221,0.0],[-83.761,12.0224,2.4368],[-83.7599,12.0251,4.5971],[-83.7635,12.0263,2.7268],[-83.761,12.029,3.3932],[-83.7621,12.0343,1.7172],[-83.764,12.0363,1.1717],[-83.7674,12.0349,3.9793],[-83.766,12.0382,2.3174],[-83.771,12.0387,9.244],[-83.7729,12.0419,1.7691],[-83.7757,12.0415,2.2039],[-83.7765,12.0446,4.4372],[-83.774,12.0485,2.0762],[-83.7782,12.0513,2.766],[-83.7826,12.0518,4.9237],[-83.7838,12.056,0.0],[-83.7882,12.0546,1.4915],[-83.7904,12.0521,0.0],[-83.7948,12.0527,0.0],[-83.7957,12.056,0.0],[-83.8024,12.0513,6.4785],[-83.8046,12.054,0.0],[-83.8021,12.061,6.6066],[-83.7965,12.0588,3.7856],[-83.7937,12.0557,4.0069],[-83.7898,12.0577,6.0412],[-83.7838,12.0574,4.9092],[-83.7801,12.0535,0.0],[-83.7735,12.051,9.3567],[-83.769,12.0429,6.2533],[-83.7613,12.0374,3.2102],[-83.759,12.0382,0.0],[-83.7562,12.0507,4.9216],[-83.754,12.0385,0.0],[-83.7518,12.0365,0.0],[-83.7496,12.0376,2.5357],[-83.744,12.0521,3.1864],[-83.7443,12.0612,2.747],[-83.7426,12.0596,0.0],[-83.7368,12.0599,0.0],[-83.7343,12.0563,0.0],[-83.7337,12.0638,6.0307],[-83.7318,12.0674,0.0],[-83.7404,12.074,0.0],[-83.7399,12.0843,1.8344],[-83.7365,12.0846,1.2512],[-83.7346,12.0893,0.0],[-83.7299,12.0924,1.5273],[-83.7288,12.099,3.5254],[-83.7235,12.1057,0.0],[-83.7251,12.1115,7.3491],[-83.7235,12.1132,0.0],[-83.7229,12.1218,1.5564],[-83.7199,12.1237,0.0],[-83.7138,12.1237,0.0],[-83.7101,12.1293,4.2169],[-83.7121,12.1338,1.7913],[-83.7185,12.139,6.9551],[-83.7182,12.1432,0.0],[-83.7199,12.1468,0.6569],[-83.7268,12.1513,11.054],[-83.7276,12.1574,0.0],[-83.7324,12.1582,0.0],[-83.7318,12.1643,4.7807],[-83.7348,12.1663,0.0],[-83.7421,12.166,0.0],[-83.7426,12.1699,0.0],[-83.7404,12.1732,0.0],[-83.7346,12.1721,8.694],[-83.7329,12.1663,1.4872],[-83.7307,12.164,4.7807],[-83.7301,12.1687,0.0],[-83.7182,12.1626,9.9703],[-83.7149,12.156,5.7753],[-83.7135,12.1457,1.6252],[-83.7082,12.1388,0.0],[-83.7051,12.1263,3.7117],[-83.7012,12.1207,6.8075],[-83.7018,12.1171,0.0],[-83.6968,12.1132,12.4388],[-83.6976,12.1118,7.7773],[-83.7024,12.1115,2.916],[-83.7063,12.1149,3.6828],[-83.7087,12.1149,0.0],[-83.7057,12.1082,6.0334],[-83.7004,12.1068,0.0],[-83.6971,12.1024,11.6072],[-83.7029,12.0949,2.0075],[-83.7007,12.0915,2.373],[-83.701,12.089,1.8863],[-83.6993,12.0885,1.466],[-83.6999,12.0838,3.1347],[-83.7051,12.0876,0.0],[-83.7032,12.0918,1.5872],[-83.7051,12.0929,1.3751],[-83.7118,12.0857,3.6052],[-83.7168,12.0871,4.6284],[-83.7187,12.091,4.9453],[-83.7185,12.0949,3.027],[-83.7221,12.0974,0.0],[-83.7229,12.0915,2.8279],[-83.7265,12.0879,2.4474],[-83.734,12.086,4.7608],[-83.734,12.0768,6.0116],[-83.7318,12.0735,0.0],[-83.7307,12.0751,3.611],[-83.7293,12.0743,1.2109],[-83.7285,12.0638,1.2197],[-83.7262,12.0582,0.0],[-83.721,12.0532,0.292],[-83.716,12.044,1.2845],[-83.7107,12.0402,0.8826],[-83.7043,12.0315,0.0],[-83.6935,12.0215,3.7792],[-83.6868,12.0101,4.7149],[-83.6843,12.0021,0.7195],[-83.6865,12.0407,0.0],[-83.6882,12.0449,4.7043],[-83.6871,12.0468,0.0],[-83.6893,12.1032,0.0],[-83.6857,12.1762,4.2267],[-83.6826,12.184,5.1075],[-83.6793,12.184,0.9763],[-83.6799,12.1996,2.0119],[-83.6757,12.2238,3.6931],[-83.6671,12.2607,6.2888],[-83.6582,12.2863,2.211],[-83.6446,12.3138,8.0162],[-83.636,12.3265,4.4309],[-83.6224,12.3421,4.5875],[-83.6182,12.3524,0.3406],[-83.6279,12.3635,0.2768],[-83.6321,12.3651,0.5395],[-83.6349,12.3607,2.2663],[-83.6499,12.3521,1.1943],[-83.6543,12.3435,8.6778],[-83.6543,12.3351,5.0766],[-83.6624,12.3332,8.0057],[-83.6582,12.3265,3.2511],[-83.6596,12.3226,0.0],[-83.6582,12.3176,4.3756],[-83.6604,12.3149,4.5848],[-83.6596,12.311,3.9306],[-83.6607,12.3074,0.0],[-83.6679,12.3049,3.3352],[-83.6693,12.3021,0.0],[-83.6649,12.2957,0.0],[-83.6651,12.284,0.0],[-83.6676,12.281,0.0],[-83.671,12.2704,13.6372],[-83.6757,12.2699,6.5253],[-83.6787,12.2713,3.7281],[-83.6793,12.2738,0.0],[-83.681,12.2738,0.0],[-83.6787,12.2804,0.0],[-83.6801,12.2846,2.625],[-83.6779,12.2865,1.7479],[-83.679,12.2921,1.0949],[-83.676,12.3007,2.5832],[-83.6776,12.3038,5.749],[-83.674,12.3124,4.6278],[-83.6746,12.3174,4.2986],[-83.6724,12.3229,1.9],[-83.6632,12.3254,0.0],[-83.6676,12.3304,4.501],[-83.6679,12.3368,0.5301],[-83.6707,12.344,0.0],[-83.6735,12.3471,0.0],[-83.6765,12.3468,3.7838],[-83.6879,12.3404,1.7035],[-83.6888,12.3385,3.6314],[-83.6957,12.3362,1.1395],[-83.6988,12.3335,5.0104],[-83.699,12.3301,6.6869],[-83.7035,12.3238,0.616],[-83.7171,12.3263,5.4608],[-83.7185,12.329,0.0],[-83.7204,12.329,4.4365],[-83.7315,12.3371,0.0],[-83.7296,12.3446,1.752],[-83.7363,12.3632,3.7539],[-83.7363,12.3743,2.7679],[-83.734,12.3771,0.0],[-83.7351,12.384,8.1734],[-83.7201,12.4013,0.0],[-83.7288,12.4149,8.4049],[-83.7326,12.4254,0.0],[-83.7332,12.4315,1.2691],[-83.7288,12.4426,4.5672],[-83.731,12.451,3.5457],[-83.7301,12.4549,0.0],[-83.7329,12.4588,3.4283],[-83.7329,12.4635,2.3156],[-83.7349,12.4676,12.898],[-83.7349,12.4738,9.0],[-83.7393,12.4788,0.0],[-83.744,12.474,1.2254],[-83.7474,12.4743,4.5564],[-83.7518,12.4785,2.9962],[-83.7515,12.4815,3.4371],[-83.7543,12.4818,3.1945],[-83.7593,12.4782,6.2688],[-83.7635,12.4779,3.477],[-83.7724,12.4671,3.2114],[-83.7733,12.4693,0.0],[-83.7818,12.476,0.0],[-83.7835,12.4885,0.0],[-83.7774,12.4982,0.0],[-83.7774,12.5301,0.0],[-83.7726,12.531,1.151],[-83.7701,12.5374,8.1634],[-83.7657,12.5368,0.0],[-83.7607,12.5449,2.2611],[-83.7549,12.5463,0.6079],[-83.7515,12.5487,0.7684],[-83.7501,12.5521,3.119],[-83.7465,12.5535,0.0],[-83.7349,12.5518,0.0],[-83.7132,12.5537,0.0],[-83.7004,12.5496,2.0206],[-83.6904,12.5613,2.8698],[-83.6893,12.5646,0.6979],[-83.6835,12.5654,0.0],[-83.679,12.569,4.1083],[-83.6743,12.5682,0.0],[-83.6724,12.5704,0.0],[-83.6696,12.5704,0.0],[-83.6668,12.5754,0.0],[-83.6601,12.5804,0.0],[-83.656,12.5868,1.0164],[-83.6432,12.5949,0.0],[-83.641,12.6001,1.8587],[-83.6435,12.6024,0.0],[-83.6432,12.6046,1.1832],[-83.6351,12.6035,0.9959],[-83.6326,12.6007,1.5829],[-83.6288,12.6012,0.0],[-83.6215,12.6046,0.264],[-83.6157,12.6118,1.884],[-83.614,12.619,6.3205],[-83.6101,12.6226,0.0],[-83.6107,12.6254,0.0],[-83.6065,12.6271,2.531],[-83.5963,12.6235,0.0],[-83.6038,12.634,6.3389],[-83.6012,12.6404,2.3691],[-83.5974,12.6413,2.0472],[-83.5979,12.6438,0.0],[-83.6065,12.651,1.5223],[-83.6076,12.6543,3.0751],[-83.6051,12.6571,5.1465],[-83.6051,12.6615,5.266],[-83.6026,12.6657,0.0],[-83.6029,12.6746,0.0],[-83.6001,12.6824,0.0],[-83.6035,12.6963,9.9394],[-83.6174,12.7068,0.8341],[-83.6263,12.7204,4.6383],[-83.6174,12.7215,0.0],[-83.619,12.739,0.0],[-83.6243,12.746,1.9483],[-83.6274,12.7457,0.0],[-83.631,12.7496,1.0515],[-83.6374,12.7446,5.2308],[-83.6415,12.7438,0.0],[-83.6479,12.7488,0.0],[-83.656,12.7474,0.0],[-83.6582,12.7521,0.0],[-83.6568,12.7615,4.1663],[-83.6451,12.7718,0.0],[-83.6482,12.7776,1.0171],[-83.6482,12.7874,0.0],[-83.6549,12.7943,4.567],[-83.6535,12.7957,0.0],[-83.6543,12.7993,0.0],[-83.649,12.8013,2.3212],[-83.6418,12.8004,0.0],[-83.6338,12.8118,0.0],[-83.6237,12.8179,2.9772],[-83.6171,12.8179,0.0],[-83.6115,12.8212,3.9709],[-83.6032,12.8201,0.0],[-83.5976,12.8179,0.9187],[-83.5924,12.8135,0.0],[-83.5621,12.8046,0.0],[-83.5468,12.7907,4.5113],[-83.5435,12.776,0.0],[-83.5451,12.7671,0.7245],[-83.544,12.7568,0.7914],[-83.5462,12.7535,3.9968],[-83.5554,12.7493,0.4406],[-83.5668,12.7387,0.8457],[-83.564,12.7365,0.0],[-83.5643,12.7213,0.0],[-83.5587,12.7274,6.5082],[-83.5565,12.7274,5.1064],[-83.5582,12.7268,0.0],[-83.5593,12.7199,0.0],[-83.5582,12.7124,0.0],[-83.5654,12.6921,2.8916],[-83.5651,12.6893,6.9014],[-83.571,12.6821,0.0],[-83.5726,12.6774,0.0],[-83.5726,12.6688,0.0],[-83.5651,12.6571,4.1341],[-83.5654,12.651,1.2678],[-83.5632,12.6451,0.0],[-83.5607,12.6463,0.9366],[-83.5618,12.6449,1.9335],[-83.5593,12.6388,2.6848],[-83.5615,12.6263,2.4922],[-83.561,12.6029,1.1508],[-83.5632,12.5938,1.1735],[-83.5699,12.5787,1.4218],[-83.5771,12.5674,0.0],[-83.579,12.561,0.0],[-83.5821,12.5593,1.4782],[-83.5946,12.5599,3.4413],[-83.6135,12.5649,2.2437],[-83.6257,12.5579,3.084],[-83.6276,12.5593,0.0],[-83.6282,12.5624,0.7932],[-83.6268,12.5693,0.0],[-83.6304,12.574,7.5442],[-83.6312,12.579,0.7907],[-83.6338,12.5751,4.5372],[-83.6332,12.5718,5.6625],[-83.6357,12.5674,3.9894],[-83.6363,12.559,1.0061],[-83.6343,12.5518,0.3151],[-83.6351,12.5443,4.3122],[-83.6393,12.5371,0.0],[-83.6368,12.5293,2.365],[-83.639,12.5174,0.0],[-83.6365,12.5093,0.5534],[-83.6382,12.5063,0.0],[-83.6374,12.4982,1.4754],[-83.639,12.496,0.0],[-83.6379,12.484,2.3333],[-83.6393,12.4776,1.6158],[-83.6346,12.4749,0.8149],[-83.6296,12.469,2.0252],[-83.6257,12.4604,0.0],[-83.6207,12.454,0.9788],[-83.6157,12.4412,0.0],[-83.6087,12.4335,2.7179],[-83.6035,12.4246,0.0],[-83.6065,12.4146,2.0895],[-83.6132,12.4079,1.0558],[-83.6215,12.4043,1.6995],[-83.6226,12.401,0.6316],[-83.6363,12.3874,0.0],[-83.6365,12.3804,5.0318],[-83.6424,12.3754,0.0],[-83.641,12.3732,0.0],[-83.6301,12.3701,0.0],[-83.6215,12.3632,0.0],[-83.6137,12.3671,4.0786],[-83.6015,12.3765,1.5024],[-83.5893,12.3826,8.0356],[-83.5701,12.386,7.5577],[-83.5674,12.386,7.9782],[-83.5679,12.384,8.9691],[-83.5546,12.3843,1.7839],[-83.5324,12.3896,7.6279],[-83.5018,12.3851,0.0],[-83.4935,12.3901,0.0],[-83.4912,12.3932,0.7238],[-83.489,12.4065,4.5162],[-83.4865,12.4574,0.3909],[-83.4874,12.4651,0.0],[-83.5165,12.5057,0.9542],[-83.5296,12.5326,2.5143],[-83.539,12.5668,0.0],[-83.544,12.6018,5.0407],[-83.5454,12.6263,6.3953],[-83.5449,12.6696,1.3298],[-83.5315,12.7904,2.3835],[-83.5249,12.8251,6.1173],[-83.5099,12.8762,0.0],[-83.5051,12.9012,0.0],[-83.5065,12.9051,3.0948],[-83.5115,12.9085,0.8003],[-83.516,12.9082,1.7222],[-83.5224,12.9037,4.6632],[-83.5232,12.8993,0.0],[-83.5157,12.8938,4.7863],[-83.5143,12.8901,5.1922],[-83.5171,12.8801,0.8975],[-83.5184,12.8771,3.8648],[-83.5229,12.8754,8.551],[-83.5271,12.8757,3.0854],[-83.5315,12.8793,1.3533],[-83.5326,12.8846,0.0],[-83.5257,12.8901,1.6241],[-83.5301,12.894,0.5659],[-83.5285,12.9035,0.0721],[-83.5196,12.9101,0.2744],[-83.5157,12.9107,2.5194],[-83.5146,12.914,4.6786],[-83.5254,12.9546,2.2372],[-83.5401,13.0321,0.0],[-83.5464,13.0315,4.4489],[-83.5645,13.0353,1.9914],[-83.5883,13.0379,14.9996],[-83.6438,13.0348,47.823],[-83.6469,13.036,37.5316],[-83.6618,13.0467,51.4119],[-83.6924,13.0652,48.0071],[-83.7313,13.0933,35.9954],[-83.822,13.1504,22.4985],[-83.8297,13.1574,24.3684],[-83.8312,13.1607,23.0657],[-83.8306,13.1665,24.5141],[-83.8199,13.1912,19.8749],[-83.8013,13.221,18.7931],[-83.7988,13.2275,13.1847],[-83.7996,13.2325,13.1532],[-83.8027,13.2359,12.64],[-83.8107,13.2397,16.6004],[-83.8193,13.2409,18.4129],[-83.8332,13.24,14.8758],[-83.8471,13.2522,10.578],[-83.8582,13.2588,13.17],[-83.9078,13.259,16.8622],[-83.9251,13.2575,23.1665],[-83.9396,13.254,20.1549],[-83.9704,13.2537,4.6381],[-83.9855,13.252,15.9068],[-83.9884,13.251,13.4796],[-83.9889,13.2484,13.0263],[-83.9861,13.2449,6.3972],[-83.9876,13.242,15.6809],[-83.9827,13.229,15.9677],[-83.9828,13.2258,4.1481],[-83.9848,13.224,4.2027],[-84.0042,13.2236,15.7543],[-84.0098,13.2186,23.597],[-84.0176,13.2224,9.4119],[-84.0224,13.2212,19.2976],[-84.0344,13.2106,7.1306],[-84.051,13.2054,9.6401],[-84.0566,13.2146,9.9964],[-84.0612,13.2182,19.1049],[-84.0684,13.2194,4.7975],[-84.0716,13.2132,7.155],[-84.0696,13.201,14.6434],[-84.0996,13.197,18.154],[-84.1132,13.1934,2.725],[-84.115,13.1944,4.2472],[-84.1208,13.2097,19.1772],[-84.1412,13.2851,8.575],[-84.144,13.2923,24.5666],[-84.147,13.2937,21.1305],[-84.1646,13.2927,10.1193],[-84.1772,13.2878,28.1716],[-84.1924,13.2882,17.1425],[-84.1984,13.2868,24.9837],[-84.2138,13.2772,30.7306],[-84.2257,13.2667,34.7814],[-84.2338,13.2645,23.241],[-84.2431,13.2662,16.9364],[-84.2471,13.2706,15.6153],[-84.2499,13.2801,17.5112],[-84.2552,13.2835,16.1434],[-84.2599,13.2825,29.0248],[-84.2638,13.2788,18.497],[-84.2717,13.28,30.9649],[-84.2769,13.2771,30.8051],[-84.2797,13.2776,19.4341],[-84.2847,13.282,28.037],[-84.2907,13.2821,34.144],[-84.3002,13.2771,29.795],[-84.3103,13.2645,31.7486],[-84.3211,13.2553,55.958],[-84.3356,13.256,58.3261],[-84.5326,13.2498,82.0996],[-84.5812,13.2417,54.7849],[-84.6079,13.2406,58.7125],[-84.7437,13.2201,82.6505],[-84.8002,13.1427,63.853],[-84.7942,13.1416,83.3441],[-84.792,13.1388,62.5232],[-84.7923,13.1314,67.1687],[-84.7792,13.1306,65.1473],[-84.7728,13.1253,73.7227],[-84.7623,13.0947,64.4179],[-84.7529,13.0745,40.9041],[-84.737799999999993,13.0601,66.1803],[-84.7353,13.0518,52.9683],[-84.7309,13.0497,66.3128],[-84.7198,13.0515,82.6845],[-84.7172,13.0506,81.9945],[-84.7187,13.0468,73.0192],[-84.7313,13.0314,85.2746],[-84.732,13.0237,86.8448],[-84.7299,13.0162,75.2437],[-84.7341,13.0015,104.2411],[-84.7276,12.9853,80.0717],[-84.7306,12.9789,84.4004],[-84.7407,12.9742,94.3839],[-84.7443,12.9697,106.1104],[-84.7443,12.9621,102.2413],[-84.7396,12.9523,124.5303],[-84.7411,12.9491,109.7491],[-84.7562,12.945,103.0415],[-84.7651,12.9393,91.0203],[-84.7749,12.9369,65.9389],[-84.7817,12.9373,60.5201],[-84.7865,12.9459,112.6009],[-84.7893,12.9477,146.4326],[-84.8405,12.9381,144.8137],[-84.8527,12.9274,88.8084],[-84.867,12.9207,110.199],[-84.8892,12.8972,134.5565],[-84.9038,12.8911,93.018],[-84.9175,12.8907,211.2963],[-84.9236,12.8886,319.321],[-84.9281,12.8827,181.9682],[-84.9322,12.8669,147.5595],[-84.9371,12.8572,305.1923],[-84.9445,12.8507,311.5251],[-84.9488,12.849,236.9615],[-84.9739,12.8523,221.7651],[-84.9909,12.8515,158.3115],[-85.0209,12.8635,267.1553],[-85.0313,12.8586,223.338],[-85.0546,12.8346,317.1589],[-85.0735,12.8254,165.0362],[-85.0832,12.8231,331.2964],[-85.0893,12.8233,281.0925],[-85.107,12.8306,221.9812],[-85.1215,12.8346,268.0459],[-85.1438,12.8373,174.5054],[-85.1447,12.8352,172.5265],[-85.1424,12.8309,170.2967],[-85.1338,12.8199,219.6112],[-85.1332,12.813,228.7554],[-85.1364,12.8072,176.2119],[-85.1527,12.7882,161.7858],[-85.1616,12.7795,199.7569],[-85.1676,12.778,173.2864],[-85.1758,12.7835,180.2977],[-85.1857,12.7855,247.1615],[-85.2008,12.7952,194.2009],[-85.2075,12.7968,184.5303],[-85.2256,12.7736,319.7268],[-85.2283,12.7541,247.4747],[-85.2267,12.7444,279.0607],[-85.2217,12.7363,278.1337],[-85.2092,12.7246,260.2734],[-85.2079,12.7004,274.167],[-85.1917,12.6638,199.4375],[-85.1741,12.6452,201.0744],[-85.1665,12.6309,230.8159],[-85.1616,12.6259,209.4709],[-85.1498,12.6209,207.8925],[-85.1434,12.6213,233.1684],[-85.1379,12.6285,340.0227],[-85.1364,12.6339,319.6609],[-85.1384,12.643,254.2227],[-85.1439,12.6544,287.1288],[-85.1448,12.6619,276.8261],[-85.1364,12.6697,346.5921],[-85.1303,12.6826,364.3793],[-85.1185,12.6914,390.9644],[-85.1118,12.6989,289.0387],[-85.1105,12.7029,346.3698],[-85.1115,12.7089,307.1461],[-85.1191,12.7178,229.1426],[-85.1205,12.7235,203.2428],[-85.1185,12.7257,219.975],[-85.112799999999993,12.7262,266.8995],[-85.1105,12.7289,231.9523],[-85.1132,12.7377,223.7158],[-85.1126,12.7412,175.2804],[-85.1006,12.7631,328.7221],[-85.097,12.7669,332.6288],[-85.0816,12.7722,270.6277],[-85.0619,12.783,151.864],[-85.0528,12.7826,137.2512],[-85.0407,12.7769,160.3897],[-85.0324,12.7704,183.4968],[-85.0201,12.7546,142.3698],[-85.0034,12.7435,203.2385],[-84.9977,12.7351,159.9077],[-84.9826,12.6897,219.625],[-84.9847,12.661,178.8215],[-84.9822,12.6522,188.8371],[-84.977,12.6476,182.12],[-84.9643,12.6435,181.9625],[-84.9581,12.6279,174.1474],[-84.9444,12.6076,167.2355],[-84.9162,12.586,163.8495],[-84.9092,12.579,140.1374],[-84.9053,12.5569,133.8376],[-84.8953,12.5516,134.5731],[-84.8899,12.5271,120.2928],[-84.8784,12.5008,120.0686],[-84.8704,12.4892,134.1894],[-84.8641,12.4848,155.3734],[-84.8489,12.4807,136.4167],[-84.8358,12.4725,170.724],[-84.8474,12.4654,134.2735],[-84.8485,12.463,140.7429],[-84.8453,12.4534,173.7263],[-84.8465,12.4504,147.478],[-84.8562,12.4414,143.4259],[-84.862799999999993,12.4276,155.0035],[-84.8691,12.4198,173.7828],[-84.8703,12.4149,133.6615],[-84.8694,12.4086,188.2102],[-84.863,12.3869,194.519],[-84.8491,12.3604,262.1971],[-84.8372,12.3432,346.3008],[-84.8299,12.3372,338.3814],[-84.823,12.3342,346.1868],[-84.8209,12.3314,336.073],[-84.8053,12.299,298.7524],[-84.7818,12.2669,203.5332],[-84.7819,12.2574,222.8917],[-84.7961,12.234,307.5241],[-84.7957,12.2235,359.8258],[-84.7877,12.2015,247.1298],[-84.7849,12.1793,213.445],[-84.7751,12.1545,147.4266],[-84.7706,12.1367,393.0142],[-84.7669,12.1288,427.1134],[-84.7524,12.1096,270.9966],[-84.7434,12.0921,126.319],[-84.7399,12.0732,229.8684],[-84.7344,12.0062,177.7948],[-84.7311,11.9893,121.4624],[-84.7231,11.9786,127.847],[-84.7084,11.9674,111.3493],[-84.6802,11.9576,132.6539],[-84.6553,11.9462,115.6333],[-84.6189,11.9329,98.9236],[-84.5771,11.9136,107.7463],[-84.5721,11.9089,185.5743],[-84.5738,11.9061,147.1342],[-84.5957,11.9056,87.2923],[-84.6113,11.9015,97.6974],[-84.6246,11.8971,102.2368],[-84.6281,11.8949,96.7977],[-84.63,11.8904,105.1977],[-84.6258,11.8732,113.9396],[-84.6157,11.8598,115.5651],[-84.61,11.8462,144.2768],[-84.6015,11.808,234.6444],[-84.5833,11.7582,192.2387],[-84.5785,11.7524,207.8466],[-84.5662,11.7534,213.046],[-84.562,11.7515,197.4927],[-84.5601,11.7483,201.2958],[-84.56,11.7385,207.8543],[-84.5699,11.7091,215.6828],[-84.5713,11.7003,196.3995],[-84.5706,11.6901,199.1145],[-84.5671,11.6809,204.2688],[-84.5425,11.6505,243.1959],[-84.5378,11.6383,243.8796],[-84.5398,11.6172,281.0993],[-84.5586,11.5885,362.8292],[-84.564,11.5777,255.443],[-84.5683,11.5656,251.5155],[-84.5711,11.5489,167.4557],[-84.5704,11.5142,186.2449],[-84.5629,11.4822,225.1427],[-84.5624,11.4472,209.1753],[-84.5579,11.4355,150.653],[-84.5436,11.4255,132.9367],[-84.5273,11.42,204.0537],[-84.497,11.4152,227.3275],[-84.4865,11.411,227.049],[-84.4615,11.3944,167.8324],[-84.4545,11.3873,195.7735],[-84.4191,11.3663,202.9827],[-84.3958,11.3573,276.1723],[-84.3845,11.3503,196.567],[-84.3708,11.3473,206.9062],[-84.362799999999993,11.3431,193.7415],[-84.3566,11.3323,188.8554],[-84.3562,11.3265,212.7331],[-84.3604,11.3011,240.1801],[-84.3597,11.2829,235.1787],[-84.3546,11.2727,234.0512],[-84.3471,11.2643,220.3416],[-84.3188,11.2545,153.1946],[-84.2881,11.2411,245.1351],[-84.2472,11.2207,346.5094],[-84.2375,11.2143,302.0825],[-84.228,11.2049,196.959],[-84.2231,11.1975,308.7632],[-84.2087,11.1703,271.4004],[-84.2024,11.1623,250.6596],[-84.192,11.1425,171.5856],[-84.188,11.1389,259.8581],[-84.1815,11.1371,243.0463],[-84.174,11.1321,191.7885],[-84.166,11.1323,137.726],[-84.1632,11.1271,149.3861],[-84.1562,11.1273,267.3055],[-84.149,11.1227,301.8149],[-84.1446,11.1251,236.2765],[-84.1341,11.1187,156.0285],[-84.123,11.1213,168.9205],[-84.1154,11.1195,156.195]]],
[[[-83.7585,11.8696,0.0],[-83.7613,11.869,0.0],[-83.7588,11.866,0.0],[-83.7574,11.8676,2.871],[-83.7585,11.8696,0.0]]],
[[[-83.7872,11.8715,18.5977],[-83.7899,11.8718,4.0265],[-83.7913,11.8699,0.0],[-83.7873,11.8679,0.0],[-83.7857,11.8704,0.0],[-83.7872,11.8715,18.5977]]],
[[[-83.706,11.5105,0.0],[-83.7068,11.5121,0.0],[-83.7093,11.5115,0.0],[-83.7093,11.5101,0.0],[-83.706,11.5105,0.0]]],
[[[-83.7118,11.9993,0.0],[-83.7226,12.0004,1.374],[-83.7249,11.9957,0.0],[-83.7312,11.9926,0.0],[-83.7318,11.9865,4.4139],[-83.7357,11.9771,0.0],[-83.7351,11.9699,0.0],[-83.7474,11.9565,0.0],[-83.7468,11.951,1.8848],[-83.7418,11.9429,6.5392],[-83.7465,11.9243,1.4713],[-83.7454,11.9211,0.0],[-83.7499,11.9088,1.3269],[-83.7493,11.906,1.8346],[-83.7451,11.9065,0.0],[-83.741,11.8954,0.0],[-83.7415,11.8824,3.856],[-83.7396,11.8776,1.5968],[-83.7229,11.8693,0.0],[-83.7193,11.8705,12.4807],[-83.7162,11.8624,0.0],[-83.7146,11.8635,0.0],[-83.714,11.8676,0.0],[-83.7232,11.9029,0.0],[-83.7262,11.9232,1.15],[-83.7265,11.9404,5.6098],[-83.7221,11.9732,0.0],[-83.7157,11.989,0.0],[-83.709,11.9976,1.1384],[-83.7118,11.9993,0.0]]],
[[[-83.7487,11.9361,0.0],[-83.7484,11.9379,0.0],[-83.7507,11.9379,5.0652],[-83.7504,11.936,3.9182],[-83.7487,11.9361,0.0]]],
[[[-83.7479,11.9724,0.0],[-83.7501,11.9735,6.2138],[-83.7529,11.9713,0.0],[-83.7529,11.9693,0.9212],[-83.7499,11.969,0.0],[-83.7479,11.9724,0.0]]],
[[[-83.7518,11.991,1.8847],[-83.7529,11.9921,0.0],[-83.7535,11.9887,0.0],[-83.7521,11.9887,0.0],[-83.7518,11.991,1.8847]]],
[[[-83.7004,11.9907,6.5369],[-83.7001,11.9935,9.2907],[-83.7021,11.994,0.0],[-83.7024,11.991,0.0],[-83.7004,11.9907,6.5369]]],
[[[-83.6901,11.9976,4.2987],[-83.6926,11.9982,1.2254],[-83.6932,11.9951,2.7281],[-83.6951,11.9946,1.1367],[-83.6929,11.9924,1.7111],[-83.6935,11.9882,2.6499],[-83.6888,11.9885,0.0],[-83.6871,11.9913,6.0472],[-83.6857,11.9896,0.0],[-83.6835,11.9899,0.0],[-83.6804,11.9921,0.0],[-83.681,11.9951,0.0],[-83.6865,11.9968,1.7777],[-83.6882,11.9957,1.2447],[-83.6901,11.9976,4.2987]]],
[[[-83.7207,12.0043,11.2576],[-83.7229,12.0049,7.8591],[-83.7221,12.0021,8.1734],[-83.7207,12.0026,8.1734],[-83.7207,12.0043,11.2576]]],
[[[-83.7407,12.0568,0.0],[-83.7424,12.0576,0.4588],[-83.7432,12.0565,4.8561],[-83.7446,12.046,1.7603],[-83.7404,12.0515,0.0],[-83.7407,12.0568,0.0]]],
[[[-83.6663,12.3879,3.9961],[-83.6671,12.3896,0.0],[-83.6687,12.3868,6.0205],[-83.6687,12.376,2.5179],[-83.6765,12.3582,3.2824],[-83.6762,12.3568,0.0],[-83.6679,12.3546,1.675],[-83.6654,12.3562,5.9537],[-83.6643,12.3646,0.0],[-83.6599,12.3757,0.0],[-83.6604,12.3796,0.0],[-83.6657,12.3838,2.3635],[-83.6663,12.3879,3.9961]]],
[[[-83.6496,11.5799,5.4224],[-83.6513,11.581,5.0163],[-83.6526,11.5787,0.0],[-83.6496,11.5796,5.4224],[-83.6496,11.5799,5.4224]]],
[[[-83.6342,11.6032,4.0388],[-83.636,11.6038,0.0],[-83.6371,11.6024,14.4412],[-83.6357,11.6018,0.0],[-83.6342,11.6032,4.0388]]],
[[[-83.6643,12.3457,0.0],[-83.6651,12.3482,0.0],[-83.6682,12.3449,1.8517],[-83.6668,12.3399,1.309],[-83.6637,12.344,0.0],[-83.6643,12.3457,0.0]]],
[[[-83.6479,12.3588,0.0],[-83.6501,12.3588,0.0],[-83.6524,12.3562,1.9791],[-83.6493,12.3568,0.0],[-83.6479,12.3588,0.0]]],
[[[-83.0415,12.1851,4.8184],[-83.0465,12.1862,0.4475],[-83.0557,12.1843,0.0],[-83.0579,12.1824,0.5481],[-83.0621,12.1829,0.0],[-83.0651,12.1788,0.7238],[-83.0654,12.1757,1.6767],[-83.0638,12.1751,2.9927],[-83.0635,12.1726,3.0259],[-83.071,12.1663,0.9709],[-83.0701,12.1635,0.0],[-83.0651,12.1596,4.4561],[-83.0674,12.1487,16.1639],[-83.0651,12.1462,0.0],[-83.0573,12.1473,0.0],[-83.0512,12.1635,0.3029],[-83.0485,12.166,2.0903],[-83.0424,12.1676,7.0729],[-83.0382,12.1668,0.0],[-83.0321,12.1749,0.0],[-83.0315,12.1774,0.0],[-83.0332,12.1793,3.36],[-83.0415,12.1851,4.8184]]],
[[[-82.9782,12.3015,0.0],[-82.9793,12.3026,0.0],[-82.9857,12.3021,0.0],[-82.9915,12.2988,0.0],[-82.9899,12.2963,0.0],[-82.991,12.2885,0.0],[-82.9863,12.2863,0.0],[-82.9818,12.2865,0.0],[-82.9776,12.281,0.7732],[-82.9779,12.2774,0.0],[-82.976,12.2746,0.0],[-82.9704,12.2749,0.0],[-82.9701,12.2799,0.0],[-82.9746,12.2843,1.0548],[-82.9782,12.3015,0.0]]],
[[[-83.3879,12.381,2.0889],[-83.3876,12.3826,0.0],[-83.3904,12.3799,1.4428],[-83.389,12.3793,0.0],[-83.3879,12.381,2.0889]]],
[[[-83.3885,12.4826,1.0874],[-83.3896,12.486,0.0],[-83.3899,12.4799,3.7716],[-83.3918,12.4765,0.0],[-83.3907,12.4765,0.0],[-83.3876,12.4796,1.6064],[-83.3885,12.4826,1.0874]]],
[[[-83.6418,12.3654,0.0],[-83.6401,12.3651,0.0],[-83.639,12.3674,0.0],[-83.6421,12.366,5.8847],[-83.6418,12.3654,0.0]]],
[[[-83.4318,12.4254,0.0],[-83.4343,12.4265,1.2952],[-83.4349,12.4232,0.0],[-83.434,12.4229,0.0],[-83.4318,12.4254,0.0]]],
[[[-83.4257,12.434,0.0],[-83.4271,12.4346,0.4059],[-83.4262,12.4304,0.0],[-83.4251,12.4318,0.0],[-83.4257,12.434,0.0]]],
[[[-83.4315,12.4376,1.0241],[-83.4313,12.4396,0.5619],[-83.4335,12.439,0.0],[-83.4335,12.4371,3.2784],[-83.4315,12.4376,1.0241]]],
[[[-83.4107,12.4424,4.5511],[-83.4101,12.4443,2.1397],[-83.414,12.4437,0.0],[-83.414,12.4426,0.0],[-83.4107,12.4424,4.5511]]],
[[[-83.4276,12.4701,0.0],[-83.4287,12.4712,2.6601],[-83.4299,12.4707,2.6601],[-83.4282,12.4685,0.0],[-83.4276,12.4701,0.0]]],
[[[-83.6404,12.5182,0.0],[-83.6399,12.5224,0.0],[-83.6401,12.5235,0.0],[-83.6413,12.5215,0.6688],[-83.6404,12.5182,0.0]]],
[[[-83.6368,12.5601,1.0061],[-83.6368,12.5643,2.237],[-83.6376,12.5646,2.237],[-83.6382,12.5585,0.0],[-83.6368,12.5601,1.0061]]],
[[[-83.7668,11.8749,0.0],[-83.7688,11.8759,0.0],[-83.7696,11.8732,3.4165],[-83.7676,11.8724,0.0],[-83.7668,11.8749,0.0]]],
[[[-83.8076,11.8824,0.5072],[-83.8101,11.8826,0.4325],[-83.8085,11.879,0.4502],[-83.8071,11.8791,0.4502],[-83.8076,11.8824,0.5072]]],
[[[-83.3751,12.4826,1.0843],[-83.3749,12.4846,0.0],[-83.3754,12.4849,0.0],[-83.3763,12.4813,0.0],[-83.3751,12.4826,1.0843]]],
[[[-83.3879,12.4954,2.2355],[-83.3887,12.4971,0.0],[-83.3904,12.496,4.1497],[-83.3904,12.4888,3.0854],[-83.3882,12.49,0.8745],[-83.3879,12.4954,2.2355]]],
[[[-83.3615,12.5357,3.1862],[-83.3615,12.5379,2.3892],[-83.3643,12.5368,5.8991],[-83.364,12.5354,0.0],[-83.3615,12.5357,3.1862]]],
[[[-83.3235,12.7593,1.3867],[-83.3257,12.7599,0.0],[-83.3262,12.7579,0.0],[-83.3246,12.7579,0.6117],[-83.3235,12.7593,1.3867]]],
[[[-83.3576,12.8896,0.4572],[-83.3593,12.8904,0.0],[-83.3593,12.8874,0.0],[-83.3571,12.8876,0.748],[-83.3576,12.8896,0.4572]]]]}}