{"type":"Feature","properties":{"ISO3166-1-Alpha-3":"NIC","country":"Nicaragua","fill":"#F0F","id":"644","name":"Atlántico Sur"},
"geometry":{"type": "MultiPolygon","coordinates": [[[[-83.72037,11.88369,8.638],[-83.72623,11.92023,2.4882],[-83.72452,11.93635,0.8354],[-83.71931,11.95454,0.0],[-83.71239,11.97085,0.0],[-83.7058,11.98111,0.0],[-83.70531,11.98432,0.0],[-83.70568,11.98623,0.0],[-83.70686,11.98705,0.0],[-83.7084,11.98729,0.0],[-83.72899,11.97333,4.3606],[-83.73607,11.9418,13.4582],[-83.73379,11.90583,3.5253],[-83.72623,11.87865,4.3862],[-83.71984,11.87031,0.0],[-83.72037,11.88369,8.638]]],
[[[-83.02505,12.1752,0.0],[-83.02115,12.18179,0.0],[-83.03254,12.19082,0.0],[-83.04646,12.18374,10.9847],[-83.05598,12.16621,9.9389],[-83.05394,12.14387,0.0],[-83.02505,12.1752,0.0]]],
[[[-82.9807,12.29706,22.0298],[-82.98424,12.29849,21.9748],[-82.98485,12.30219,0.0],[-82.98738,12.30968,0.0],[-82.99189,12.3072,0.0],[-82.99641,12.29877,0.0],[-82.9936,12.29475,0.0],[-82.98611,12.29129,31.2406],[-82.98115,12.28604,1.363],[-82.9807,12.29706,22.0298]]],
[[[-84.15261,13.27539,27.7914],[-84.15519,13.28033,26.2848],[-84.1631,13.28234,28.2778],[-84.17661,13.28064,28.2335],[-84.23689,13.2642,30.8482],[-84.24664,13.26384,17.1243],[-84.25834,13.26712,21.3697],[-84.26521,13.27152,19.2488],[-84.27152,13.27454,18.61],[-84.27689,13.27588,26.4807],[-84.28449,13.27663,26.7488],[-84.29097,13.2763,22.2788],[-84.29844,13.27392,29.1705],[-84.30898,13.26712,35.3709],[-84.32123,13.2541,52.6608],[-84.33368,13.24971,49.5858],[-84.35348,13.24715,54.8122],[-84.49292,13.24653,45.1127],[-84.75144,13.21573,92.0812],[-84.79451,13.15917,95.247],[-84.79774,13.15398,80.8059],[-84.80086,13.14718,49.25],[-84.79877,13.14628,59.6402],[-84.79668,13.14509,50.762],[-84.78939,13.13837,68.0176],[-84.78707,13.13713,51.233],[-84.78466,13.13612,49.0679],[-84.78187,13.13537,49.2682],[-84.77939,13.13434,58.0069],[-84.77722,13.13305,60.6247],[-84.77324,13.12987,60.3055],[-84.76549,13.1201,96.5532],[-84.76433,13.1178,95.5078],[-84.75805,13.09837,86.8144],[-84.74353,13.06905,65.5943],[-84.74074,13.06512,102.4527],[-84.73743,13.06145,79.2151],[-84.73539,13.05993,63.0839],[-84.73309,13.05866,49.7475],[-84.73043,13.05781,44.4355],[-84.72733,13.05729,44.1328],[-84.72402,13.05727,34.0703],[-84.721,13.05773,42.3525],[-84.71823,13.05843,65.2585],[-84.70707,13.06494,56.4193],[-84.70462,13.06595,54.5337],[-84.7018,13.06654,47.676],[-84.69917,13.06675,50.2138],[-84.69645,13.06639,61.1045],[-84.69712,13.06571,61.1045],[-84.70087,13.06331,53.1312],[-84.70761,13.05812,62.8003],[-84.70823,13.05758,63.9601],[-84.72929,13.03479,78.4804],[-84.73353,13.02639,84.1704],[-84.73981,12.99301,54.0756],[-84.74097,12.97859,85.4751],[-84.74195,12.97525,101.2614],[-84.74622,12.96531,106.0639],[-84.74818,12.95035,60.1708],[-84.75102,12.94942,59.0879],[-84.75534,12.95035,59.5324],[-84.76084,12.94818,81.1003],[-84.77151,12.94014,70.1181],[-84.77678,12.94071,96.6116],[-84.78275,12.945,123.5295],[-84.79559,12.94818,93.2494],[-84.80937,12.94763,82.2256],[-84.82815,12.9426,93.4787],[-84.83998,12.94133,66.9351],[-84.85471,12.93154,89.5115],[-84.87567,12.91182,105.5717],[-84.89835,12.8966,192.353],[-84.91851,12.90038,102.1159],[-84.92566,12.88387,284.1082],[-84.93587,12.86872,138.8127],[-84.94204,12.86317,253.6272],[-84.95437,12.85526,99.5788],[-84.95825,12.85071,107.6139],[-84.97129,12.85475,117.5369],[-85.03059,12.86485,232.7467],[-85.04064,12.86369,288.7885],[-85.06795,12.8557,297.5323],[-85.08196,12.85312,289.8749],[-85.09403,12.8527,190.5649],[-85.10501,12.85394,278.1599],[-85.12273,12.85919,254.7749],[-85.13126,12.86084,222.6387],[-85.14134,12.85942,225.3273],[-85.1448,12.85459,256.6793],[-85.14459,12.8388,170.5687],[-85.14803,12.82919,209.3253],[-85.1594,12.81922,258.2898],[-85.16909,12.81604,199.5422],[-85.18105,12.81635,167.7394],[-85.19213,12.81787,165.2992],[-85.20681,12.81674,177.8056],[-85.21557,12.81232,177.4867],[-85.22231,12.80576,195.7304],[-85.22619,12.79788,201.9022],[-85.22789,12.78806,243.9885],[-85.22681,12.77865,287.9526],[-85.21712,12.75958,304.3877],[-85.2128,12.7484,246.3519],[-85.20505,12.71452,265.683],[-85.17919,12.66016,182.0095],[-85.16232,12.65496,219.461],[-85.15428,12.66269,188.5168],[-85.15534,12.67755,147.8841],[-85.16552,12.6937,191.4356],[-85.15214,12.7061,152.8061],[-85.14878,12.70796,142.8961],[-85.14924,12.7109,163.9967],[-85.14201,12.717,299.2063],[-85.13369,12.72196,170.8071],[-85.13077,12.72163,180.585],[-85.12645,12.73633,143.4972],[-85.12289,12.76434,251.3759],[-85.11772,12.77625,193.2045],[-85.09857,12.79322,180.2349],[-85.07992,12.79366,123.9367],[-85.06139,12.78385,162.7306],[-85.03199,12.76204,137.7051],[-85.02708,12.76005,154.2879],[-85.01917,12.7477,135.0058],[-85.01021,12.74292,195.0069],[-85.00429,12.73772,187.3062],[-84.99822,12.7307,159.6956],[-84.98961,12.71478,185.1674],[-84.98522,12.70214,203.4352],[-84.98393,12.68372,211.9524],[-84.98685,12.66819,167.55],[-84.98638,12.66375,175.7285],[-84.9853,12.66042,178.8215],[-84.97377,12.65465,211.2411],[-84.96853,12.64951,193.5599],[-84.9445,12.61525,167.7766],[-84.91561,12.58918,160.1388],[-84.90972,12.57949,142.5418],[-84.88786,12.53179,135.5006],[-84.86701,12.50081,142.7027],[-84.85368,12.48808,118.9906],[-84.84735,12.47758,145.8374],[-84.84533,12.47082,148.3575],[-84.84665,12.46498,134.2735],[-84.85236,12.45146,136.9203],[-84.85515,12.43916,123.847],[-84.85634,12.42214,139.855],[-84.85215,12.38986,191.7141],[-84.84693,12.37356,302.1944],[-84.8396,12.36149,270.9768],[-84.83278,12.35418,252.1134],[-84.82554,12.34824,371.1392],[-84.81965,12.34196,379.7028],[-84.78423,12.28028,234.853],[-84.7811,12.26517,211.2762],[-84.7874,12.24269,307.5053],[-84.78598,12.20969,293.4405],[-84.7727,12.15003,234.3855],[-84.70932,11.99294,109.2952],[-84.70242,11.98273,103.0839],[-84.57463,11.92253,79.3881],[-84.61362,11.90651,104.7536],[-84.62157,11.89964,104.5615],[-84.62072,11.89532,109.0567],[-84.61971,11.89243,105.9553],[-84.61258,11.8792,96.4358],[-84.60741,11.86251,111.1616],[-84.58716,11.79362,207.5564],[-84.5722,11.76657,211.8695],[-84.56393,11.75977,210.4042],[-84.5576,11.75326,209.5654],[-84.55522,11.74691,218.4726],[-84.55636,11.73489,218.6922],[-84.55507,11.70882,187.4675],[-84.54427,11.68352,202.7588],[-84.53429,11.65213,256.2514],[-84.53478,11.6441,299.8531],[-84.53651,11.63296,249.6775],[-84.54638,11.61012,314.9463],[-84.56052,11.56201,208.3624],[-84.56331,11.54265,178.897],[-84.56364,11.52966,185.777],[-84.55628,11.49103,209.4582],[-84.55256,11.45238,306.7431],[-84.48613,11.42824,245.164],[-84.45719,11.41088,247.9544],[-84.37745,11.36199,220.9034],[-84.36198,11.3468,203.0455],[-84.35611,11.33313,206.8958],[-84.35539,11.32073,181.7673],[-84.35335,11.30791,256.0814],[-84.34583,11.29272,216.2172],[-84.33684,11.28347,210.1928],[-84.32756,11.27688,208.9468],[-84.28053,11.25306,235.982],[-84.24108,11.22505,342.4743],[-84.21268,11.19704,269.5943],[-84.204,11.18596,333.6365],[-84.18359,11.15283,162.9081],[-84.17855,11.14702,175.8626],[-84.17442,11.14436,177.6818],[-84.17142,11.14454,107.1302],[-84.16793,11.14374,111.7816],[-84.16413,11.14196,121.931],[-84.15778,11.13824,109.6111],[-84.15486,11.13723,99.5543],[-84.14925,11.13575,111.0155],[-84.14173,11.13296,176.9676],[-84.13886,11.1325,142.3213],[-84.13659,11.13234,119.5822],[-84.12633,11.13366,107.2956],[-84.11995,11.13374,91.2723],[-84.11721,11.13351,79.5917],[-84.11083,11.13203,112.9989],[-84.09445,11.12552,81.1513],[-84.08197,11.12141,67.0142],[-84.05024,11.12545,55.625],[-84.04378,11.12483,138.8],[-84.04058,11.12304,98.4153],[-84.04138,11.11746,175.2667],[-84.04151,11.11457,186.2184],[-84.04104,11.11193,186.7257],[-84.03967,11.10984,175.6247],[-84.02874,11.0986,41.947],[-84.01892,11.09059,41.655],[-84.0136,11.08803,42.9511],[-84.00957,11.08749,48.6808],[-84.00097,11.09201,33.9343],[-83.99469,11.09341,72.7257],[-83.99241,11.09418,73.14],[-83.98797,11.09651,40.0088],[-83.98598,11.09798,26.5492],[-83.98094,11.10085,42.1659],[-83.97727,11.10224,29.332],[-83.96988,11.10348,31.2047],[-83.96376,11.10248,28.1502],[-83.95417,11.09891,11.1568],[-83.94957,11.09829,30.4818],[-83.94583,11.09844,30.4123],[-83.94355,11.09961,30.3716],[-83.94099,11.10054,31.9347],[-83.93867,11.10162,30.448],[-83.93652,11.10302,30.4541],[-83.92864,11.10612,23.4664],[-83.91906,11.10736,46.7066],[-83.91417,11.1086,24.4881],[-83.90025,11.11511,21.4893],[-83.8973,11.11457,18.8945],[-83.89562,11.11271,17.3807],[-83.89542,11.10961,16.4283],[-83.89699,11.09105,49.4796],[-83.89684,11.08788,16.5202],[-83.89557,11.08245,30.9961],[-83.89443,11.08005,19.8867],[-83.89154,11.07602,11.852],[-83.88816,11.07253,16.912],[-83.88663,11.07059,52.2115],[-83.8856,11.06811,31.8518],[-83.88513,11.06516,12.8241],[-83.88498,11.05855,11.7385],[-83.88423,11.05467,11.7379],[-83.88265,11.0508,11.2662],[-83.87834,11.04561,12.2467],[-83.87487,11.04374,18.4211],[-83.87198,11.04367,13.1651],[-83.86958,11.04467,14.6913],[-83.86751,11.04599,13.0631],[-83.86511,11.04716,1.4509],[-83.858,11.04739,19.0049],[-83.84669,11.04654,16.9538],[-83.80731,11.03894,15.0394],[-83.79987,11.03654,15.0169],[-83.79759,11.03499,14.2133],[-83.79413,11.0317,11.8964],[-83.77591,11.00829,0.6441],[-83.76142,10.9847,3.3589],[-83.73553,10.95716,0.3924],[-83.71824,10.94396,5.0423],[-83.71825,10.944,5.948],[-83.72545,10.9632,0.0],[-83.74364,10.97431,0.0],[-83.75206,10.98225,0.0],[-83.77595,11.01984,0.0],[-83.78563,11.04483,0.0],[-83.81566,11.0904,0.0],[-83.83727,11.14252,0.0],[-83.86791,11.27367,0.0],[-83.86803,11.3749,0.0],[-83.86278,11.39204,0.0],[-83.85363,11.40742,0.0],[-83.82189,11.44725,21.7637],[-83.81566,11.44725,28.9065],[-83.79442,11.444,0.0],[-83.78091,11.47932,2.8955],[-83.77123,11.52611,13.649],[-83.76106,11.55711,16.4217],[-83.75304,11.5646,15.9138],[-83.7447,11.56851,10.2464],[-83.73493,11.56997,13.7775],[-83.72281,11.57022,22.3405],[-83.71373,11.57347,7.9212],[-83.70377,11.58796,74.5351],[-83.69587,11.59125,40.9042],[-83.69473,11.59365,8.823],[-83.6809,11.59813,0.0],[-83.66674,11.60098,20.1671],[-83.66478,11.59809,0.0],[-83.65681,11.60541,27.4674],[-83.65298,11.61152,26.8917],[-83.65172,11.61937,33.379],[-83.65119,11.63227,0.0],[-83.65364,11.66747,0.0],[-83.69994,11.84992,0.0],[-83.70954,11.85814,0.0],[-83.72623,11.85757,6.0069],[-83.7351,11.85366,7.4627],[-83.74059,11.84345,5.376],[-83.74739,11.82404,12.4113],[-83.74596,11.81631,10.9682],[-83.74181,11.80976,10.0616],[-83.74291,11.80524,10.6648],[-83.75764,11.80362,0.0],[-83.76773,11.80484,0.0],[-83.7775,11.80829,0.0],[-83.78478,11.81354,0.0],[-83.79337,11.83275,0.0],[-83.80696,11.84821,0.0],[-83.82299,11.86253,0.0],[-83.83609,11.87124,0.0],[-83.83186,11.87987,0.0],[-83.82348,11.88898,0.0],[-83.81371,11.89619,4.4643],[-83.80508,11.89912,0.0],[-83.79939,11.9029,0.0],[-83.78087,11.92646,0.0],[-83.77709,11.92927,0.0],[-83.77188,11.93106,0.0],[-83.76627,11.93399,0.0],[-83.76106,11.94013,0.0],[-83.75984,11.94684,0.0],[-83.76212,11.95307,0.0],[-83.76553,11.95881,0.0],[-83.7672,11.9643,0.0],[-83.76521,11.97163,0.0],[-83.75626,11.99006,0.0],[-83.75422,11.99909,0.0],[-83.75495,12.012269999999999,0.0],[-83.75723,12.02464,0.0],[-83.7613,12.03535,0.0],[-83.7672,12.04316,5.9451],[-83.79174,12.05296,0.0],[-83.80394,12.06029,3.9544],[-83.79857,12.06363,12.2797],[-83.75731,12.05134,4.9216],[-83.73937,12.05195,0.0],[-83.73371,12.07103,0.0],[-83.73205,12.08706,4.0458],[-83.71691,12.10879,0.0],[-83.71325,12.12568,4.9555],[-83.71614,12.1389,0.0],[-83.72305,12.14936,0.0],[-83.7399,12.16665,0.0],[-83.74739,12.16665,2.1809],[-83.76032,12.15306,3.8952],[-83.77628,12.1623,0.0],[-83.77774,12.17715,0.0],[-83.74739,12.18032,6.0519],[-83.72863,12.17158,7.5139],[-83.71101,12.15473,4.2501],[-83.69787,12.1352,2.4842],[-83.69274,12.11823,4.1568],[-83.70067,12.0952,2.3262],[-83.71524,12.08539,0.6013],[-83.72374,12.07465,0.7394],[-83.71325,12.0493,0.8038],[-83.6883,12.01874,7.6228],[-83.68122,12.00165,0.0],[-83.68529,11.98111,0.0],[-83.67785,11.98387,0.0],[-83.67101,11.98794,0.0],[-83.67858,12.00943,0.0],[-83.6859,12.13744,0.0],[-83.66373,12.25609,0.0],[-83.61701,12.34805,0.0],[-83.62121,12.35566,0.3732],[-83.64094,12.35847,0.0],[-83.64977,12.35318,1.1943],[-83.65587,12.34028,0.0],[-83.67174,12.28897,0.0],[-83.67638,12.27985,0.0],[-83.67846,12.28612,1.7479],[-83.67732,12.29751,6.1758],[-83.67219,12.31708,0.0],[-83.67101,12.32709,6.1694],[-83.67634,12.34247,4.0493],[-83.70767,12.33588,0.0],[-83.72623,12.34479,0.0],[-83.73371,12.36298,0.0],[-83.73038,12.38207,0.0],[-83.72338,12.40229,9.4097],[-83.71939,12.42365,0.0],[-83.72623,12.46833,0.0],[-83.73424,12.47769,0.0],[-83.74096,12.47972,0.0],[-83.74901,12.47948,0.0],[-83.76106,12.482,0.0],[-83.76944,12.48249,0.0],[-83.77343,12.48029,0.0],[-83.77465,12.48143,0.0],[-83.77465,12.53351,5.401],[-83.7672,12.5467,9.8284],[-83.74901,12.55256,1.7566],[-83.7058,12.55707,0.7954],[-83.6737,12.57046,0.6777],[-83.62047,12.61424,9.7683],[-83.5891,12.63215,0.0],[-83.59944,12.64794,0.0],[-83.60338,12.65266,0.0],[-83.59862,12.66022,0.0],[-83.59642,12.66714,0.0],[-83.59594,12.68403,0.0],[-83.59748,12.69432,0.0],[-83.60131,12.69823,0.0],[-83.60595,12.70108,0.0],[-83.61022,12.70791,0.0],[-83.61168,12.71491,0.0],[-83.61339,12.73188,0.0],[-83.61327,12.73526,0.0],[-83.61555,12.73729,0.0],[-83.63752,12.74885,0.0],[-83.64533,12.76651,0.0],[-83.6459,12.78685,0.0],[-83.63703,12.80532,0.0],[-83.61636,12.81712,0.0],[-83.59081,12.81908,8.6249],[-83.56404,12.81269,3.4209],[-83.54467,12.79678,6.1218],[-83.54133,12.76996,3.8386],[-83.54442,12.76309,1.1708],[-83.54906,12.75804,0.0],[-83.55313,12.75471,0.0],[-83.55492,12.75259,0.0],[-83.55655,12.69672,3.0942],[-83.55997,12.68325,6.6669],[-83.56859,12.67377,5.2439],[-83.56859,12.66633,4.8993],[-83.55541,12.63589,7.3887],[-83.56379,12.59089,6.4491],[-83.58845,12.55964,1.7336],[-83.62385,12.57075,0.0],[-83.63003,12.57075,7.0499],[-83.63207,12.56712,5.944],[-83.63268,12.5666,6.342],[-83.63386,12.56647,6.342],[-83.63752,12.56452,2.237],[-83.63288,12.53954,0.8184],[-83.63463,12.47411,0.8149],[-83.6127,12.4549,3.118],[-83.60631,12.44115,2.7996],[-83.60253,12.42544,5.4214],[-83.60338,12.41372,4.9735],[-83.60936,12.40721,4.3979],[-83.62999,12.39289,1.4041],[-83.63752,12.38573,1.8238],[-83.61758,12.37515,2.9595],[-83.59423,12.37881,4.1067],[-83.56924,12.38764,6.482],[-83.54475,12.39256,10.3357],[-83.51256,12.39378,2.2168],[-83.4923,12.40034,3.5592],[-83.4818,12.41665,0.0],[-83.47924,12.44721,0.0],[-83.48591,12.47215,0.0],[-83.51382,12.51048,0.0],[-83.52351,12.5423,0.0],[-83.53799,12.57103,0.0],[-83.54133,12.58063,5.5047],[-83.54133,12.63898,0.0],[-83.50768,12.90278,4.4677],[-83.52957,13.0326,0.0],[-83.52965,13.03259,0.0],[-83.54797,13.03026,1.5197],[-83.59817,13.03336,14.8239],[-83.63895,13.0315,42.8967],[-83.65729,13.03745,41.5613],[-83.75573,13.09365,24.4344],[-83.83092,13.14729,21.6904],[-83.83524,13.15129,34.0084],[-83.83816,13.15579,24.7637],[-83.83904,13.16103,24.653199999999998],[-83.83834,13.16669,26.7802],[-83.83614,13.1724,18.5583],[-83.83255,13.17814,26.9611],[-83.81366,13.2008,14.1143],[-83.81002,13.20677,19.1821],[-83.80782,13.2125,17.0422],[-83.8072,13.21816,10.8941],[-83.81093,13.22276,12.3364],[-83.81863,13.22656,11.2523],[-83.83586,13.23121,13.104],[-83.8463,13.23542,12.7336],[-83.85413,13.24004,13.1714],[-83.86431,13.2442,13.225],[-83.88353,13.24715,15.5496],[-83.96456,13.2503,9.2122],[-83.97975,13.25157,5.917],[-83.98381,13.25426,8.0229],[-83.99427,13.25604,14.517],[-83.98869,13.24444,22.8895],[-83.98761,13.23446,10.3401],[-83.99146,13.23012,2.7471],[-84.0005,13.23555,15.5524],[-84.00732,13.23555,2.1162],[-84.01639,13.23054,20.164],[-84.02102,13.23098,15.6614],[-84.02781,13.23555,13.9554],[-84.03611,13.21452,9.1224],[-84.04807,13.21209,11.1069],[-84.06349,13.21782,13.7485],[-84.08243,13.22126,10.4294],[-84.07727,13.21589,19.9034],[-84.07184,13.20586,8.0857],[-84.06876,13.20142,14.6434],[-84.08445,13.20444,16.4701],[-84.10861,13.19731,15.1369],[-84.11719,13.20142,11.0091],[-84.12362,13.20268,20.9309],[-84.12928,13.20899,24.1016],[-84.13333,13.21614,16.2165],[-84.15261,13.27539,27.7914]]]]}}