{"type":"Feature","properties":{"featurecla":"River","scalerank":11,"rivernum":22174,"dissolve":"22174River","name":"null971","name_alt":null,"note":"ID is link back to CEC data","name_full":null,"min_zoom":6.7,"strokeweig":0.2,"uident":2061001,"min_label":7.7},
"geometry":{"type": "LineString","coordinates": [[-85.1647029287704,12.391384181764877,369.3065],[-85.0467830068954,12.420721746869035,314.7502],[-84.9476619131454,12.422227280723206,189.2751],[-84.902088996478724,12.437608140098206,212.0325],[-84.8119197256454,12.439764715619035,195.0648],[-84.712269660541224,12.455349025514877,167.4157],[-84.631459113666224,12.448553778119035,88.8175],[-84.498646613666224,12.389675197389877,82.4486],[-84.4383845693954,12.317816473431535,143.538],[-84.389637824603724,12.299343166139877,62.9145],[-84.330922004291224,12.253973699994035,58.3007],[-84.295155402728724,12.189642645306535,22.1056]]}}