{"type":"Feature","properties":{"featurecla":"River","scalerank":11,"rivernum":22176,"dissolve":"22176River","name":"null973","name_alt":null,"note":"ID is link back to CEC data","name_full":null,"min_zoom":6.7,"strokeweig":0.2,"uident":2058301,"min_label":7.7},
"geometry":{"type": "LineString","coordinates": [[-84.452381965228724,12.759100653119035,68.4522],[-84.407297329812067,12.757676499473206,73.902],[-84.356800910541224,12.777126369264877,74.2537],[-84.282460090228724,12.827663478639877,34.4012],[-84.222971157937067,12.846218166139877,31.5373],[-84.006662564187067,12.831488348431535,14.0877],[-83.904611782937067,12.788845119264877,3.0603],[-83.850656704812067,12.783799546348206,11.565],[-83.7638240225204,12.804266668744035,20.8922],[-83.678089973041239,12.800889390098206,7.6064],[-83.637033657937067,12.805283921348206,0.0]]}}