{"type":"Feature","properties":{"GID_2":"NIC.5.1_1","GID_0":"NIC","country":"Nicaragua","GID_1":"NIC.5_1","province":"Chinandega","NL_NAME_1":"NA","county":"Chichigalpa","VARNAME_2":"NA","NL_NAME_2":"NA","TYPE_2":"Municipio","ENGTYPE_2":"Municipality","CC_2":"NA","HASC_2":"NI.CI.CC","name":"Chichigalpa.county"},
"geometry":{"type": "MultiPolygon","coordinates": [[[[-87.1254,12.5303,17.1383],[-87.1312,12.5217,7.1371],[-87.1329,12.5153,2.8473],[-87.1405,12.5002,5.2723],[-87.1387,12.4969,2.6554],[-87.1309,12.4924,5.102],[-87.112,12.477,8.1481],[-87.0954,12.4548,4.0305],[-87.0736,12.4559,12.3157],[-87.0584,12.4602,15.3363],[-87.0532,12.4631,16.0991],[-87.0357,12.479,22.6109],[-86.9844,12.5003,44.8518],[-86.9794,12.5054,50.6804],[-86.9827,12.512,50.2576],[-86.9965,12.5257,49.8073],[-87.0007,12.5318,51.3617],[-87.0006,12.5455,62.1442],[-87.009,12.571,84.445],[-87.0093,12.577,93.5178],[-87.008,12.5799,100.7465],[-86.9948,12.582,114.7512],[-86.9897,12.5844,123.1402],[-86.9639,12.6122,207.6028],[-86.9483,12.6251,245.5409],[-86.9465,12.6292,262.6032],[-86.946,12.6461,357.877],[-86.939,12.6604,677.1929],[-86.9414,12.664,610.7617],[-86.9543,12.6763,915.4838],[-86.9736,12.6541,436.4709],[-86.9872,12.6424,339.464],[-87.0136,12.6137,174.553],[-87.0303,12.6082,138.7081],[-87.0378,12.6011,116.0062],[-87.0531,12.5645,56.3636],[-87.0719,12.5505,36.5844],[-87.083,12.5466,32.6183],[-87.0992,12.5455,24.5059],[-87.1213,12.5313,16.9662],[-87.1254,12.5303,17.1383]]]]}}