{"type":"Feature","properties":{"featurecla":"Lake Centerline","scalerank":10,"rivernum":22175,"dissolve":"22175Lake Centerline","name":"null1219","name_alt":null,"note":"ID is link back to CEC data","name_full":null,"min_zoom":6.0,"strokeweig":0.2,"uident":2060701,"min_label":7.0},
"geometry":{"type": "LineString","coordinates": [[-86.342640754291224,12.480536199994035,42.0076],[-86.3053279287704,12.422634181764877,40.0],[-86.287587043353724,12.387071030723206,40.0],[-86.269846157937067,12.327907619264877,40.0],[-86.2579646475204,12.289374090619035,40.0],[-86.240223762103724,12.262722072389877,40.0],[-86.207630988666224,12.242010809369035,40.0],[-86.157297329812067,12.233099676556535,40.0],[-86.127674933978724,12.218288478639877,40.0],[-86.104725715228724,12.207627671348206,45.432]]}}