{"type": "Feature","bbox": [-85.3027,12.1475,-84.9069,12.6448],"geometry": {"type": "MultiPolygon","coordinates": [[[[-84.9681,12.6448,193.3788],[-85.0046,12.5862,436.7919],[-85.0112,12.573,350.8254],[-85.0275,12.5507,398.789],[-85.0332,12.5315,459.4837],[-85.0325,12.4998,538.2563],[-85.0355,12.484,448.3989],[-85.0393,12.4768,323.9672],[-85.0552,12.4573,283.5694],[-85.0754,12.4285,309.7188],[-85.08,12.4262,257.5243],[-85.0957,12.4244,269.4355],[-85.1044,12.4213,267.5427],[-85.1201,12.4085,258.4519],[-85.127,12.4092,265.2649],[-85.1424,12.4208,333.7636],[-85.1769,12.4082,396.636],[-85.1971,12.3963,417.3132],[-85.2115,12.3787,346.6298],[-85.2286,12.3613,335.7328],[-85.248,12.3512,457.3692],[-85.2652,12.3372,359.1906],[-85.2861,12.3276,340.5051],[-85.2985,12.3348,360.2204],[-85.3015,12.326599999999999,356.8269],[-85.3027,12.3168,352.6884],[-85.2981,12.296,531.5847],[-85.29,12.284,563.2472],[-85.2713,12.2862,468.3123],[-85.2667,12.2802,453.3],[-85.267,12.2674,447.4899],[-85.2782,12.2275,519.3382],[-85.2803,12.1996,410.2195],[-85.2778,12.1709,711.1635],[-85.2679,12.156,631.4555],[-85.2651,12.1475,657.9724],[-85.2458,12.1583,657.5717],[-85.2166,12.1708,455.8543],[-85.1076,12.2282,481.994],[-85.116,12.3051,245.5988],[-85.1045,12.315,239.6188],[-85.0917,12.332,217.513],[-85.0758,12.3417,217.2752],[-85.0682,12.353,245.0161],[-85.0484,12.3501,224.9572],[-85.0248,12.3602,242.0903],[-85.0119,12.434,273.9135],[-84.9996,12.4837,441.9335],[-84.9909,12.5015,441.2613],[-84.9653,12.5456,404.3202],[-84.9496,12.5633,189.8069],[-84.9361,12.5716,166.9946],[-84.9069,12.5709,146.5483],[-84.9078,12.5762,146.7218],[-84.9114,12.5816,149.7684],[-84.9444,12.6076,167.2355],[-84.9581,12.6279,174.1474],[-84.9643,12.6435,181.9625],[-84.9681,12.6448,193.3788]]]]}
,"properties": {"GID_2": "NIC.6.4_1","GID_0": "NIC","country": "Nicaragua","GID_1": "NIC.6_1","province": "Chontales","NL_NAME_1": "NA","county": "LaLibertad","VARNAME_2": "NA","NL_NAME_2": "NA","TYPE_2": "Municipio","ENGTYPE_2": "Municipality","CC_2": "NA","HASC_2": "NI.CO.LL","name": "La_Libertad.county","area_km2": 642.3594,"hist_schema_id": "Elevation0-9000","hist_area_km2": {"150": 4.6559,"175": 15.2919,"200": 21.4879,"225": 44.7085,"250": 56.7616,"275": 49.6605,"300": 33.1956,"325": 30.5839,"350": 30.275,"375": 34.5848,"400": 39.99,"425": 37.3399,"450": 38.9188,"475": 39.1111,"500": 39.1579,"525": 39.2416,"550": 24.9874,"575": 18.1293,"600": 14.1721,"625": 11.2506,"650": 7.4175,"675": 4.2474,"700": 3.253,"725": 1.6369,"750": 0.8288,"775": 0.518,"800": 0.4145,"825": 0.3108,"850": 0.0829,"875": 0.0829,"900": 0.0207,"925": 0.0207,"950": 0.0207}}}