{"type": "Feature","bbox": [-83.8997,13.561,-81.9999,14.7129],"geometry": {"type": "MultiPolygon","coordinates": [[[[-83.5388,13.6732,0.5],[-83.5418,13.6732,0.5],[-83.5432,13.6688,6.8067],[-83.5335,13.6671,5.1155],[-83.5332,13.6682,5.1155],[-83.5362,13.6696,7.7446],[-83.5388,13.6732,0.5]]],
[[[-83.5651,13.5975,6.3345],[-83.5621,13.5974,8.7479],[-83.5599,13.5946,0.5],[-83.5515,13.596,2.051],[-83.5493,13.5935,9.9332],[-83.5465,13.5707,4.0859],[-83.5429,13.5638,8.7895],[-83.5263,13.561,0.5902],[-83.5229,13.6157,6.1981],[-83.5074,13.7171,2.5659],[-83.4979,13.7643,0.0],[-83.4882,13.8026,3.5755],[-83.4762,13.8379,1.447],[-83.4671,13.8554,0.0],[-83.4565,13.8691,0.3765],[-83.4554,13.8735,1.7212],[-83.4565,13.8788,0.0],[-83.4615,13.879,0.9488],[-83.4682,13.8863,0.6523],[-83.4649,13.9065,0.0],[-83.4568,13.9182,0.0],[-83.4569,13.9218,0.0],[-83.4637,13.9271,0.0],[-83.4732,13.9251,11.2642],[-83.4804,13.9279,0.0],[-83.4826,13.9241,1.7228],[-83.4887,13.919,0.0],[-83.4971,13.9174,2.5252],[-83.5018,13.9182,4.3492],[-83.5085,13.9279,7.0809],[-83.5101,13.9382,0.0],[-83.5071,13.9443,9.022],[-83.4957,13.9451,0.0],[-83.4976,13.9476,0.0],[-83.4974,13.9512,0.0],[-83.5001,13.9546,1.5635],[-83.4999,13.9571,0.0],[-83.5038,13.9596,1.5465],[-83.5051,13.9635,0.0],[-83.509,13.9638,0.0],[-83.5121,13.9599,6.745],[-83.5168,13.9574,0.0],[-83.5276,13.9538,0.0],[-83.5315,13.9543,1.4195],[-83.5349,13.9599,3.0836],[-83.536,13.9654,4.1818],[-83.534,13.9807,5.61],[-83.5268,13.9888,4.2056],[-83.5212,13.9912,0.0],[-83.5196,13.9943,1.6078],[-83.5185,13.991,1.899],[-83.5149,13.9896,0.0],[-83.5088,13.9896,2.9925],[-83.4904,13.9855,6.9334],[-83.4801,13.9746,0.0],[-83.4804,13.9712,2.0158],[-83.4873,13.9707,0.0],[-83.4887,13.9646,0.0],[-83.4868,13.9607,2.6606],[-83.4788,13.9596,11.8482],[-83.4763,13.9513,4.4894],[-83.4776,13.9482,0.0],[-83.4751,13.9426,2.8024],[-83.4718,13.9421,3.5608],[-83.4701,13.9368,1.5831],[-83.4643,13.9313,0.0],[-83.4587,13.9285,4.8986],[-83.4546,13.9215,6.1151],[-83.4551,13.9176,0.0],[-83.4585,13.9115,9.6589],[-83.4624,13.9082,11.064],[-83.4635,13.9046,0.0],[-83.464,13.8843,0.0],[-83.4626,13.884,0.0],[-83.4588,13.8921,0.0],[-83.4538,13.9118,3.0475],[-83.4449,13.9368,11.3925],[-83.4176,13.9929,0.0],[-83.4124,14.0013,6.4748],[-83.399,14.0165,0.4851],[-83.3915,14.0204,0.5725],[-83.384,14.0199,0.6904],[-83.3754,14.0327,18.6543],[-83.3712,14.0343,0.0],[-83.3685,14.0377,6.8314],[-83.3646,14.0382,0.0],[-83.3568,14.0485,5.5845],[-83.354,14.049,0.0],[-83.3335,14.0907,4.6585],[-83.3321,14.0915,2.0386],[-83.3313,14.0901,0.0],[-83.3201,14.104,1.2258],[-83.2974,14.1263,0.0],[-83.291,14.1393,2.655],[-83.2871,14.1438,2.3523],[-83.2846,14.1515,0.6707],[-83.2921,14.1504,3.2226],[-83.2954,14.1474,0.7471],[-83.2965,14.1415,2.4301],[-83.2946,14.1354,0.8159],[-83.2954,14.1326,0.0],[-83.2965,14.1326,5.2356],[-83.2979,14.1415,2.4301],[-83.2974,14.1463,3.2994],[-83.2935,14.1513,0.5296],[-83.2876,14.1532,0.9472],[-83.2835,14.1587,0.0],[-83.2846,14.164,1.1347],[-83.2829,14.1643,2.0529],[-83.2812,14.159,1.5865],[-83.2796,14.1596,0.6633],[-83.2654,14.1815,0.0],[-83.2543,14.2018,0.0],[-83.2262,14.2649,2.3176],[-83.2118,14.2907,0.2484],[-83.2026,14.311,0.6192],[-83.1993,14.3279,0.0],[-83.2004,14.3557,0.8997],[-83.2071,14.384,0.0],[-83.2154,14.406,0.4684],[-83.2174,14.4218,1.6464],[-83.2165,14.4432,1.7427],[-83.2196,14.4499,0.0],[-83.2274,14.4551,2.8291],[-83.2304,14.4615,0.3608],[-83.2304,14.4721,0.6076],[-83.2318,14.4747,0.2998],[-83.2349,14.4749,0.7334],[-83.2326,14.4757,1.5964],[-83.2293,14.4732,0.6076],[-83.2285,14.4621,3.444],[-83.2226,14.4554,0.094],[-83.2218,14.4579,0.0],[-83.239,14.5001,1.9611],[-83.251,14.5399,0.0],[-83.2737,14.6015,0.0],[-83.2868,14.6529,3.4613],[-83.2971,14.7039,5.1431],[-83.3278,14.7039,0.7434],[-83.33,14.6745,0.9472],[-83.3553,14.6738,0.0],[-83.3712,14.7129,0.559],[-83.4128,14.7075,14.3026],[-83.4145,14.7023,26.3917],[-83.4205,14.6987,11.7489],[-83.4291,14.6995,13.4806],[-83.4422,14.7035,12.1303],[-83.4584,14.7037,17.7995],[-83.4714,14.6975,25.6218],[-83.4903,14.6856,26.095],[-83.5074,14.6793,39.4044],[-83.516,14.6795,40.0385],[-83.5258,14.6825,45.4401],[-83.5349,14.6825,45.3781],[-83.6516,14.6535,31.8372],[-83.6613,14.6577,36.943],[-83.6632,14.6545,34.6591],[-83.66,14.6471,37.5982],[-83.6606,14.6447,35.1407],[-83.6729,14.6368,46.0952],[-83.6807,14.6217,57.2844],[-83.6963,14.6147,58.903],[-83.7178,14.6129,53.0854],[-83.7249,14.6091,59.6327],[-83.7122,14.4827,41.8679],[-83.713,14.4723,38.0028],[-83.8154,14.4023,57.5917],[-83.8149,14.3907,45.4293],[-83.8045,14.3373,41.3886],[-83.8062,14.3233,25.4562],[-83.8125,14.3185,23.292],[-83.8267,14.3159,44.9582],[-83.8307,14.3129,80.1913],[-83.8313,14.3099,75.6433],[-83.8274,14.3015,61.4338],[-83.836,14.2933,35.1376],[-83.8359,14.2869,31.8357],[-83.8402,14.2843,32.2826],[-83.8409,14.2809,33.6203],[-83.8371,14.2753,64.7315],[-83.8278,14.2671,50.3602],[-83.8147,14.2585,48.5488],[-83.7924,14.2507,58.8195],[-83.7669,14.2441,26.8739],[-83.7578,14.2383,26.9155],[-83.7516,14.2185,30.0514],[-83.7387,14.2065,39.2387],[-83.7332,14.1971,44.705],[-83.7309,14.1855,30.7518],[-83.731,14.1651,33.0216],[-83.7351,14.1547,31.0713],[-83.7423,14.1183,44.2048],[-83.7621,14.0851,89.2146],[-83.8103,14.0237,76.6162],[-83.8333,13.9907,71.2172],[-83.8603,13.9595,43.6481],[-83.8997,13.9017,22.7111],[-83.8897,13.8949,21.7823],[-83.8893,13.8825,15.489],[-83.8875,13.8797,23.5991],[-83.8816,13.8789,13.9001],[-83.8672,13.8809,14.8033],[-83.8623,13.88,18.7049],[-83.8605,13.8779,39.4492],[-83.8643,13.8705,19.3195],[-83.8569,13.8639,22.5365],[-83.8624,13.8617,13.3935],[-83.864,13.8599,16.1675],[-83.863,13.8581,22.5837],[-83.8479,13.8539,12.9722],[-83.8433,13.8489,20.4872],[-83.8399,13.8399,20.3027],[-83.8219,13.8333,9.543],[-83.8236,13.8307,15.2653],[-83.8308,13.8309,19.5667],[-83.8333,13.8293,21.5805],[-83.8335,13.8269,22.8679],[-83.8194,13.7989,15.1796],[-83.8231,13.7921,15.825],[-83.8236,13.7871,17.3814],[-83.8214,13.7849,20.6884],[-83.8138,13.7825,19.5385],[-83.8053,13.7841,15.6523],[-83.8084,13.7947,16.9667],[-83.8076,13.7987,9.2061],[-83.8027,13.7997,18.483],[-83.7838,13.7969,16.2924],[-83.782,13.7981,12.1874],[-83.7798,13.8074,17.7881],[-83.7766,13.8086,14.5417],[-83.7701,13.8071,16.5228],[-83.7643,13.8023,17.4719],[-83.7615,13.8019,11.7919],[-83.7553,13.8066,14.2972],[-83.7467,13.8065,7.7718],[-83.7415,13.8033,11.0554],[-83.7346,13.8045,5.5471],[-83.7243,13.7997,12.3424],[-83.716,13.8007,5.6285],[-83.7019,13.7959,10.9094],[-83.6972,13.7907,8.8742],[-83.6915,13.7781,8.3891],[-83.6909,13.7683,2.9658],[-83.6885,13.7601,2.5737],[-83.6823,13.7481,9.204],[-83.6762,13.7417,2.7219],[-83.6591,13.7303,4.6105],[-83.6496,13.7283,2.0698],[-83.64,13.7191,0.8692],[-83.6396,13.7087,0.7548],[-83.6358,13.6931,0.8931],[-83.6308,13.6839,0.7327],[-83.6176,13.6701,4.642],[-83.6176,13.6729,4.3763],[-83.6151,13.676,4.6334],[-83.6015,13.6863,1.4822],[-83.5979,13.6874,3.7281],[-83.5782,13.6827,5.4572],[-83.569,13.6751,0.5],[-83.5599,13.6818,3.4599],[-83.5501,13.6826,4.116],[-83.549,13.6841,0.5],[-83.5497,13.6893,6.0666],[-83.5535,13.6924,0.5],[-83.5601,13.694,2.9454],[-83.5632,13.7004,1.7999],[-83.5693,13.7074,3.2454],[-83.5515,13.714,6.0684],[-83.541,13.714,6.934],[-83.5301,13.7113,0.5],[-83.5299,13.7138,3.1016],[-83.5251,13.7179,4.9026],[-83.5307,13.7193,0.5],[-83.536,13.7185,2.9309],[-83.5368,13.7229,0.5],[-83.5304,13.7268,0.9229],[-83.5248,13.7224,4.5996],[-83.5215,13.7174,3.5468],[-83.5224,13.7129,1.9288],[-83.5212,13.7101,1.0435],[-83.5146,13.6993,0.5],[-83.5132,13.6899,4.3211],[-83.5165,13.6871,0.5],[-83.5193,13.6796,3.2184],[-83.5296,13.6738,0.5],[-83.5304,13.6693,4.0701],[-83.529,13.6651,1.893],[-83.5385,13.6604,6.087],[-83.5374,13.6546,4.3943],[-83.5413,13.6568,0.5],[-83.5407,13.6512,7.2387],[-83.5371,13.6493,12.1565],[-83.5362,13.6451,0.5],[-83.5343,13.6463,2.8518],[-83.534,13.6426,1.0653],[-83.5426,13.6382,0.5],[-83.5401,13.6332,7.5681],[-83.5421,13.6196,0.5],[-83.5399,13.616,10.6385],[-83.544,13.614,2.0523],[-83.551,13.6143,0.5],[-83.5496,13.6088,0.5],[-83.5462,13.6076,3.3088],[-83.5451,13.6054,1.064],[-83.5515,13.6068,7.3075],[-83.5571,13.6057,0.5],[-83.5585,13.6026,0.5],[-83.5621,13.6029,0.5],[-83.5618,13.6007,8.4078],[-83.5652,13.6004,13.8148],[-83.5651,13.5975,6.3345]]],
[[[-82.8877,14.4657,0.0],[-82.889,14.4663,1.1811],[-82.8901,14.4637,1.0361],[-82.891,14.4554,0.0],[-82.8868,14.4556,2.3221],[-82.8849,14.4526,0.0],[-82.8832,14.454,3.8551],[-82.8793,14.4513,0.0],[-82.8749,14.4529,1.704],[-82.8751,14.4563,0.0],[-82.8785,14.4549,1.5544],[-82.8812,14.4599,1.879],[-82.8829,14.4587,4.1984],[-82.8829,14.4626,0.0],[-82.8865,14.461,1.1219],[-82.8871,14.4576,2.3466],[-82.889,14.4646,0.9528],[-82.8877,14.4657,0.0]]],
[[[-82.8926,14.4649,0.0],[-82.8935,14.4657,0.0],[-82.8946,14.4637,0.0],[-82.894,14.4596,0.0],[-82.8924,14.4599,0.0],[-82.8915,14.4623,0.0],[-82.8926,14.4649,0.0]]],
[[[-81.9999,13.9999,0.0],[-81.9999,14.0001,0.0],[-82.0001,14.0001,0.0],[-82.0001,13.9999,0.0],[-81.9999,13.9999,0.0]]],
[[[-82.8115,14.3731,2.3745],[-82.814,14.3732,0.0],[-82.8174,14.3657,0.0],[-82.8104,14.3704,0.0],[-82.8115,14.3731,2.3745]]],
[[[-82.7685,14.4199,1.3461],[-82.7721,14.4199,0.0],[-82.7732,14.4185,2.0373],[-82.7724,14.4151,4.1625],[-82.7754,14.4138,2.0959],[-82.7832,14.4132,1.3347],[-82.7799,14.4085,2.2563],[-82.7815,14.4057,1.892],[-82.7857,14.4071,0.0],[-82.7871,14.4004,2.3978],[-82.7901,14.3968,2.5089],[-82.7899,14.3954,1.0129],[-82.7885,14.3957,2.5089],[-82.7821,14.399,2.7081],[-82.7824,14.4018,4.5314],[-82.781,14.4013,4.2607],[-82.7804,14.3993,2.1425],[-82.784,14.3946,3.2757],[-82.7843,14.3913,1.0546],[-82.7871,14.391,0.0],[-82.7913,14.3868,1.2441],[-82.7937,14.3779,5.1268],[-82.7976,14.3763,0.0],[-82.7979,14.3688,0.0],[-82.8087,14.3685,1.6043],[-82.8101,14.3649,1.7957],[-82.8093,14.3607,0.0],[-82.8118,14.3599,1.5996],[-82.8129,14.3574,0.0],[-82.8174,14.3562,0.0],[-82.8165,14.3526,0.712],[-82.8074,14.3532,0.0],[-82.7985,14.3574,4.0134],[-82.786,14.3585,0.8842],[-82.7829,14.3571,2.1685],[-82.7787,14.359,5.2249],[-82.7779,14.3571,0.0],[-82.7796,14.3565,0.0],[-82.7793,14.3549,0.0],[-82.776,14.3532,2.4495],[-82.7774,14.3485,0.0],[-82.7751,14.3479,0.0],[-82.7696,14.349,0.0],[-82.7688,14.3504,0.0],[-82.7707,14.351,3.0985],[-82.7707,14.3526,4.2513],[-82.769,14.3512,0.0],[-82.761,14.3549,0.0],[-82.7532,14.3601,1.0917],[-82.754,14.3621,5.2747],[-82.7518,14.3635,1.8503],[-82.749,14.3601,4.1431],[-82.7499,14.3624,4.9237],[-82.7485,14.3638,7.1563],[-82.7462,14.3626,5.5169],[-82.7485,14.361,1.173],[-82.7482,14.3593,4.1431],[-82.7499,14.3593,1.3448],[-82.7504,14.3562,6.5411],[-82.7512,14.3576,0.9864],[-82.754,14.3571,0.0],[-82.7526,14.3554,6.8536],[-82.7565,14.3526,2.516],[-82.7668,14.3504,0.0],[-82.7576,14.3488,2.3327],[-82.7471,14.3535,0.0],[-82.744,14.3624,3.9859],[-82.746,14.3685,5.456],[-82.7429,14.3715,5.0737],[-82.7409,14.3713,2.9859],[-82.7444,14.3646,1.2382],[-82.7438,14.3635,3.9859],[-82.7415,14.3643,0.0],[-82.7346,14.3768,0.0],[-82.7346,14.3829,0.0],[-82.7371,14.386,3.5769],[-82.7385,14.3943,0.0],[-82.741,14.3976,1.8744],[-82.7404,14.3999,0.0],[-82.7379,14.3996,0.0],[-82.7371,14.4068,3.0713],[-82.7399,14.4101,1.9473],[-82.7382,14.4093,0.0],[-82.7376,14.4107,0.0],[-82.741,14.4132,3.7814],[-82.7404,14.4163,0.0],[-82.7421,14.4174,0.0],[-82.7582,14.4174,0.0],[-82.764,14.4151,2.4521],[-82.769,14.4154,4.0187],[-82.7674,14.4188,0.0],[-82.7685,14.4199,1.3461]]],
[[[-82.8024,14.3932,0.5447],[-82.8051,14.3938,0.0],[-82.8051,14.3901,0.0],[-82.7979,14.3871,4.8268],[-82.7962,14.3843,0.0],[-82.7907,14.3879,1.4131],[-82.7921,14.3907,0.0],[-82.7949,14.3885,3.1665],[-82.7965,14.3929,1.4778],[-82.8004,14.3918,4.5673],[-82.8024,14.3932,0.5447]]],
[[[-82.7468,14.4671,1.0685],[-82.7535,14.4668,0.0],[-82.754,14.4646,0.0],[-82.7526,14.4629,1.2472],[-82.7496,14.4629,1.0785],[-82.7468,14.4643,0.0],[-82.7468,14.4671,1.0685]]],
[[[-82.889,14.4718,2.699],[-82.8913,14.471,0.0],[-82.891,14.4663,1.1811],[-82.8885,14.4679,0.0],[-82.889,14.4718,2.699]]]]}
,"properties": {"GID_2": "NIC.1.3_1","GID_0": "NIC","country": "Nicaragua","GID_1": "NIC.1_1","province": "AtlánticoNorte","NL_NAME_1": "NA","county": "PuertoCabezas","VARNAME_2": "NA","NL_NAME_2": "NA","TYPE_2": "Municipio","ENGTYPE_2": "Municipality","CC_2": "NA","HASC_2": "NI.AN.PC","name": "Puerto_Cabezas.county","area_km2": 5271.001,"hist_schema_id": "Elevation0-9000","hist_area_km2": {"0": 2444.152,"25": 1676.082,"50": 818.8,"75": 217.745,"100": 57.693,"125": 36.679,"150": 17.465,"175": 1.666,"200": 0.39,"225": 0.288,"250": 0.041}}}