{"type":"Feature","properties":{"GID_2":"NIC.4.6_1","GID_0":"NIC","country":"Nicaragua","GID_1":"NIC.4_1","province":"Carazo","NL_NAME_1":"NA","county":"LaPazdeCarazo","VARNAME_2":"NA","NL_NAME_2":"NA","TYPE_2":"Municipio","ENGTYPE_2":"Municipality","CC_2":"NA","HASC_2":"NI.CA.LP","name":"La_Pazde_Carazo.county"},
"geometry":{"type": "MultiPolygon","coordinates": [[[[-86.1011,11.8049,304.696],[-86.0937,11.814,274.5332],[-86.0854,11.8288,272.1503],[-86.097,11.8386,301.0451],[-86.1211,11.8441,406.6029],[-86.1299,11.837,415.5303],[-86.1322,11.8325,422.012],[-86.1357,11.823,408.5997],[-86.1368,11.8137,390.4827],[-86.1253,11.8092,363.8145],[-86.1043,11.807,313.9989],[-86.1011,11.8049,304.696]]]]}}