{"type":"Feature","properties":{"GID_1":"NIC.12_1","GID_0":"NIC","country":"Nicaragua","province":"Madriz","VARNAME_1":"NA","NL_NAME_1":"NA","TYPE_1":"Departamento","ENGTYPE_1":"Department","CC_1":"NA","HASC_1":"NI.MD","ISO_1":"NI-MD","name":"Madriz.province"},
"geometry":{"type": "MultiPolygon","coordinates": [[[[-86.7065,13.2954,939.0656],[-86.7405,13.2711,638.3139],[-86.7492,13.2677,900.0961],[-86.7386,13.2636,686.5229],[-86.7226,13.2681,551.711],[-86.7171,13.2649,499.5267],[-86.7079,13.2331,353.2613],[-86.7128,13.216,294.1087],[-86.7181,13.2064,298.0571],[-86.7162,13.201599999999999,286.9436],[-86.7057,13.2082,320.4328],[-86.6486,13.2658,978.8771],[-86.6236,13.289,1437.6677],[-86.6162,13.3015,1580.9292],[-86.5972,13.3477,1541.0728],[-86.5688,13.3931,1129.1348],[-86.5602,13.4104,1077.427],[-86.5469,13.4254,990.2043],[-86.5317,13.4296,871.5],[-86.5186,13.429,819.9189],[-86.4691,13.4135,664.0659],[-86.4455,13.403,623.0576],[-86.435,13.4017,608.3358],[-86.418,13.4038,561.4178],[-86.3967,13.4108,537.1899],[-86.3717,13.4147,559.5806],[-86.334,13.425,885.1537],[-86.3005,13.4313,1063.9197],[-86.2838,13.4315,1039.9917],[-86.2593,13.4286,1215.2966],[-86.2473,13.4258,1260.172],[-86.2394,13.4211,1334.8909],[-86.221,13.385,704.7806],[-86.1991,13.4193,737.3936],[-86.1798,13.4345,495.7345],[-86.1557,13.4349,550.6307],[-86.1442,13.4326,668.4267],[-86.1337,13.435,514.4935],[-86.122,13.4339,500.3522],[-86.1174,13.436,566.1875],[-86.11,13.4428,479.1334],[-86.0887,13.4531,609.6727],[-86.0833,13.4578,695.7878],[-86.0818,13.4674,393.3299],[-86.0766,13.4735,453.1344],[-86.0764,13.481,413.4713],[-86.0735,13.4888,370.3036],[-86.0657,13.4925,402.5288],[-86.0625,13.496,384.8474],[-86.073,13.5068,518.8287],[-86.0935,13.5201,1072.4771],[-86.1013,13.5273,951.7101],[-86.1041,13.549,730.1839],[-86.1135,13.5616,879.6362],[-86.1488,13.587,762.6533],[-86.1717,13.6093,827.9276],[-86.1777,13.6123,724.5884],[-86.1855,13.6079,851.0369],[-86.1894,13.6074,878.2723],[-86.191,13.605,911.015],[-86.2093,13.6067,796.948],[-86.2184,13.6008,850.8216],[-86.225,13.5607,852.1397],[-86.229,13.55,899.54],[-86.2362,13.5412,937.6354],[-86.2415,13.5418,812.2954],[-86.2523,13.5472,705.1243],[-86.2699,13.5612,649.1606],[-86.2852,13.5768,758.2966],[-86.2965,13.5845,804.6584],[-86.3048,13.5888,725.5451],[-86.317,13.5913,517.4659],[-86.3181,13.5883,662.3728],[-86.3341,13.5807,728.3004],[-86.3426,13.5788,895.7311],[-86.3584,13.5785,1040.1904],[-86.3744,13.5704,799.9856],[-86.3841,13.5777,908.1906],[-86.4285,13.587,721.4956],[-86.4479,13.5876,893.2895],[-86.4812,13.5958,632.7723],[-86.5057,13.5959,788.011],[-86.5245,13.5919,603.8663],[-86.5419,13.5863,585.0389],[-86.5593,13.5738,569.9098],[-86.5714,13.5711,609.531],[-86.5826,13.5816,793.8618],[-86.5849,13.582,714.5063],[-86.5909,13.5789,719.279],[-86.5971,13.5795,674.9843],[-86.6183,13.5891,779.6575],[-86.6262,13.5945,940.3923],[-86.6321,13.6024,1168.5312],[-86.634,13.6299,1056.7056],[-86.6416,13.6384,1329.5933],[-86.6502,13.6433,1094.6388],[-86.6752,13.6506,828.9285],[-86.7123,13.6522,534.9236],[-86.7347,13.6565,823.1985],[-86.7453,13.655,768.6761],[-86.7622,13.6452,682.6507],[-86.7527,13.6392,697.3293],[-86.7515,13.6359,648.3293],[-86.7674,13.5841,1049.7516],[-86.7683,13.573,1157.9614],[-86.767,13.5701,1189.0564],[-86.7511,13.5626,1095.4343],[-86.7457,13.5507,1072.6353],[-86.7374,13.4783,882.7208],[-86.7253,13.4519,866.3587],[-86.7221,13.4341,1044.46],[-86.7224,13.4253,903.5683],[-86.7294,13.4141,981.3746],[-86.74,13.4027,1080.2241],[-86.7429,13.3929,1280.6399],[-86.7363,13.38,1161.9858],[-86.7313,13.3768,1157.5098],[-86.713,13.3724,931.8387],[-86.7104,13.3694,997.3369],[-86.7025,13.3248,1277.4808],[-86.7027,13.308,1097.3193],[-86.7065,13.2954,939.0656]]]]}}