{"type": "Feature","id": "665","bbox": [-86.76413,13.20036,-86.05968,13.66015],"geometry": {"type": "Polygon","coordinates": [[[-86.56352,13.56948,652.7995],[-86.576,13.5801,805.7812],[-86.58745,13.58674,821.369],[-86.60432,13.59292,885.6545],[-86.6153,13.60057,1005.5538],[-86.62414,13.60997,1297.0487],[-86.62853,13.61847,1111.0739],[-86.64832,13.64723,1033.572],[-86.71834,13.65986,513.8143],[-86.74046,13.66015,840.9587],[-86.74504,13.65684,837.8347],[-86.74814,13.65361,772.2646],[-86.75576,13.64341,711.7121],[-86.76413,13.63734,723.7447],[-86.7554,13.63087,659.027],[-86.75157,13.62441,674.8427],[-86.7509,13.60842,696.6138],[-86.7571,13.57641,1002.7711],[-86.75659,13.55938,1210.3594],[-86.72429,13.43941,978.152],[-86.72594,13.42383,970.5358],[-86.73865,13.39621,1154.0435],[-86.7402,13.38192,1204.6753],[-86.73638,13.37195,1213.1571],[-86.73044,13.3689,1132.6379],[-86.72362,13.36732,1156.901],[-86.71716,13.36164,924.3057],[-86.70992,13.3489,1100.3486],[-86.7078,13.34283,1126.6841],[-86.70186,13.3142,1250.5364],[-86.70403,13.29883,1133.5468],[-86.71178,13.28568,811.9733],[-86.72548,13.2733,419.0815],[-86.73272,13.26847,605.9014],[-86.73157,13.26679,607.8099],[-86.71263,13.26294,374.9377],[-86.70685,13.25855,522.8427],[-86.7039,13.25015,467.2885],[-86.70271,13.24265,343.669],[-86.7032,13.23661,407.3245],[-86.70475,13.23123,421.8496],[-86.70589,13.22881,426.9529],[-86.71493,13.20036,325.6474],[-86.63096,13.28296,1369.4846],[-86.61228,13.30883,1506.5317],[-86.60388,13.3264,1680.2716],[-86.56277,13.39681,911.6721],[-86.52283,13.43045,877.7515],[-86.49629,13.43445,730.0923],[-86.4858,13.43122,737.3062],[-86.47123,13.42425,690.06],[-86.42839,13.40438,584.3091],[-86.38612,13.41133,538.054],[-86.30938,13.43546,926.3662],[-86.25375,13.43812,1000.8779],[-86.23494,13.4322,1198.9694],[-86.23091,13.42572,1283.3347],[-86.22101,13.40376,918.8204],[-86.21295,13.39035,664.2741],[-86.17621,13.42877,714.7723],[-86.15998,13.44269,398.4575],[-86.14404,13.44554,490.6496],[-86.13001,13.4461,539.3624],[-86.11766,13.44099,433.2926],[-86.1081,13.45171,488.9643],[-86.06924,13.48197,538.6541],[-86.05968,13.49329,396.1482],[-86.08988,13.52879,1003.1699],[-86.112,13.56723,700.1976],[-86.12174,13.57902,1082.1111],[-86.12985,13.58697,843.2531],[-86.16443,13.61452,747.9484],[-86.18388,13.60819,841.5042],[-86.20587,13.59966,919.5859],[-86.20871,13.59517,978.1002],[-86.21189,13.58865,1002.3135],[-86.21786,13.56036,1084.2507],[-86.2269,13.5493,949.3318],[-86.25739,13.56251,711.2319],[-86.2768,13.57421,757.1949],[-86.29232,13.57868,845.6633],[-86.30403,13.58018,734.1929],[-86.34555,13.57506,806.8327],[-86.37764,13.57468,846.4672],[-86.43345,13.59222,755.1937],[-86.50528,13.59338,781.7462],[-86.5152,13.59222,793.5673],[-86.53779,13.58651,627.303],[-86.54784,13.577,678.3216],[-86.56352,13.56948,652.7995]]]}
,"properties": {"ISO3166-1-Alpha-3": "NIC","country": "Nicaragua","fill": "#F00","name": "Madriz","area_km2": 1609.461,"hist_schema_id": "Elevation0-9000","hist_area_km2": {"275": 0.103,"300": 0.103,"325": 0.206,"350": 0.825,"375": 2.599,"400": 3.218,"425": 3.713,"450": 5.795,"475": 11.567,"500": 19.093,"525": 32.867,"550": 41.526,"575": 45.504,"600": 56.737,"625": 77.618,"650": 88.152,"675": 88.936,"700": 93.843,"725": 94.505,"750": 87.888,"775": 78.032,"800": 72.177,"825": 64.755,"850": 58.777,"875": 56.386,"900": 51.273,"925": 48.47,"950": 47.481,"975": 39.977,"1000": 33.071,"1025": 29.443,"1050": 26.288,"1075": 25.382,"1100": 25.981,"1125": 25.424,"1150": 25.962,"1175": 23.693,"1200": 20.023,"1225": 19.693,"1250": 16.249,"1275": 14.373,"1300": 10.93,"1325": 9.136,"1350": 6.084,"1375": 4.703,"1400": 3.589,"1425": 2.991,"1450": 3.012,"1475": 2.888,"1500": 2.311,"1525": 1.197,"1550": 0.97,"1575": 0.887,"1600": 1.093,"1625": 0.536,"1650": 0.66,"1675": 0.371,"1700": 0.268,"1725": 0.124}}}