{"type":"Feature","properties":{"GID_2":"NIC.5.4_1","GID_0":"NIC","country":"Nicaragua","GID_1":"NIC.5_1","province":"Chinandega","NL_NAME_1":"NA","county":"Corinto","VARNAME_2":"NA","NL_NAME_2":"NA","TYPE_2":"Municipio","ENGTYPE_2":"Municipality","CC_2":"NA","HASC_2":"NI.CI.CO","name":"Corinto.county"},
"geometry":{"type": "MultiPolygon","coordinates": [[[[-87.068,12.3957,7.0656],[-87.0682,12.396,7.0656],[-87.0682,12.3957,7.0656],[-87.068,12.3957,7.0656]]],
[[[-87.069,12.3965,1.2807],[-87.0682,12.396,7.0656],[-87.0726,12.4009,7.3091],[-87.087,12.4105,6.5855],[-87.0912,12.4205,4.8183],[-87.1051,12.4307,0.0],[-87.1085,12.4304,5.0384],[-87.1118,12.436,0.9792],[-87.1171,12.4332,1.6397],[-87.1282,12.4379,2.1113],[-87.1349,12.4388,0.0],[-87.1613,12.4527,1.0819],[-87.1626,12.4574,1.0201],[-87.1576,12.4588,1.6526],[-87.1585,12.4624,0.0],[-87.161,12.4638,0.0],[-87.1668,12.4632,5.6887],[-87.1679,12.4654,2.752],[-87.1657,12.4649,0.0],[-87.1665,12.4682,2.2138],[-87.1704,12.4663,2.1492],[-87.1707,12.4621,2.9416],[-87.1735,12.4593,0.0],[-87.1796,12.4624,0.0],[-87.1821,12.4621,0.0],[-87.1818,12.4601,0.0],[-87.179,12.4604,2.1982],[-87.1699,12.4543,0.9614],[-87.161,12.4515,2.3705],[-87.1293,12.4329,0.7138],[-87.1235,12.431,2.38],[-87.069,12.3965,1.2807]]],
[[[-87.1387,12.4969,2.6554],[-87.1405,12.5002,5.2723],[-87.1478,12.4979,5.4143],[-87.1624,12.514099999999999,3.6287],[-87.1629,12.5001,0.0],[-87.1574,12.5007,1.6949],[-87.1621,12.496,2.9285],[-87.1621,12.4899,0.0],[-87.1535,12.4918,0.0],[-87.1462,12.4913,0.0],[-87.1415,12.4943,0.0],[-87.1401,12.4937,0.0],[-87.139,12.4918,2.4186],[-87.1435,12.4901,2.6614],[-87.1571,12.4893,0.0],[-87.1585,12.486,0.6579],[-87.1513,12.4768,0.0],[-87.1482,12.4751,0.5331],[-87.1485,12.4738,0.5331],[-87.1393,12.4763,2.2457],[-87.1296,12.4724,0.6479],[-87.1312,12.4721,0.0],[-87.1407,12.4749,1.0255],[-87.1468,12.4724,0.0],[-87.1487,12.4704,0.0],[-87.149,12.4626,0.0],[-87.1387,12.4601,0.0],[-87.1338,12.4565,0.0],[-87.1274,12.4565,0.0],[-87.1251,12.4607,3.1303],[-87.1229,12.4574,1.0746],[-87.1243,12.4568,0.0],[-87.1232,12.454,1.1412],[-87.126,12.4532,0.0],[-87.1212,12.4493,0.9432],[-87.1179,12.4493,1.0607],[-87.1174,12.4507,2.6972],[-87.0978,12.4574,3.5772],[-87.1011,12.4638,5.5434],[-87.112,12.477,8.1481],[-87.1309,12.4924,5.102],[-87.1387,12.4969,2.6554]]],
[[[-87.1649,12.5068,0.0],[-87.1649,12.5071,0.0],[-87.165,12.5071,2.2166],[-87.1651,12.5068,1.8675],[-87.1649,12.5068,0.0]]],
[[[-87.1893,12.4751,0.0],[-87.191,12.476,2.7978],[-87.1907,12.474,8.0779],[-87.1918,12.474,2.7255],[-87.1937,12.476,0.0],[-87.1937,12.4732,0.6882],[-87.1888,12.4712,4.7119],[-87.1882,12.4682,0.0],[-87.1835,12.4649,0.0],[-87.184,12.4682,7.8378],[-87.1882,12.4718,4.7119],[-87.1893,12.4751,0.0]]],
[[[-87.2051,12.5235,3.4527],[-87.214,12.5333,0.4747],[-87.2085,12.5249,0.9547],[-87.209,12.5215,0.0],[-87.2029,12.5151,0.0],[-87.1988,12.5138,5.0922],[-87.1993,12.5126,0.0],[-87.1943,12.5096,3.5474],[-87.184,12.4976,3.8925],[-87.1796,12.489,5.6951],[-87.179,12.479,5.1708],[-87.1721,12.4765,0.0],[-87.1693,12.4771,0.6382],[-87.1665,12.4818,0.0],[-87.169,12.5024,0.0],[-87.1826,12.506,0.8188],[-87.1874,12.5096,0.0],[-87.1885,12.5123,0.0],[-87.1905,12.5111,3.4601],[-87.2005,12.5168,4.9281],[-87.2051,12.5235,3.4527]]],
[[[-87.2192,12.5375,4.5516],[-87.2279,12.5415,3.4409],[-87.2165,12.5321,1.7985],[-87.2174,12.5304,0.0],[-87.2154,12.5301,0.0],[-87.2157,12.535,1.0511],[-87.2192,12.5375,4.5516]]],
[[[-87.229,12.5424,3.4696],[-87.229,12.5421,3.4696],[-87.2286,12.5421,5.6996],[-87.2288,12.5423,3.4696],[-87.229,12.5424,3.4696]]],
[[[-87.1647,12.5115,0.0],[-87.1646,12.5115,0.0],[-87.1646,12.5126,0.8858],[-87.1647,12.5115,0.0]]],
[[[-87.1643,12.5129,0.8858],[-87.1646,12.5129,0.8858],[-87.1646,12.5126,0.8858],[-87.1643,12.5126,0.8858],[-87.1643,12.5129,0.8858]]],
[[[-87.2304,12.5426,3.4696],[-87.229,12.5424,3.4696],[-87.2369,12.5541,2.1364],[-87.2401,12.5558,1.0443],[-87.2432,12.553,0.5232],[-87.2412,12.5504,0.0],[-87.2304,12.5426,3.4696]]],
[[[-87.2599,12.5765,7.3851],[-87.2565,12.5817,5.7193],[-87.2555,12.5866,3.2207],[-87.2639,12.5845,6.5471],[-87.2852,12.5853,4.4576],[-87.2937,12.5973,4.3302],[-87.2959,12.5949,4.4131],[-87.3029,12.5961,0.9698],[-87.3125,12.6021,0.0],[-87.3159,12.5995,2.6194],[-87.3085,12.5976,0.532],[-87.2979,12.5901,1.8153],[-87.2962,12.5929,1.1058],[-87.2843,12.5821,5.0847],[-87.2771,12.5815,0.0],[-87.2774,12.579,0.0],[-87.2779,12.5804,0.0],[-87.2843,12.5793,2.5462],[-87.2885,12.5815,1.6074],[-87.2893,12.5846,1.8861],[-87.2924,12.5874,1.5643],[-87.3018,12.5907,0.0],[-87.2996,12.5879,1.8805],[-87.2543,12.5585,0.0],[-87.2487,12.5557,3.4203],[-87.2404,12.5557,1.0443],[-87.2568,12.5705,9.9248],[-87.2599,12.5765,7.3851]]]]}}