{"type": "Feature","bbox": [-86.1569,12.1113,-85.8278,12.5769],"geometry": {"type": "MultiPolygon","coordinates": [[[[-85.8278,12.2412,51.552],[-85.8682,12.2754,59.5152],[-85.9059,12.3034,81.6922],[-85.9249,12.3235,87.5037],[-85.9301,12.3316,99.4474],[-85.9306,12.3344,99.4008],[-85.9272,12.3424,185.1809],[-85.9227,12.3606,119.0],[-85.912,12.3701,119.0],[-85.9132,12.3733,120.9726],[-85.921,12.3779,119.0],[-85.9239,12.3906,232.7027],[-85.9272,12.394,311.6906],[-85.9372,12.3964,388.8542],[-85.9424,12.4006,363.8582],[-85.9636,12.4348,363.5426],[-85.9751,12.4429,424.8442],[-85.9789,12.4554,393.9336],[-85.9777,12.4574,458.2183],[-85.9747,12.4576,407.1664],[-85.9732,12.4604,336.6339],[-85.9793,12.4736,285.3969],[-85.986,12.4835,410.6794],[-85.9858,12.487,430.9123],[-85.9804,12.4875,322.5597],[-85.9785,12.4892,288.2444],[-85.9814,12.4955,354.3578],[-85.9784,12.5022,410.7019],[-85.9725,12.5074,419.5777],[-86.0102,12.5189,573.6605],[-86.0467,12.5374,434.2963],[-86.0655,12.5439,518.2053],[-86.0788,12.555,493.1729],[-86.098,12.5769,494.8777],[-86.1229,12.5759,464.1842],[-86.1502,12.4759,111.4328],[-86.1219,12.4512,96.1093],[-86.1231,12.4116,53.1752],[-86.1151,12.3713,44.4413],[-86.1173,12.359,42.3987],[-86.1234,12.3512,40.7625],[-86.1213,12.3461,40.7039],[-86.1234,12.3385,40.0],[-86.1153,12.3297,40.0],[-86.1159,12.3241,40.0],[-86.1113,12.3193,40.0],[-86.1021,12.3172,40.0],[-86.0985,12.3145,40.0],[-86.1013,12.3014,40.0],[-86.0987,12.2992,43.7682],[-86.0963,12.3007,44.6829],[-86.0951,12.2987,47.1987],[-86.0957,12.2955,46.4392],[-86.1007,12.2914,42.2811],[-86.1014,12.2889,40.0],[-86.0981,12.2589,48.8294],[-86.107,12.2195,43.8684],[-86.1079,12.1851,46.7032],[-86.1126,12.1711,43.6807],[-86.117,12.1665,45.6937],[-86.1269,12.1635,49.0692],[-86.1513,12.161,46.3278],[-86.1569,12.1617,46.8071],[-86.1558,12.1305,65.3],[-86.1532,12.1243,69.3451],[-86.1451,12.1176,77.0456],[-86.1273,12.1113,79.9107],[-86.1201,12.1187,83.1552],[-86.1151,12.1214,96.8135],[-86.098,12.1256,104.3612],[-86.0789,12.1241,101.8306],[-86.0684,12.1262,82.4735],[-86.0489,12.138,47.304],[-86.0409,12.1402,39.5636],[-86.0349,12.1403,36.8155],[-86.0227,12.1352,34.78],[-86.0032,12.1304,33.3657],[-85.9881,12.1314,31.4078],[-85.9675,12.1403,38.8409],[-85.9196,12.1551,40.1278],[-85.907,12.1663,41.7351],[-85.9042,12.1794,43.1511],[-85.8908,12.1902,45.0293],[-85.8867,12.1869,44.0585],[-85.872,12.1867,42.5479],[-85.8671,12.1798,40.3211],[-85.8498,12.1739,41.7607],[-85.8496,12.1801,43.8301],[-85.8521,12.1902,43.9189],[-85.8505,12.1948,49.8286],[-85.8424,12.1991,43.0392],[-85.8481,12.2052,45.1674],[-85.8487,12.2087,45.1539],[-85.8278,12.2412,51.552]]]]}
,"properties": {"GID_2": "NIC.13.7_1","GID_0": "NIC","country": "Nicaragua","GID_1": "NIC.13_1","province": "Managua","NL_NAME_1": "NA","county": "Tipitapa","VARNAME_2": "NA","NL_NAME_2": "NA","TYPE_2": "Municipio","ENGTYPE_2": "Municipality","CC_2": "NA","HASC_2": "NI.MN.TP","name": "Tipitapa.county","area_km2": 1003.9673,"hist_schema_id": "Elevation0-9000","hist_area_km2": {"25": 31.2145,"50": 349.5299,"75": 256.3918,"100": 70.3813,"125": 27.4163,"150": 23.0455,"175": 23.1279,"200": 20.0835,"225": 19.2139,"250": 19.6072,"275": 18.7582,"300": 18.4049,"325": 15.9617,"350": 12.8355,"375": 14.6155,"400": 12.4208,"425": 11.7165,"450": 13.4141,"475": 16.0011,"500": 13.5163,"525": 8.7146,"550": 3.5394,"575": 2.6079,"600": 1.0142,"625": 0.2898,"650": 0.1449}}}