{"type": "Feature","bbox": [-86.3801,13.6348,-86.1767,13.9097],"geometry": {"type": "MultiPolygon","coordinates": [[[[-86.3579,13.7603,1518.5929],[-86.3681,13.763,1618.1639],[-86.3724,13.7694,1552.9404],[-86.3762,13.7698,1719.1675],[-86.38,13.7666,1789.3273],[-86.3595,13.7151,1109.0159],[-86.3608,13.6876,902.0912],[-86.3773,13.6563,695.8766],[-86.3801,13.6348,625.0074],[-86.362,13.6414,638.7959],[-86.3072,13.6538,645.4676],[-86.27,13.6728,784.606],[-86.2307,13.6867,696.7142],[-86.2352,13.7023,726.046],[-86.2321,13.7215,730.3152],[-86.2223,13.7368,780.4628],[-86.2099,13.7619,652.1027],[-86.1882,13.7864,698.6766],[-86.1802,13.7984,692.0225],[-86.1767,13.8141,617.9993],[-86.1816,13.8293,673.9218],[-86.2161,13.8797,919.2599],[-86.2314,13.9097,1211.6821],[-86.2422,13.9018,1027.191],[-86.2521,13.8842,1290.592],[-86.2758,13.8689,1084.488],[-86.2801,13.8554,1014.8315],[-86.2829,13.8531,1175.139],[-86.2979,13.8481,1321.0581],[-86.3004,13.8455,1284.3367],[-86.3028,13.8416,1155.7482],[-86.2985,13.8269,1234.9042],[-86.3013,13.814,1152.1283],[-86.313,13.8009,1111.6667],[-86.3214,13.7812,1363.4872],[-86.3288,13.7734,1557.9808],[-86.3462,13.7618,1631.9656],[-86.3521,13.7596,1672.3105],[-86.3579,13.7603,1518.5929]]]]}
,"properties": {"GID_2": "NIC.16.10_1","GID_0": "NIC","country": "Nicaragua","GID_1": "NIC.16_1","province": "NuevaSegovia","NL_NAME_1": "NA","county": "SanFernando","VARNAME_2": "NA","NL_NAME_2": "NA","TYPE_2": "Municipio","ENGTYPE_2": "Municipality","CC_2": "NA","HASC_2": "NI.NS.SF","name": "San_Fernando.county","area_km2": 336.5174,"hist_schema_id": "Elevation0-9000","hist_area_km2": {"575": 1.3384,"600": 6.3421,"625": 10.8522,"650": 12.2334,"675": 15.8999,"700": 20.7409,"725": 21.6476,"750": 20.2674,"775": 14.0879,"800": 11.5333,"825": 11.5534,"850": 10.6264,"875": 11.388,"900": 12.7265,"925": 13.3853,"950": 14.7233,"975": 14.6407,"1000": 14.2495,"1025": 13.2196,"1050": 11.9219,"1075": 9.7187,"1100": 8.6479,"1125": 7.8449,"1150": 6.733,"1175": 5.1268,"1200": 4.6738,"1225": 4.0151,"1250": 3.9945,"1275": 3.0681,"1300": 2.224,"1325": 1.9769,"1350": 1.8946,"1375": 1.2356,"1400": 1.2768,"1425": 1.2562,"1450": 0.865,"1475": 0.9679,"1500": 1.0503,"1525": 0.7002,"1550": 1.0297,"1575": 0.8649,"1600": 0.8855,"1625": 0.7414,"1650": 0.7414,"1675": 0.4119,"1700": 0.3913,"1725": 0.4531,"1750": 0.2265,"1775": 0.0824,"1800": 0.0206,"1825": 0.0206}}}