{"type":"Feature","properties":{"GID_2":"NIC.8.1_1","GID_0":"NIC","country":"Nicaragua","GID_1":"NIC.8_1","province":"Granada","NL_NAME_1":"NA","county":"Diriá","VARNAME_2":"Diri","NL_NAME_2":"NA","TYPE_2":"Municipio","ENGTYPE_2":"Municipality","CC_2":"NA","HASC_2":"NI.GR.DA","name":"Diriá.county"},
"geometry":{"type": "MultiPolygon","coordinates": [[[[-86.0881,11.8243,286.5908],[-86.0868,11.8216,278.7253],[-86.0783,11.8195,272.8147],[-86.0656,11.8202,226.9977],[-86.0581,11.8238,240.9332],[-86.0556,11.8343,267.8931],[-86.0583,11.8472,290.4042],[-86.0588,11.8633,310.6719],[-86.0552,11.866,326.7189],[-86.0342,11.8713,319.6281],[-86.0235,11.8801,320.8986],[-86.0245,11.8854,355.3191],[-86.0344,11.8856,374.1205],[-86.042,11.8878,370.4806],[-86.0481,11.8907,390.105],[-86.0546,11.8972,372.6725],[-86.0725,11.8711,349.5749],[-86.0819,11.8379,293.1896],[-86.0881,11.8243,286.5908]]]]}}