{"type":"Feature","properties":{"GID_2":"NIC.4.1_1","GID_0":"NIC","country":"Nicaragua","GID_1":"NIC.4_1","province":"Carazo","NL_NAME_1":"NA","county":"Diriamba","VARNAME_2":"NA","NL_NAME_2":"NA","TYPE_2":"Municipio","ENGTYPE_2":"Municipality","CC_2":"NA","HASC_2":"NI.CA.DI","name":"Diriamba.county"},
"geometry":{"type": "MultiPolygon","coordinates": [[[[-86.1327,11.8115,385.7318],[-86.1368,11.8137,390.4827],[-86.14,11.812,392.3417],[-86.1459,11.812,394.5538],[-86.1562,11.8139,419.5287],[-86.1736,11.8209,458.8287],[-86.1752,11.8116,433.1967],[-86.1707,11.7944,369.8174],[-86.171,11.7693,300.575],[-86.1624,11.7329,212.9106],[-86.1616,11.7165,222.006],[-86.1642,11.6854,230.4548],[-86.1661,11.6776,209.4575],[-86.1686,11.6703,261.9324],[-86.1759,11.6612,265.4487],[-86.177,11.6568,340.251],[-86.1684,11.6491,375.5584],[-86.1655,11.6409,314.7681],[-86.1683,11.6323,291.5165],[-86.1751,11.626,361.6913],[-86.1877,11.6218,304.0782],[-86.193,11.6221,182.6945],[-86.1932,11.6153,260.2069],[-86.1968,11.6069,309.3659],[-86.201,11.5887,276.5628],[-86.205,11.5808,182.932],[-86.2112,11.5736,59.8775],[-86.2189,11.5549,0.0],[-86.2057,11.5501,8.1187],[-86.201,11.5438,2.5757],[-86.2015,11.5396,0.0],[-86.1982,11.5399,0.41],[-86.1876,11.5346,6.0866],[-86.1843,11.5299,0.0],[-86.1776,11.5262,6.379],[-86.1771,11.5201,0.0],[-86.174,11.5187,0.0],[-86.1665,11.5231,5.6968],[-86.1621,11.5279,16.8423],[-86.1619,11.5355,10.6784],[-86.157,11.5392,12.6752],[-86.1559,11.5423,14.0163],[-86.1575,11.5503,21.29],[-86.1506,11.5557,21.9377],[-86.1466,11.5712,29.1895],[-86.1178,11.5985,61.6359],[-86.1135,11.6048,66.1713],[-86.1226,11.6246,127.7956],[-86.13,11.6326,133.1217],[-86.1348,11.6405,290.3766],[-86.1349,11.6451,305.0175],[-86.1291,11.6613,276.3202],[-86.1289,11.6676,374.59],[-86.1338,11.6936,231.0973],[-86.1331,11.7019,189.3685],[-86.1317,11.7043,181.8831],[-86.1267,11.7069,165.9461],[-86.1064,11.7079,142.1421],[-86.1031,11.7093,135.5369],[-86.099,11.7148,126.198],[-86.0969,11.7218,124.7375],[-86.0973,11.7305,139.9993],[-86.1089,11.7618,215.1752],[-86.112,11.7809,285.6616],[-86.111,11.7933,305.8839],[-86.1011,11.8049,304.696],[-86.1043,11.807,313.9989],[-86.1179,11.8077,350.6735],[-86.1327,11.8115,385.7318]]],
[[[-86.2198,11.8849,647.362],[-86.2195,11.8878,655.8043],[-86.2438,11.8875,657.252],[-86.255,11.8939,671.8984],[-86.2727,11.879,591.236],[-86.3223,11.8594,425.731],[-86.3314,11.854,361.2777],[-86.3365,11.8491,344.6468],[-86.3507,11.8244,247.8944],[-86.376,11.8124,143.7307],[-86.3941,11.7904,99.2893],[-86.4101,11.786,75.1562],[-86.4302,11.7729,52.04],[-86.4357,11.7671,44.8117],[-86.4405,11.7575,37.6589],[-86.4353,11.7491,47.6467],[-86.4358,11.7421,26.2463],[-86.4283,11.7311,20.4515],[-86.4302,11.7235,11.2497],[-86.4382,11.7179,2.3619],[-86.4051,11.6979,3.9595],[-86.3896,11.6815,0.0],[-86.384,11.6799,2.1998],[-86.3849,11.6776,1.2356],[-86.3815,11.6765,6.9731],[-86.381,11.6738,0.0],[-86.3662,11.6563,0.0],[-86.3621,11.6485,0.0],[-86.3601,11.6482,3.1071],[-86.3599,11.6449,0.0],[-86.3504,11.6321,0.0],[-86.3485,11.6357,5.3499],[-86.3463,11.6313,0.0],[-86.3415,11.6288,7.4913],[-86.3418,11.6257,0.0],[-86.3293,11.6165,0.0],[-86.3279,11.6165,0.0],[-86.3279,11.6182,0.0],[-86.3232,11.6135,0.0],[-86.3221,11.6149,0.0],[-86.3154,11.6124,2.987],[-86.3079,11.6065,0.0],[-86.301,11.6049,0.0],[-86.2946,11.601,0.0],[-86.2901,11.6013,6.7672],[-86.2887,11.6004,0.0],[-86.2904,11.6001,0.0],[-86.2899,11.5988,0.0],[-86.2824,11.596,0.0],[-86.2773,11.5992,5.243],[-86.277,11.6017,4.5644],[-86.2792,11.6127,19.1527],[-86.2792,11.6235,19.7542],[-86.2765,11.6294,24.5733],[-86.2705,11.6315,25.0673],[-86.2682,11.636,33.1081],[-86.2687,11.6389,33.5206],[-86.2826,11.6454,41.6068],[-86.285,11.6485,39.1281],[-86.2855,11.6533,63.4801],[-86.2793,11.674,153.4742],[-86.2787,11.6828,79.608],[-86.2767,11.6883,86.5491],[-86.2705,11.6939,140.4942],[-86.2688,11.6987,119.7955],[-86.2699,11.7025,122.5487],[-86.2682,11.7121,92.3835],[-86.255,11.745,198.5328],[-86.2515,11.7635,235.2225],[-86.253,11.7858,318.1444],[-86.2485,11.8118,419.4356],[-86.2227,11.8734,622.2838],[-86.2198,11.8849,647.362]]]]}}