{"type": "Feature","bbox": [-85.8521,12.0371,-85.5621,12.4076],"geometry": {"type": "MultiPolygon","coordinates": [[[[-85.6561,12.4076,539.402],[-85.7066,12.3579,499.8226],[-85.7254,12.2801,527.7743],[-85.7531,12.2737,377.3881],[-85.7558,12.2538,246.8417],[-85.8278,12.2412,51.552],[-85.8487,12.2087,45.1539],[-85.8481,12.2052,45.1674],[-85.8424,12.1991,43.0392],[-85.8505,12.1948,49.8286],[-85.8521,12.1902,43.9189],[-85.8496,12.1801,43.8301],[-85.8498,12.1739,41.7607],[-85.8476,12.1683,38.001],[-85.8415,12.163,36.7445],[-85.847,12.1567,38.9889],[-85.847,12.133,39.2817],[-85.8433,12.1266,35.8759],[-85.8338,12.1228,34.3945],[-85.8249,12.1246,35.0499],[-85.8196,12.1234,37.141],[-85.8038,12.1138,31.3505],[-85.7901,12.1102,31.0],[-85.7867,12.1063,31.0],[-85.7857,12.091,31.0],[-85.784,12.0894,31.0],[-85.7804,12.0906,31.0],[-85.7796,12.0964,31.0],[-85.7775,12.0976,31.0],[-85.7741,12.096,31.0],[-85.7607,12.0794,31.0],[-85.7437,12.0703,31.0],[-85.7229,12.0657,31.0],[-85.7049,12.0691,31.0],[-85.7045,12.0601,31.0],[-85.6954,12.0445,31.0],[-85.6933,12.0428,31.0],[-85.669,12.0371,31.0],[-85.6748,12.0593,31.0],[-85.6762,12.0757,35.6494],[-85.6659,12.0886,35.442],[-85.6606,12.1029,70.6528],[-85.6481,12.1252,49.0111],[-85.6394,12.1373,69.3794],[-85.6384,12.1449,72.876],[-85.6418,12.1582,169.9818],[-85.638,12.1758,365.2747],[-85.632,12.1857,217.2151],[-85.6032,12.2003,213.2948],[-85.5989,12.2046,256.1049],[-85.5973,12.2098,307.2418],[-85.5959,12.2346,420.0495],[-85.5901,12.2676,147.4149],[-85.5821,12.2846,144.6228],[-85.5701,12.2989,226.7696],[-85.5621,12.3047,373.8445],[-85.6027,12.3597,639.3505],[-85.6084,12.3734,565.166],[-85.6079,12.3866,537.849],[-85.6386,12.3776,410.6124],[-85.6561,12.4076,539.402]]]]}
,"properties": {"GID_2": "NIC.3.4_1","GID_0": "NIC","country": "Nicaragua","GID_1": "NIC.3_1","province": "Boaco","NL_NAME_1": "NA","county": "SanLorenzo","VARNAME_2": "NA","NL_NAME_2": "NA","TYPE_2": "Municipio","ENGTYPE_2": "Municipality","CC_2": "NA","HASC_2": "NI.BO.SZ","name": "San_Lorenzo.county","area_km2": 644.7846,"hist_schema_id": "Elevation0-9000","hist_area_km2": {"25": 121.4978,"50": 167.2158,"75": 36.7625,"100": 24.8868,"125": 24.9268,"150": 23.4956,"175": 27.2855,"200": 24.7577,"225": 23.846,"250": 24.1149,"275": 21.7732,"300": 18.955,"325": 16.5101,"350": 12.3463,"375": 11.4757,"400": 9.0105,"425": 8.472,"450": 6.8561,"475": 5.9239,"500": 5.5303,"525": 4.6189,"550": 3.7075,"575": 4.1632,"600": 2.7548,"625": 2.9825,"650": 3.1069,"675": 2.7754,"700": 1.4292,"725": 1.0149,"750": 1.1185,"775": 0.435,"800": 0.3314,"825": 0.1864,"850": 0.2071,"875": 0.145,"900": 0.1243,"925": 0.0414}}}