{"type": "Feature","bbox": [-84.4342,10.9189,-83.6343,12.174],"geometry": {"type": "MultiPolygon","coordinates": [[[[-84.1107,11.119,132.6471],[-84.0979,11.1143,91.3543],[-84.0921,11.1137,96.4128],[-84.0765,11.1177,80.7213],[-84.07,11.1231,145.0548],[-84.0671,11.1237,161.2124],[-84.0648,11.1229,132.8622],[-84.0627,11.1191,87.8171],[-84.0528,11.1207,42.0267],[-84.0508,11.1187,61.5631],[-84.0519,11.1151,47.279],[-84.0575,11.1117,95.613],[-84.0525,11.0935,52.1308],[-84.0448,11.0811,59.3766],[-84.0345,11.0743,50.9477],[-84.0295,11.0761,26.6458],[-84.0273,11.0791,44.9188],[-84.0107,11.0825,30.1891],[-84.0041,11.0881,35.7602],[-83.9955,11.0871,106.6131],[-83.9844,11.0991,30.7113],[-83.9814,11.0995,42.7073],[-83.9786,11.0945,39.9904],[-83.9738,11.0963,38.3883],[-83.9691,11.0957,34.302],[-83.9663,11.0917,31.109],[-83.9634,11.0943,22.3611],[-83.9576,11.0943,32.5052],[-83.948,11.0971,29.974],[-83.9493,11.1011,20.0913],[-83.9483,11.1043,27.1202],[-83.9432,11.1037,35.0302],[-83.9377,11.1067,25.1299],[-83.9273,11.1007,22.46],[-83.9156,11.1109,26.9587],[-83.908,11.1103,25.8265],[-83.9051,11.1041,23.5418],[-83.9014,11.1025,19.1667],[-83.9004,11.0991,18.4902],[-83.9035,11.0773,12.9386],[-83.8932,11.0619,13.2519],[-83.8922,11.0587,12.018],[-83.8935,11.0479,13.0107],[-83.889,11.0407,13.2546],[-83.8834,11.0375,10.7249],[-83.8749,11.0443,14.3867],[-83.8658,11.0475,1.4509],[-83.8413,11.0421,13.8385],[-83.8285,11.0411,7.9924],[-83.8192,11.0351,14.7541],[-83.805,11.0217,18.0458],[-83.7628,10.9573,13.1064],[-83.7453,10.9405,13.3048],[-83.7315,10.9323,23.5672],[-83.73,10.9301,9.1472],[-83.7304,10.9269,24.9732],[-83.7331,10.9225,12.6501],[-83.7301,10.9197,10.3941],[-83.7134,10.9189,16.4841],[-83.7145,10.9267,1.242],[-83.7215,10.9311,0.0],[-83.7275,10.9385,3.286],[-83.7193,10.9377,3.1087],[-83.7196,10.941,0.0],[-83.7357,10.9496,2.8759],[-83.7535,10.966,8.0175],[-83.7682,10.9849,2.2537],[-83.7804,11.0065,5.2458],[-83.7674,10.9854,2.611],[-83.7504,10.9649,2.4324],[-83.7304,10.9476,2.3815],[-83.7215,10.9429,0.7817],[-83.7149,10.9435,0.0],[-83.7149,10.9446,0.0],[-83.7221,10.9463,4.6073],[-83.7301,10.9507,1.654],[-83.7476,10.9674,4.7487],[-83.7649,10.989,2.9239],[-83.7951,11.0393,0.654],[-83.8143,11.0799,4.4643],[-83.8376,11.1429,1.2276],[-83.8399,11.1451,5.6336],[-83.8393,11.149,0.0],[-83.8604,11.2243,4.3733],[-83.8671,11.2568,5.8374],[-83.8715,11.289,0.0],[-83.8749,11.2924,2.7772],[-83.8729,11.2991,0.0],[-83.8746,11.3174,0.0],[-83.874,11.3543,0.0],[-83.8701,11.3813,0.0],[-83.866,11.3971,0.0],[-83.8604,11.399,3.3229],[-83.8579,11.4104,0.0],[-83.8521,11.4113,0.0],[-83.8487,11.4218,9.3641],[-83.8476,11.4232,0.0],[-83.8457,11.4226,0.0],[-83.8399,11.4363,21.4746],[-83.8324,11.4371,17.5697],[-83.8276,11.4474,15.2063],[-83.8246,11.4477,6.2492],[-83.8224,11.4443,0.0],[-83.8187,11.4477,11.012],[-83.8151,11.4465,0.0],[-83.8138,11.444,0.0],[-83.8115,11.446,12.8764],[-83.8082,11.4457,23.9391],[-83.8068,11.4424,0.0],[-83.8021,11.4443,6.9087],[-83.7996,11.441,0.0],[-83.8001,11.4446,1.5153],[-83.7912,11.474,6.9145],[-83.7879,11.4768,0.0],[-83.7843,11.4765,1.3213],[-83.7843,11.4732,0.0],[-83.7832,11.4749,0.0],[-83.7815,11.4743,0.0],[-83.7821,11.4765,11.7416],[-83.7735,11.5071,0.0],[-83.7749,11.5085,1.29],[-83.7854,11.5088,1.8343],[-83.7862,11.5113,0.0],[-83.7896,11.504,0.0],[-83.7935,11.504,0.0],[-83.7951,11.5063,0.0],[-83.7918,11.5046,1.1972],[-83.7893,11.5054,0.0],[-83.7893,11.5101,4.7351],[-83.7871,11.5135,8.4472],[-83.7768,11.5124,12.3011],[-83.7721,11.5101,0.0],[-83.7604,11.5435,1.1022],[-83.7513,11.5621,13.2809],[-83.7479,11.5629,3.3304],[-83.7465,11.5607,1.8079],[-83.7418,11.5612,0.0],[-83.7399,11.5651,0.0],[-83.7368,11.5655,25.8939],[-83.736,11.5638,4.4177],[-83.734,11.5649,0.0],[-83.7337,11.5674,5.4268],[-83.7299,11.5649,0.0],[-83.7282,11.5668,0.0],[-83.7249,11.5668,0.0],[-83.724,11.5643,0.0],[-83.7204,11.5668,6.0837],[-83.7174,11.5668,0.0],[-83.7171,11.5643,0.0],[-83.7151,11.5629,8.0749],[-83.7157,11.5607,0.9948],[-83.7129,11.5596,0.0],[-83.7135,11.566,0.0],[-83.7093,11.576,15.283],[-83.7035,11.5827,12.2708],[-83.7001,11.5832,0.0],[-83.6957,11.5882,2.3525],[-83.6915,11.5885,0.0],[-83.6918,11.591,7.3799],[-83.6882,11.5968,1.1423],[-83.6818,11.6029,5.7684],[-83.6771,11.6057,5.9389],[-83.674,11.6049,0.0],[-83.6746,11.6032,0.0],[-83.6701,11.6038,26.0669],[-83.6693,11.5996,0.0],[-83.6607,11.5979,0.9034],[-83.6607,11.5929,0.0],[-83.654,11.5896,0.0],[-83.6532,11.5913,1.7336],[-83.6546,11.5935,32.9782],[-83.6535,11.5943,11.1532],[-83.6507,11.594,21.5577],[-83.649,11.596,14.5484],[-83.6454,11.5943,0.0],[-83.6476,11.5988,9.9995],[-83.6462,11.5993,0.0],[-83.6462,11.6046,2.2766],[-83.6429,11.6051,0.0],[-83.6457,11.6074,0.0],[-83.646,11.6101,0.0],[-83.6443,11.6121,0.0],[-83.6451,11.6146,1.5648],[-83.6435,11.6151,0.0],[-83.6435,11.6182,0.0],[-83.6474,11.6179,4.1389],[-83.6501,11.6201,2.3919],[-83.6554,11.6301,9.6123],[-83.6643,11.6893,0.0],[-83.6682,11.7015,0.7838],[-83.6776,11.7649,1.4077],[-83.6865,11.7965,0.0],[-83.6874,11.7985,3.1904],[-83.6896,11.7982,8.3066],[-83.6915,11.8004,10.9962],[-83.6999,11.8215,9.9233],[-83.704,11.8563,0.3251],[-83.7199,11.8574,0.0],[-83.726,11.8615,4.8868],[-83.729,11.8665,3.4324],[-83.7387,11.8719,0.0],[-83.7418,11.8715,2.9268],[-83.7418,11.8674,3.6309],[-83.7479,11.8599,1.094],[-83.7493,11.8546,0.0],[-83.7476,11.8503,2.9919],[-83.7524,11.8396,0.0],[-83.7482,11.8135,3.384],[-83.7437,11.8105,2.9026],[-83.7459,11.8043,3.9934],[-83.7515,11.8013,3.4246],[-83.7582,11.8029,0.0],[-83.7618,11.8018,11.6799],[-83.7634,11.8035,1.7494],[-83.766,11.8018,7.2458],[-83.7838,11.8001,6.9568],[-83.7874,11.8051,10.8283],[-83.786,11.8138,0.0],[-83.7901,11.8168,3.9571],[-83.7937,11.816,0.0],[-83.796,11.8174,0.0],[-83.8121,11.8321,0.0],[-83.8135,11.8376,4.5793],[-83.8196,11.8465,3.063],[-83.8185,11.8537,0.0],[-83.8143,11.8584,1.6258],[-83.8179,11.8607,0.0],[-83.8213,11.8607,4.6292],[-83.8254,11.8643,1.3405],[-83.8349,11.8643,1.1522],[-83.8401,11.8776,7.3958],[-83.8399,11.8821,8.2411],[-83.8326,11.8846,1.1865],[-83.8238,11.8943,2.2702],[-83.8174,11.894,4.3607],[-83.8115,11.8963,0.0],[-83.806,11.9015,3.1583],[-83.8012,11.9026,0.0],[-83.7991,11.9071,3.9358],[-83.8026,11.914,0.0],[-83.8018,11.9169,0.0],[-83.7985,11.9174,0.0],[-83.7985,11.9226,1.5962],[-83.7893,11.9276,1.1315],[-83.7879,11.9313,3.0738],[-83.7796,11.9324,0.0],[-83.781,11.934,2.7076],[-83.7799,11.9393,3.4971],[-83.7746,11.9424,6.988],[-83.769,11.9429,0.0],[-83.7707,11.9479,3.2571],[-83.7696,11.9499,0.0],[-83.7651,11.9515,0.0],[-83.7682,11.9546,0.0],[-83.7707,11.9549,6.852],[-83.7732,11.9593,0.0],[-83.7704,11.9626,4.809],[-83.7715,11.9671,2.6582],[-83.769,11.9688,0.0],[-83.7721,11.9785,2.3454],[-83.7665,11.9835,0.0],[-83.7618,11.9838,9.859],[-83.7596,11.9876,14.5633],[-83.7646,11.9943,0.0],[-83.7632,11.9996,0.8266],[-83.7643,12.0054,2.0022],[-83.7585,12.0068,0.0],[-83.759,12.0112,0.0],[-83.7565,12.0146,0.5331],[-83.7607,12.0174,3.3951],[-83.7588,12.0176,0.0],[-83.7596,12.0204,11.227],[-83.7585,12.0221,0.0],[-83.761,12.0224,2.4368],[-83.7599,12.0251,4.5971],[-83.7635,12.0263,2.7268],[-83.761,12.029,3.3932],[-83.7621,12.0343,1.7172],[-83.764,12.0363,1.1717],[-83.7674,12.0349,3.9793],[-83.766,12.0382,2.3174],[-83.771,12.0387,9.244],[-83.7729,12.0419,1.7691],[-83.7757,12.0415,2.2039],[-83.7765,12.0446,4.4372],[-83.774,12.0485,2.0762],[-83.7782,12.0513,2.766],[-83.7826,12.0518,4.9237],[-83.7838,12.056,0.0],[-83.7882,12.0546,1.4915],[-83.7904,12.0521,0.0],[-83.7948,12.0527,0.0],[-83.7957,12.056,0.0],[-83.8024,12.0513,6.4785],[-83.8046,12.054,0.0],[-83.8021,12.061,6.6066],[-83.7965,12.0588,3.7856],[-83.7937,12.0557,4.0069],[-83.7898,12.0577,6.0412],[-83.7838,12.0574,4.9092],[-83.7801,12.0535,0.0],[-83.7735,12.051,9.3567],[-83.769,12.0429,6.2533],[-83.7613,12.0374,3.2102],[-83.759,12.0382,0.0],[-83.7562,12.0507,4.9216],[-83.754,12.0385,0.0],[-83.7518,12.0365,0.0],[-83.7496,12.0376,2.5357],[-83.744,12.0521,3.1864],[-83.7443,12.0612,2.747],[-83.7426,12.0596,0.0],[-83.7368,12.0599,0.0],[-83.7343,12.0563,0.0],[-83.7337,12.0638,6.0307],[-83.7318,12.0674,0.0],[-83.7404,12.074,0.0],[-83.7399,12.0843,1.8344],[-83.7365,12.0846,1.2512],[-83.7346,12.0893,0.0],[-83.7299,12.0924,1.5273],[-83.7288,12.099,3.5254],[-83.7235,12.1057,0.0],[-83.7251,12.1115,7.3491],[-83.7235,12.1132,0.0],[-83.7229,12.1218,1.5564],[-83.7199,12.1237,0.0],[-83.7138,12.1237,0.0],[-83.7101,12.129,4.2169],[-83.7121,12.1338,1.7913],[-83.7185,12.139,6.9551],[-83.7182,12.1432,0.0],[-83.7199,12.1468,0.6569],[-83.7268,12.1513,11.054],[-83.7276,12.1574,0.0],[-83.7324,12.1582,0.0],[-83.7312,12.1629,0.0],[-83.7335,12.166,1.4872],[-83.7412,12.1654,11.2819],[-83.7442,12.1675,10.8757],[-83.7466,12.1654,2.5552],[-83.7457,12.1628,1.5381],[-83.7507,12.1514,10.3662],[-83.7525,12.1486,11.2366],[-83.7565,12.1468,7.9646],[-83.7698,12.1436,0.0],[-83.7767,12.1447,0.0],[-83.7803,12.1416,5.12],[-83.7858,12.1443,3.6375],[-83.8043,12.1487,2.3205],[-83.8213,12.1483,1.331],[-83.8371,12.1445,1.3886],[-83.8527,12.1371,0.9402],[-83.8623,12.1286,0.8922],[-83.88,12.1264,0.8161],[-83.8926,12.1227,0.5],[-83.8915,12.1076,0.7791],[-83.8985,12.1039,1.0216],[-83.9136,12.1024,1.1038],[-83.9232,12.1054,1.7511],[-83.9325,12.1024,6.9094],[-83.9395,12.088,7.9907],[-83.9447,12.0814,14.2285],[-83.9524,12.0754,4.7493],[-83.955,12.0695,2.8103],[-83.962,12.0663,13.876],[-83.9723,12.0711,14.3492],[-83.9793,12.0815,6.3304],[-83.9845,12.0847,1.2056],[-83.9978,12.0863,2.7646],[-83.9979,12.0821,2.9047],[-83.9887,12.0665,1.9243],[-83.9912,12.0589,1.3338],[-83.9861,12.0439,8.4973],[-83.9875,12.0329,6.6916],[-83.9899,12.0289,4.5884],[-84.0017,12.0185,5.7074],[-84.01,12.0143,1.3319],[-84.0189,12.0016,1.915],[-84.0337,11.9954,8.2855],[-84.04,11.9877,2.731],[-84.0437,11.9757,3.4171],[-84.0459,11.9455,6.7555],[-84.052,11.9247,7.4754],[-84.0505,11.9195,10.3203],[-84.0451,11.9147,20.5351],[-84.0453,11.8935,25.9096],[-84.0398,11.8783,37.8941],[-84.0409,11.8583,12.3778],[-84.047,11.8519,15.9723],[-84.0412,11.8339,14.21],[-84.0417,11.8111,43.3223],[-84.0398,11.8019,18.8496],[-84.0346,11.7909,30.9455],[-84.0334,11.7829,20.288],[-84.0294,11.7739,19.9389],[-84.0326,11.7699,15.4042],[-84.0324,11.7669,25.4766],[-84.0365,11.7574,33.4606],[-84.0541,11.7331,20.6066],[-84.0628,11.7255,22.8272],[-84.0765,11.7197,30.2461],[-84.07,11.7109,22.9254],[-84.0649,11.6865,17.5429],[-84.0492,11.6459,28.8024],[-84.0365,11.6053,38.4121],[-84.0312,11.5807,23.6885],[-84.0398,11.5779,18.4192],[-84.0435,11.5729,27.093],[-84.050299999999993,11.5711,74.8723],[-84.0521,11.5611,10.0787],[-84.0559,11.5579,10.3332],[-84.0592,11.5583,10.9032],[-84.0689,11.5657,97.142],[-84.0758,11.5683,123.8566],[-84.0834,11.5678,38.9985],[-84.095,11.5628,23.4253],[-84.1021,11.5637,18.3363],[-84.1064,11.5603,35.8635],[-84.112,11.5506,32.8967],[-84.1155,11.5488,34.2604],[-84.1218,11.55,57.5325],[-84.122,11.5613,76.1556],[-84.1297,11.5641,143.5833],[-84.1456,11.5633,156.4102],[-84.1529,11.5575,172.5296],[-84.1557,11.5635,179.3594],[-84.1645,11.5591,157.4813],[-84.1769,11.5597,167.2249],[-84.1915,11.5543,163.4812],[-84.2031,11.5407,65.8073],[-84.2172,11.5287,80.957],[-84.2215,11.5195,98.3018],[-84.2309,11.5095,61.1987],[-84.2481,11.481,233.1041],[-84.2549,11.4639,175.713],[-84.2578,11.4607,99.9467],[-84.2916,11.4503,206.511],[-84.301,11.4433,166.0364],[-84.3156,11.4269,197.9059],[-84.3504,11.4181,240.6815],[-84.3719,11.3967,224.8698],[-84.3946,11.3836,209.9997],[-84.4049,11.3811,220.67],[-84.4272,11.3815,236.9824],[-84.4342,11.3763,257.1022],[-84.414,11.3637,149.6049],[-84.3958,11.3573,276.1723],[-84.3845,11.3503,196.567],[-84.3667,11.3457,197.5987],[-84.3601,11.3399,187.2432],[-84.3566,11.3323,188.8554],[-84.3562,11.3265,212.7331],[-84.3604,11.3011,240.1801],[-84.3597,11.2829,235.1787],[-84.3546,11.2727,234.0512],[-84.3471,11.2643,220.3416],[-84.3188,11.2545,153.1946],[-84.2881,11.2411,245.1351],[-84.2472,11.2207,346.5094],[-84.2375,11.2143,302.0825],[-84.228,11.2049,196.959],[-84.2231,11.1975,308.7632],[-84.2087,11.1703,271.4004],[-84.2024,11.1623,250.6596],[-84.192,11.1425,171.5856],[-84.188,11.1389,259.8581],[-84.1815,11.1371,243.0463],[-84.174,11.1321,191.7885],[-84.166,11.1323,137.726],[-84.1629,11.127,165.3305],[-84.1562,11.1273,267.3055],[-84.149,11.1227,301.8149],[-84.1446,11.1251,236.2765],[-84.1341,11.1187,156.0285],[-84.123,11.1213,168.9205],[-84.1107,11.119,132.6471]]],
[[[-83.7582,11.8696,0.0],[-83.7613,11.869,0.0],[-83.7588,11.866,0.0],[-83.7574,11.8676,2.871],[-83.7582,11.8696,0.0]]],
[[[-83.7874,11.8718,18.5977],[-83.7899,11.8718,4.0265],[-83.791,11.8693,0.0],[-83.7873,11.8679,0.0],[-83.7857,11.8704,0.0],[-83.7874,11.8718,18.5977]]],
[[[-83.7667,11.8751,0.0],[-83.7688,11.8759,0.0],[-83.7696,11.8732,3.4165],[-83.7676,11.8724,0.0],[-83.7667,11.8751,0.0]]],
[[[-83.8076,11.8827,0.5072],[-83.8101,11.8826,0.4325],[-83.8085,11.879,0.4502],[-83.8071,11.8791,0.4502],[-83.8076,11.8827,0.5072]]],
[[[-83.7515,11.9915,1.8847],[-83.7529,11.9921,0.0],[-83.7535,11.9887,0.0],[-83.7521,11.9887,0.0],[-83.7515,11.9915,1.8847]]],
[[[-83.741,12.0571,0.4588],[-83.7424,12.0576,0.4588],[-83.7435,12.0557,4.8561],[-83.7446,12.046,1.7603],[-83.7404,12.0515,0.0],[-83.741,12.0571,0.4588]]],
[[[-83.7299,12.1657,4.5947],[-83.7296,12.1674,0.0],[-83.7329,12.1675,8.4145],[-83.7312,12.1643,4.7807],[-83.7299,12.1657,4.5947]]],
[[[-83.7061,11.5113,0.0],[-83.709,11.5121,0.0],[-83.7093,11.5101,0.0],[-83.706,11.5104,0.0],[-83.7061,11.5113,0.0]]],
[[[-83.6493,11.5799,5.4224],[-83.6513,11.581,5.0163],[-83.6526,11.5787,0.0],[-83.6507,11.5796,14.5973],[-83.6493,11.5799,5.4224]]],
[[[-83.6343,11.6033,4.0388],[-83.636,11.6038,0.0],[-83.6371,11.6024,14.4412],[-83.6349,11.6021,4.0388],[-83.6343,11.6033,4.0388]]],
[[[-83.7001,11.9935,9.2907],[-83.7021,11.994,0.0],[-83.7024,11.991,0.0],[-83.7001,11.9907,6.5369],[-83.7001,11.9935,9.2907]]],
[[[-83.7124,11.9993,0.5234],[-83.7226,12.0004,1.374],[-83.7249,11.9957,0.0],[-83.7312,11.9926,0.0],[-83.7318,11.9865,4.4139],[-83.7357,11.9771,0.0],[-83.7351,11.9699,0.0],[-83.7474,11.9565,0.0],[-83.7468,11.951,1.8848],[-83.7418,11.9429,6.5392],[-83.7465,11.9243,1.4713],[-83.7454,11.9211,0.0],[-83.7499,11.9088,1.3269],[-83.7493,11.906,1.8346],[-83.7451,11.9065,0.0],[-83.741,11.8954,0.0],[-83.7415,11.8824,3.856],[-83.7396,11.8776,1.5968],[-83.7229,11.8693,0.0],[-83.7193,11.8705,12.4807],[-83.7162,11.8624,0.0],[-83.7146,11.8635,0.0],[-83.714,11.8676,0.0],[-83.7232,11.9029,0.0],[-83.7262,11.9232,1.15],[-83.7265,11.9404,5.6098],[-83.7221,11.9732,0.0],[-83.7157,11.989,0.0],[-83.709,11.9976,1.1384],[-83.7124,11.9993,0.5234]]],
[[[-83.7487,11.9368,0.0],[-83.7484,11.9379,0.0],[-83.7507,11.9379,5.0652],[-83.7504,11.936,3.9182],[-83.7487,11.9368,0.0]]],
[[[-83.7476,11.9724,0.0],[-83.7501,11.9735,6.2138],[-83.7529,11.9713,0.0],[-83.7529,11.9693,0.9212],[-83.7499,11.969,0.0],[-83.7476,11.9724,0.0]]],
[[[-83.721,12.0043,11.2576],[-83.7229,12.0049,7.8591],[-83.7221,12.0021,8.1734],[-83.7207,12.0026,8.1734],[-83.721,12.0043,11.2576]]],
[[[-83.6907,11.9979,4.2987],[-83.6926,11.9982,1.2254],[-83.6932,11.9951,2.7281],[-83.6951,11.9946,1.1367],[-83.6929,11.9924,1.7111],[-83.6935,11.9882,2.6499],[-83.6888,11.9885,0.0],[-83.6871,11.9913,6.0472],[-83.6857,11.9896,0.0],[-83.6835,11.9899,0.0],[-83.6804,11.9921,0.0],[-83.681,11.9951,0.0],[-83.6865,11.9968,1.7777],[-83.6882,11.9957,1.2447],[-83.6907,11.9979,4.2987]]],
[[[-83.6862,12.171,3.1053],[-83.6857,12.174,3.8523],[-83.6886,12.1733,6.2803],[-83.6953,12.1667,10.9509],[-83.7271,12.1674,5.5124],[-83.7182,12.1626,9.9703],[-83.7152,12.1568,5.7753],[-83.7135,12.1457,1.6252],[-83.7063,12.134,5.9225],[-83.7051,12.1263,3.7117],[-83.7012,12.1207,6.8075],[-83.7018,12.1171,0.0],[-83.6968,12.1124,12.4388],[-83.7024,12.1115,2.916],[-83.7068,12.1151,3.6828],[-83.7087,12.1143,0.0],[-83.7057,12.1082,6.0334],[-83.7004,12.1068,0.0],[-83.6971,12.1013,5.8008],[-83.7015,12.0979,2.0629],[-83.7029,12.0949,2.0075],[-83.7007,12.0915,2.373],[-83.701,12.089,1.8863],[-83.6993,12.0885,1.466],[-83.6999,12.0838,3.1347],[-83.7051,12.0876,0.0],[-83.7032,12.0918,1.5872],[-83.7051,12.0929,1.3751],[-83.7118,12.0857,3.6052],[-83.7168,12.0871,4.6284],[-83.7187,12.091,4.9453],[-83.7185,12.0949,3.027],[-83.7221,12.0974,0.0],[-83.7229,12.0915,2.8279],[-83.7265,12.0879,2.4474],[-83.731,12.086,4.0458],[-83.7332,12.0868,4.7608],[-83.7349,12.081,0.0],[-83.7324,12.074,3.611],[-83.7293,12.0743,1.2109],[-83.7285,12.0638,1.2197],[-83.7262,12.0582,0.0],[-83.721,12.0532,0.292],[-83.716,12.044,1.2845],[-83.7107,12.0402,0.8826],[-83.7043,12.0315,0.0],[-83.6935,12.0215,3.7792],[-83.6868,12.0101,4.7149],[-83.6843,12.0021,0.7195],[-83.6865,12.0407,0.0],[-83.6882,12.0449,4.7043],[-83.6871,12.0468,0.0],[-83.6893,12.1032,0.0],[-83.6862,12.171,3.1053]]]]}
,"properties": {"GID_2": "NIC.2.1_1","GID_0": "NIC","country": "Nicaragua","GID_1": "NIC.2_1","province": "AtlánticoSur","NL_NAME_1": "NA","county": "Bluefields","VARNAME_2": "NA","NL_NAME_2": "NA","TYPE_2": "Municipio","ENGTYPE_2": "Municipality","CC_2": "NA","HASC_2": "NI.AS.BL","name": "Bluefields.county","area_km2": 4736.429,"hist_schema_id": "Elevation0-9000","hist_area_km2": {"0": 948.824,"25": 1394.461,"50": 482.368,"75": 313.363,"100": 259.776,"125": 207.573,"150": 193.154,"175": 174.938,"200": 152.747,"225": 118.873,"250": 80.591,"275": 66.089,"300": 59.024,"325": 53.33,"350": 53.539,"375": 48.904,"400": 40.442,"425": 28.903,"450": 19.878,"475": 12.621,"500": 9.939,"525": 6.882,"550": 4.449,"575": 2.245,"600": 1.039,"625": 0.936,"650": 0.644,"675": 0.561,"700": 0.291,"725": 0.042}}}