{"type": "Feature","bbox": [-86.0933,11.8889,-86.0403,11.9263],"geometry": {"type": "MultiPolygon","coordinates": [[[[-86.0403,11.922,73.0],[-86.0459,11.9239,73.0],[-86.0486,11.9232,73.0],[-86.0555,11.9263,75.831],[-86.0656,11.9247,341.6008],[-86.0838,11.915,487.4164],[-86.0933,11.9041,462.5994],[-86.0779,11.8889,411.2473],[-86.0712,11.8979,458.2498],[-86.0621,11.9056,308.3471],[-86.0541,11.9086,101.2039],[-86.0429,11.9102,73.0],[-86.0403,11.922,73.0]]]]}
,"properties": {"GID_2": "NIC.14.1_1","GID_0": "NIC","country": "Nicaragua","GID_1": "NIC.14_1","province": "Masaya","NL_NAME_1": "NA","county": "Catarina","VARNAME_2": "NA","NL_NAME_2": "NA","TYPE_2": "Municipio","ENGTYPE_2": "Municipality","CC_2": "NA","HASC_2": "NI.MS.CA","name": "Catarina.county","area_km2": 11.513876,"hist_schema_id": "Elevation0-9000","hist_area_km2": {"75": 2.696882,"100": 0.228198,"125": 0.290436,"150": 0.207454,"175": 0.269689,"200": 0.124473,"225": 0.124471,"250": 0.124473,"275": 0.103727,"300": 0.165966,"325": 0.124474,"350": 0.145217,"375": 0.082983,"400": 0.124473,"425": 0.373431,"450": 1.327783,"475": 2.282081,"500": 1.389966,"525": 0.975036,"550": 0.20745,"575": 0.124469,"600": 0.020745}}}