{"type": "Feature","bbox": [-86.2837,12.5074,-84.7172,13.3741],"geometry": {"type": "MultiPolygon","coordinates": [[[[-85.6346,12.6273,451.4115],[-85.6313,12.6348,414.4972],[-85.6173,12.6381,555.5084],[-85.6114,12.6429,503.1932],[-85.6071,12.6442,641.6652],[-85.6006,12.6402,488.6237],[-85.5962,12.6395,446.4013],[-85.5929,12.6449,512.7357],[-85.5838,12.65,330.0163],[-85.5638,12.65,462.554],[-85.5582,12.6559,307.0501],[-85.5508,12.6739,289.7939],[-85.541,12.6798,293.9167],[-85.5229,12.6829,264.3824],[-85.5157,12.6795,281.4805],[-85.5114,12.6798,309.8549],[-85.4988,12.6882,297.3128],[-85.4861,12.6845,371.446],[-85.4703,12.6824,274.6208],[-85.4542,12.6689,303.4644],[-85.4457,12.6666,369.4196],[-85.4337,12.6814,339.5719],[-85.4202,12.6865,330.6791],[-85.409,12.6994,329.8085],[-85.3976,12.7022,351.6556],[-85.3782,12.6898,264.9361],[-85.362799999999993,12.6838,227.65],[-85.3582,12.6684,259.1024],[-85.3538,12.6609,245.6734],[-85.3504,12.6617,236.6809],[-85.3438,12.6698,220.9033],[-85.3212,12.6674,224.2103],[-85.3171,12.6658,220.8898],[-85.3093,12.6544,298.0584],[-85.2976,12.6504,400.9523],[-85.2804,12.6475,261.1267],[-85.2752,12.6479,311.1397],[-85.272,12.6461,277.0533],[-85.269,12.6413,265.5286],[-85.2706,12.6365,283.9487],[-85.2766,12.63,288.8018],[-85.277,12.6259,252.9563],[-85.2736,12.6238,249.1437],[-85.2606,12.6245,231.72559999999999],[-85.2526,12.6225,238.60059999999999],[-85.2469,12.6317,264.3022],[-85.2433,12.6311,267.9196],[-85.231,12.6184,187.7588],[-85.2175,12.5919,228.9087],[-85.2147,12.5889,277.4646],[-85.2101,12.5875,228.8419],[-85.2016,12.5944,221.8326],[-85.1961,12.5954,226.256],[-85.1849,12.5947,249.7562],[-85.1744,12.5917,216.2676],[-85.17,12.5927,240.9008],[-85.1644,12.599,293.4094],[-85.1632,12.6052,246.714],[-85.1659,12.6214,328.4047],[-85.1616,12.6259,209.4709],[-85.1665,12.6309,230.8159],[-85.1741,12.6452,201.0744],[-85.1917,12.6638,199.4375],[-85.2079,12.7004,274.167],[-85.2092,12.7246,260.2734],[-85.2217,12.7363,278.1337],[-85.2278,12.7484,273.0053],[-85.2277,12.7612,229.3303],[-85.2256,12.7736,319.7268],[-85.21,12.7948,209.8838],[-85.2075,12.7968,184.5303],[-85.2039,12.7966,187.3467],[-85.1857,12.7855,247.1615],[-85.1758,12.7835,180.2977],[-85.1676,12.778,173.2864],[-85.1647,12.7782,159.811],[-85.1527,12.7882,161.7858],[-85.1364,12.8072,176.2119],[-85.1332,12.813,228.7554],[-85.1338,12.8199,219.6112],[-85.1424,12.8309,170.2967],[-85.1447,12.8352,172.5265],[-85.1438,12.8373,174.5054],[-85.1215,12.8346,268.0459],[-85.107,12.8306,221.9812],[-85.0893,12.8233,281.0925],[-85.0832,12.8231,331.2964],[-85.0735,12.8254,165.0362],[-85.0546,12.8346,317.1589],[-85.0313,12.8586,223.338],[-85.0209,12.8635,267.1553],[-84.9909,12.8515,158.3115],[-84.9739,12.8523,221.7651],[-84.9488,12.849,236.9615],[-84.9445,12.8507,311.5251],[-84.9371,12.8572,305.1923],[-84.9322,12.8669,147.5595],[-84.9281,12.8827,181.9682],[-84.9236,12.8886,319.321],[-84.9175,12.8907,211.2963],[-84.9038,12.8911,93.018],[-84.8892,12.8972,134.5565],[-84.867,12.9207,110.199],[-84.8527,12.9274,88.8084],[-84.8405,12.9381,144.8137],[-84.7893,12.9477,146.4326],[-84.7865,12.9459,112.6009],[-84.7817,12.9373,60.5201],[-84.7749,12.9369,65.9389],[-84.7651,12.9393,91.0203],[-84.7562,12.945,103.0415],[-84.7411,12.9491,109.7491],[-84.7396,12.9523,124.5303],[-84.7443,12.9621,102.2413],[-84.7443,12.9697,106.1104],[-84.7407,12.9742,94.3839],[-84.7306,12.9789,84.4004],[-84.7276,12.9853,80.0717],[-84.7341,13.0015,104.2411],[-84.7299,13.0162,75.2437],[-84.732,13.0237,86.8448],[-84.7313,13.0314,85.2746],[-84.7187,13.0468,73.0192],[-84.7172,13.0506,81.9945],[-84.7198,13.0515,82.6845],[-84.7309,13.0497,66.3128],[-84.7353,13.0518,52.9683],[-84.737799999999993,13.0601,66.1803],[-84.7529,13.0745,40.9041],[-84.7623,13.0947,64.4179],[-84.7728,13.1253,73.7227],[-84.7792,13.1306,65.1473],[-84.7923,13.1314,67.1687],[-84.792,13.1388,62.5232],[-84.7942,13.1416,83.3441],[-84.8002,13.1427,63.853],[-84.7437,13.2201,82.6505],[-84.8692,13.3741,91.7774],[-84.8781,13.3685,101.925],[-84.9081,13.3412,145.8015],[-84.9471,13.2996,109.1837],[-84.9647,13.2826,100.2644],[-84.9699,13.2801,102.1037],[-84.9804,13.2795,110.9814],[-85.0024,13.2839,105.8232],[-85.0603,13.2852,169.9451],[-85.0953,13.2924,172.0979],[-85.1049,13.2889,149.5412],[-85.1252,13.2704,185.5516],[-85.1409,13.2474,386.7171],[-85.1469,13.2294,168.2074],[-85.1466,13.2071,219.4699],[-85.1498,13.1948,162.5922],[-85.1539,13.1867,121.1537],[-85.1705,13.1654,223.7394],[-85.1886,13.1468,148.1744],[-85.1905,13.1458,134.1537],[-85.1985,13.1496,345.5745],[-85.2037,13.1468,394.3747],[-85.2115,13.1346,318.9961],[-85.2297,13.1344,216.4078],[-85.2336,13.1322,210.2196],[-85.2401,13.1195,163.0546],[-85.2444,13.1183,188.2724],[-85.2497,13.1204,176.2833],[-85.2571,13.1266,260.093],[-85.2656,13.1275,340.7065],[-85.2711,13.1373,299.2319],[-85.283,13.1401,228.4394],[-85.287,13.1464,152.1237],[-85.2913,13.1588,172.5282],[-85.2948,13.1608,145.7604],[-85.3016,13.1599,142.8714],[-85.3071,13.162,220.3214],[-85.3148,13.1729,162.8587],[-85.3257,13.1793,185.4487],[-85.332,13.1882,204.3154],[-85.3363,13.1901,257.9273],[-85.3396,13.1888,277.7012],[-85.3452,13.1834,222.5936],[-85.3599,13.1818,235.4871],[-85.3673,13.1851,238.4822],[-85.3832,13.1973,289.0572],[-85.3978,13.2161,266.9079],[-85.405,13.2331,236.0143],[-85.4291,13.245,436.4422],[-85.4326,13.249,476.0545],[-85.4435,13.2712,349.9498],[-85.4582,13.2813,410.3688],[-85.4882,13.3183,566.3911],[-85.4978,13.3412,628.3311],[-85.5007,13.3589,769.3199],[-85.5074,13.3722,774.9229],[-85.512,13.3706,745.1694],[-85.5462,13.3442,925.0558],[-85.5643,13.3281,945.7337],[-85.6097,13.3213,878.5192],[-85.6216,13.3161,878.3896],[-85.6288,13.3111,914.9672],[-85.6548,13.2661,1149.1731],[-85.6669,13.2422,1324.1304],[-85.6889,13.2172,944.3572],[-85.7159,13.1943,832.0503],[-85.7365,13.1736,909.6368],[-85.744,13.1638,842.2903],[-85.7561,13.1398,948.1122],[-85.7658,13.1263,637.6498],[-85.7735,13.1215,554.2538],[-85.7914,13.1207,785.4514],[-85.8009,13.1164,829.5801],[-85.8202,13.0978,1094.2103],[-85.8819,13.0463,1239.2616],[-85.9213,13.0065,1410.7034],[-85.9402,13.0003,1084.9812],[-85.9766,13.0037,924.8678],[-85.9931,13.0087,915.0164],[-85.9969,13.0058,986.3924],[-85.9955,12.9904,1176.5339],[-85.9966,12.9851,1174.7688],[-86.0032,12.9844,1210.7939],[-86.0338,12.987,1012.5513],[-86.0362,12.9993,993.2244],[-86.0414,13.0137,905.7533],[-86.0515,13.0245,715.0964],[-86.0671,13.0291,607.0125],[-86.0771,13.0298,693.1886],[-86.0814,13.0248,892.3295],[-86.0915,13.0291,642.5734],[-86.0998,13.0275,633.2365],[-86.1106,13.0306,698.4575],[-86.1144,13.0262,647.1611],[-86.1267,13.0236,545.6809],[-86.1335,13.0124,538.9929],[-86.1375,13.0093,504.3593],[-86.1449,13.0075,576.9919],[-86.145,13.0044,584.2181],[-86.1402,12.9991,516.5431],[-86.1395,12.9956,512.3859],[-86.1538,12.9658,724.6349],[-86.1576,12.9521,503.382],[-86.1666,12.9413,504.5653],[-86.1792,12.9363,499.563],[-86.2031,12.9338,487.8441],[-86.2166,12.9294,539.7083],[-86.2596,12.9062,1121.6226],[-86.2648,12.8997,1060.7689],[-86.2713,12.8631,863.9488],[-86.2735,12.8271,933.3872],[-86.2738,12.8159,709.5748],[-86.2706,12.7981,534.3961],[-86.2696,12.7779,560.6568],[-86.2721,12.7617,450.0008],[-86.2732,12.7357,465.7849],[-86.2761,12.727,282.4113],[-86.2747,12.7221,317.8029],[-86.2783,12.7151,246.8118],[-86.2802,12.7051,238.4861],[-86.2784,12.7001,219.5094],[-86.2792,12.6904,236.952],[-86.2747,12.6767,219.9448],[-86.2782,12.6617,189.9187],[-86.2836,12.65,247.1659],[-86.2825,12.633,171.1994],[-86.2837,12.631,156.4883],[-86.2641,12.6244,324.7677],[-86.2307,12.6267,809.0114],[-86.1964,12.6182,757.4409],[-86.1794,12.6096,682.5306],[-86.1619,12.5926,385.3019],[-86.1564,12.5892,250.335],[-86.1488,12.5893,357.594],[-86.1432,12.5929,324.2549],[-86.1359,12.595,461.8319],[-86.1189,12.5905,492.5026],[-86.098,12.5769,494.8777],[-86.0788,12.555,493.1729],[-86.0655,12.5439,518.2053],[-86.0467,12.5374,434.2963],[-86.0102,12.5189,573.6605],[-85.9725,12.5074,419.5777],[-85.9653,12.5115,500.7892],[-85.9531,12.5274,788.5582],[-85.9358,12.5396,804.8098],[-85.9013,12.5519,473.7334],[-85.8872,12.5623,465.416],[-85.8822,12.5713,455.3771],[-85.8805,12.5804,545.0075],[-85.882,12.5936,544.144],[-85.8848,12.6013,506.6143],[-85.8849,12.6097,425.0381],[-85.8763,12.613,474.1207],[-85.8619,12.6161,385.8674],[-85.8571,12.6147,390.7881],[-85.8322,12.6186,491.5508],[-85.7694,12.6195,767.9168],[-85.739,12.6246,934.2957],[-85.7123,12.636,987.5796],[-85.6959,12.6394,790.3842],[-85.6837,12.6379,621.1356],[-85.6715,12.6318,582.1675],[-85.6619,12.6319,522.8692],[-85.655,12.6273,602.5278],[-85.6509,12.627,446.9221],[-85.6488,12.631,475.2983],[-85.6464,12.6313,475.7922],[-85.6404,12.6275,478.4832],[-85.6346,12.6273,451.4115]]]]}
,"properties": {"GID_1": "NIC.15_1","GID_0": "NIC","country": "Nicaragua","province": "Matagalpa","VARNAME_1": "NA","NL_NAME_1": "NA","TYPE_1": "Departamento","ENGTYPE_1": "Department","CC_1": "NA","HASC_1": "NI.MT","ISO_1": "NI-MT","name": "Matagalpa.province","area_km2": 8835.115,"hist_schema_id": "Elevation0-9000","hist_area_km2": {"25": 0.806,"50": 11.132,"75": 151.884,"100": 577.954,"125": 440.792,"150": 261.861,"175": 225.837,"200": 226.707,"225": 250.195,"250": 359.227,"275": 430.521,"300": 387.182,"325": 322.331,"350": 256.353,"375": 228.656,"400": 252.523,"425": 265.427,"450": 443.559,"475": 343.164,"500": 274.381,"525": 244.4,"550": 238.499,"575": 237.724,"600": 224.089,"625": 199.077,"650": 181.901,"675": 169.106,"700": 153.538,"725": 142.936,"750": 138.72,"775": 135.416,"800": 125.597,"825": 110.447,"850": 101.294,"875": 88.236,"900": 77.095,"925": 68.521,"950": 64.737,"975": 61.684,"1000": 57.406,"1025": 50.317,"1050": 43.784,"1075": 38.265,"1100": 31.221,"1125": 27.605,"1150": 20.332,"1175": 15.868,"1200": 13.533,"1225": 11.942,"1250": 10.805,"1275": 8.077,"1300": 7.416,"1325": 6.424,"1350": 4.359,"1375": 4.668,"1400": 3.388,"1425": 2.148,"1450": 1.157,"1475": 0.971,"1500": 0.62,"1525": 0.682,"1550": 0.475,"1575": 0.103}}}