{"type":"Feature","properties":{"ISO3166-1-Alpha-3":"NIC","country":"Nicaragua","fill":"#F00","id":"666","name":"Matagalpa"},
"geometry":{"type": "Polygon","coordinates": [[[-84.75144,13.21573,92.0812],[-84.76976,13.24268,109.0096],[-84.86962,13.36663,127.5524],[-84.87551,13.37675,120.8327],[-84.87892,13.3804,106.8764],[-84.88311,13.38153,137.6156],[-84.97377,13.29878,117.4199],[-84.98284,13.29521,105.7114],[-84.99824,13.29374,110.4499],[-85.06462,13.29513,191.365],[-85.09795,13.29216,174.1345],[-85.12335,13.27748,221.0564],[-85.13632,13.25945,202.2205],[-85.14449,13.24144,324.7958],[-85.15627,13.20674,273.4515],[-85.16867,13.18147,161.0838],[-85.17733,13.17173,137.2286],[-85.18709,13.16442,153.9471],[-85.21572,13.15137,203.8161],[-85.24185,13.14519,131.0567],[-85.25244,13.14659,155.2748],[-85.28326,13.15925,135.7654],[-85.2904,13.16909,208.7269],[-85.30231,13.17054,249.6501],[-85.30417,13.17248,217.2186],[-85.30541,13.18144,263.0353],[-85.30737,13.18473,240.9385],[-85.31083,13.18705,177.8325],[-85.32489,13.19387,163.9203],[-85.33246,13.19894,168.418],[-85.33649,13.20012,239.0441],[-85.33982,13.20018,291.323],[-85.3453,13.19865,315.2913],[-85.35143,13.19793,259.3881],[-85.3545,13.19808,274.1266],[-85.35745,13.19847,254.5004],[-85.35993,13.1995,208.9388],[-85.3622,13.20095,169.9789],[-85.39083,13.22682,265.894],[-85.39636,13.23105,213.9411],[-85.40111,13.23369,197.5867],[-85.41457,13.23896,406.656],[-85.43444,13.258,242.5808],[-85.48537,13.32505,416.0356],[-85.50638,13.37058,730.7231],[-85.56208,13.33513,1032.0623],[-85.58154,13.32779,814.5243],[-85.60498,13.32771,855.7565],[-85.62593,13.31386,817.4041],[-85.63988,13.29816,1204.6628],[-85.65456,13.27511,1027.1222],[-85.67213,13.24586,1531.9545],[-85.74502,13.16222,849.5849],[-85.78254,13.13026,588.684],[-85.79344,13.12398,749.5562],[-85.83974,13.08499,1255.0082],[-85.89648,13.03262,1329.6462],[-85.91832,13.01753,1479.3734],[-85.92842,13.01419,1236.176],[-85.94108,13.01249,1003.0449],[-85.97736,13.01393,1023.5886],[-85.98937,13.0121,977.3599],[-85.99438,13.00962,942.8606],[-86.00746,12.99394,922.6957],[-86.04175,13.01962,881.4816],[-86.05722,13.03499,738.2041],[-86.07169,13.04336,597.1151],[-86.08074,13.04716,606.6078],[-86.09446,13.04683,557.6768],[-86.09952,13.04701,561.1765],[-86.13722,12.99673,498.2847],[-86.1437,12.97099,656.8249],[-86.14613,12.96554,627.4592],[-86.15058,12.96019,560.0798],[-86.1589,12.95446,538.0658],[-86.17158,12.95011,602.7237],[-86.19719,12.94464,666.061],[-86.20894,12.94061,564.1102],[-86.23117,12.92826,661.0351],[-86.23889,12.92097,1062.8398],[-86.24243,12.91683,1074.2339],[-86.25832,12.88449,704.5524],[-86.2639,12.84852,939.95],[-86.26685,12.82371,828.894],[-86.27868,12.7246,264.0322],[-86.28881,12.63646,163.1901],[-86.1189,12.59962,532.8718],[-86.10115,12.59412,465.2422],[-86.08621,12.58065,526.6479],[-86.07094,12.56378,490.5505],[-86.06001,12.55505,476.6731],[-86.05032,12.54859,446.133],[-85.98852,12.52526,492.2002],[-85.97227,12.52208,585.4237],[-85.94271,12.54859,790.5262],[-85.93736,12.55264,802.2039],[-85.88953,12.57879,580.316],[-85.87194,12.61494,420.2569],[-85.85574,12.623,396.1029],[-85.68187,12.65853,464.337],[-85.66872,12.65502,454.2289],[-85.65285,12.6521,401.9892],[-85.64699,12.649,382.5278],[-85.64412,12.64889,375.3183],[-85.64012,12.65075,409.4934],[-85.62789,12.66073,402.8483],[-85.61603,12.6629,409.5989],[-85.59567,12.66669,382.1076],[-85.58666,12.67137,293.0943],[-85.58201,12.67215,290.5738],[-85.5627,12.67228,378.8445],[-85.55679,12.67308,292.4258],[-85.55289,12.67458,289.9753],[-85.54989,12.67879,286.6783],[-85.53689,12.70424,273.1425],[-85.53532,12.70615,262.0646],[-85.5334,12.7078,248.9339],[-85.53077,12.70889,259.2661],[-85.52754,12.70948,259.8543],[-85.46354,12.70615,263.7921],[-85.45336,12.70718,267.9968],[-85.44775,12.70902,314.2219],[-85.44669,12.71137,295.0098],[-85.44496,12.71313,278.427],[-85.44243,12.71439,252.039],[-85.4346,12.71674,282.5311],[-85.43003,12.71884,311.123],[-85.42566,12.72155,270.0589],[-85.42377,12.72325,278.9403],[-85.42059,12.72721,259.0272],[-85.41835,12.7317,231.7051],[-85.41674,12.73573,233.1135],[-85.41525,12.73772,230.9122],[-85.40762,12.74325,227.6694],[-85.40171,12.74209,340.2314],[-85.39295,12.73899,276.9546],[-85.38284,12.73124,230.8758],[-85.37447,12.72134,271.9478],[-85.37099,12.71168,245.1818],[-85.36411,12.70817,222.1293],[-85.33109,12.69703,228.4042],[-85.3122,12.68703,230.4652],[-85.29626,12.68607,276.2929],[-85.28905,12.68065,204.6729],[-85.29045,12.67791,247.4704],[-85.29587,12.65272,242.1428],[-85.28905,12.65272,211.2377],[-85.27205,12.66352,217.7716],[-85.26076,12.66181,221.1083],[-85.2295,12.62755,279.5433],[-85.22301,12.62584,245.2314],[-85.22014,12.63566,193.3068],[-85.21608,12.63933,190.2485],[-85.20704,12.6359,188.1841],[-85.19771,12.62972,176.0187],[-85.19283,12.62541,176.4426],[-85.18601,12.62541,224.1233],[-85.18213,12.63174,174.8605],[-85.1795,12.6398,201.622],[-85.17841,12.64936,207.6247],[-85.17919,12.66016,182.0095],[-85.20505,12.71452,265.683],[-85.2128,12.7484,246.3519],[-85.21712,12.75958,304.3877],[-85.22681,12.77865,287.9526],[-85.22789,12.78806,243.9885],[-85.22619,12.79788,201.9022],[-85.22231,12.80576,195.7304],[-85.21557,12.81232,177.4867],[-85.20681,12.81674,177.8056],[-85.19213,12.81787,165.2992],[-85.18105,12.81635,167.7394],[-85.16909,12.81604,199.5422],[-85.1594,12.81922,258.2898],[-85.14803,12.82919,209.3253],[-85.14459,12.8388,170.5687],[-85.1448,12.85459,256.6793],[-85.14134,12.85942,225.3273],[-85.13126,12.86084,222.6387],[-85.12273,12.85919,254.7749],[-85.10501,12.85394,278.1599],[-85.09403,12.8527,190.5649],[-85.08196,12.85312,289.8749],[-85.06795,12.8557,297.5323],[-85.04064,12.86369,288.7885],[-85.03059,12.86485,232.7467],[-84.97129,12.85475,117.5369],[-84.95825,12.85071,107.6139],[-84.95437,12.85526,99.5788],[-84.94204,12.86317,253.6272],[-84.93587,12.86872,138.8127],[-84.92566,12.88387,284.1082],[-84.91851,12.90038,102.1159],[-84.89835,12.8966,192.353],[-84.87567,12.91182,105.5717],[-84.85471,12.93154,89.5115],[-84.83998,12.94133,66.9351],[-84.82815,12.9426,93.4787],[-84.80937,12.94763,82.2256],[-84.79559,12.94818,93.2494],[-84.78275,12.945,123.5295],[-84.77678,12.94071,96.6116],[-84.77151,12.94014,70.1181],[-84.76084,12.94818,81.1003],[-84.75534,12.95035,59.5324],[-84.75102,12.94942,59.0879],[-84.74818,12.95035,60.1708],[-84.74622,12.96531,106.0639],[-84.74195,12.97525,101.2614],[-84.74097,12.97859,85.4751],[-84.73981,12.99301,54.0756],[-84.73353,13.02639,84.1704],[-84.72929,13.03479,78.4804],[-84.70823,13.05758,63.9601],[-84.70761,13.05812,62.8003],[-84.70087,13.06331,53.1312],[-84.69712,13.06571,61.1045],[-84.69645,13.06639,61.1045],[-84.69917,13.06675,50.2138],[-84.7018,13.06654,47.676],[-84.70462,13.06595,54.5337],[-84.70707,13.06494,56.4193],[-84.71823,13.05843,65.2585],[-84.721,13.05773,42.3525],[-84.72402,13.05727,34.0703],[-84.72733,13.05729,44.1328],[-84.73043,13.05781,44.4355],[-84.73309,13.05866,49.7475],[-84.73539,13.05993,63.0839],[-84.73743,13.06145,79.2151],[-84.74074,13.06512,102.4527],[-84.74353,13.06905,65.5943],[-84.75805,13.09837,86.8144],[-84.76433,13.1178,95.5078],[-84.76549,13.1201,96.5532],[-84.77324,13.12987,60.3055],[-84.77722,13.13305,60.6247],[-84.77939,13.13434,58.0069],[-84.78187,13.13537,49.2682],[-84.78466,13.13612,49.0679],[-84.78707,13.13713,51.233],[-84.78939,13.13837,68.0176],[-84.79668,13.14509,50.762],[-84.79877,13.14628,59.6402],[-84.80086,13.14718,49.25],[-84.79774,13.15398,80.8059],[-84.79451,13.15917,95.247],[-84.75144,13.21573,92.0812]]]}}