{"type":"Feature","properties":{"featurecla":"River","scalerank":7,"rivernum":523,"dissolve":"523River","name":"Ro","name_alt":null,"note":null,"min_zoom":6.0,"strokeweig":0.15,"name_en":"Ro Grande de Matagalpa","min_label":7.0},
"geometry":{"type": "LineString","coordinates": [[-86.056005859374991,12.85724518436912,645.9788],[-86.089892578124989,12.84259674686912,540.4205],[-86.101611328124989,12.84149811405662,468.077],[-86.113525390625,12.845819403119108,462.8436],[-86.124316406249989,12.852899481244108,458.2586],[-86.135351562499991,12.857196356244117,457.2849],[-86.147875976562489,12.85309479374412,456.6224],[-86.159765624999991,12.835077215619108,448.9915],[-86.163134765624989,12.810077215619117,445.3299],[-86.160009765624991,12.784295965619108,444.1571],[-86.15234375,12.76398346561912,444.2348],[-86.140185546874989,12.750262762494117,441.0592],[-86.124365234374991,12.736590887494117,478.2024],[-86.110693359374991,12.721698309369117,460.879],[-86.100341796875,12.69440338749412,421.5543],[-86.090747070312489,12.69684479374412,408.191],[-86.081152343749991,12.70136139530662,410.0529],[-86.076831054687489,12.69733307499412,412.0603],[-86.071948242187489,12.69806549686912,405.399],[-86.061621093749991,12.691278387494108,403.2671],[-86.052001953125,12.683368231244117,461.4515],[-86.049487304687489,12.68060944218162,400.0709],[-86.026293945312489,12.66193268436912,417.2734]]}}