{"type":"Feature","properties":{"GID_2":"NIC.16.8_1","GID_0":"NIC","country":"Nicaragua","GID_1":"NIC.16_1","province":"NuevaSegovia","NL_NAME_1":"NA","county":"Ocotal","VARNAME_2":"NA","NL_NAME_2":"NA","TYPE_2":"Municipio","ENGTYPE_2":"Municipality","CC_2":"NA","HASC_2":"NI.NS.OC","name":"Ocotal.county"},
"geometry":{"type": "MultiPolygon","coordinates": [[[[-86.4285,13.587,721.4956],[-86.4269,13.6019,818.2382],[-86.4226,13.6192,583.8086],[-86.4231,13.6262,576.8193],[-86.4482,13.6493,647.9985],[-86.4499,13.6579,692.2719],[-86.447,13.6629,769.0668],[-86.4397,13.6698,718.33],[-86.4384,13.6776,778.6288],[-86.4397,13.6821,760.0926],[-86.446,13.6911,802.5285],[-86.4599,13.7007,921.1337],[-86.4682,13.7013,1066.9602],[-86.4892,13.6851,715.6553],[-86.5151,13.6756,844.0032],[-86.5304,13.6712,1011.4297],[-86.553,13.6685,893.8955],[-86.5616,13.6658,989.0614],[-86.5605,13.644,726.2231],[-86.5644,13.6159,863.345],[-86.5621,13.5834,680.0482],[-86.5593,13.5738,569.9098],[-86.5419,13.5863,585.0389],[-86.5245,13.5919,603.8663],[-86.5057,13.5959,788.011],[-86.4812,13.5958,632.7723],[-86.4479,13.5876,893.2895],[-86.4285,13.587,721.4956]]]]}}