{"type": "Feature","bbox": [-85.9858,12.0371,-84.9681,12.7836],"geometry": {"type": "MultiPolygon","coordinates": [[[[-85.5671,12.3017,267.6823],[-85.5527,12.3086,250.7446],[-85.5374,12.3125,317.8862],[-85.5054,12.3121,456.3829],[-85.488,12.3161,451.1543],[-85.4788,12.3113,461.2888],[-85.4699,12.3089,467.0182],[-85.4523,12.3184,442.2316],[-85.4455,12.3174,476.7638],[-85.4373,12.3087,448.7802],[-85.4318,12.308,495.4422],[-85.4061,12.3102,604.8837],[-85.3429,12.3221,537.0314],[-85.3172,12.3245,369.0549],[-85.3004,12.3374,351.6621],[-85.2927,12.3304,304.6786],[-85.2861,12.3276,340.5051],[-85.2826,12.3282,363.748],[-85.2652,12.3372,359.1906],[-85.248,12.3512,457.3692],[-85.2286,12.3613,335.7328],[-85.2115,12.3787,346.6298],[-85.1971,12.3963,417.3132],[-85.1769,12.4082,396.636],[-85.1424,12.4208,333.7636],[-85.127,12.4092,265.2649],[-85.1201,12.4085,258.4519],[-85.1044,12.4213,267.5427],[-85.0957,12.4244,269.4355],[-85.08,12.4262,257.5243],[-85.0754,12.4285,309.7188],[-85.0552,12.4573,283.5694],[-85.0393,12.4768,323.9672],[-85.0355,12.484,448.3989],[-85.0325,12.4998,538.2563],[-85.0332,12.5315,459.4837],[-85.0275,12.5507,398.789],[-85.0112,12.573,350.8254],[-85.0046,12.5862,436.7919],[-84.9681,12.6448,193.3788],[-84.9796,12.6492,192.9196],[-84.9836,12.6549,192.4692],[-84.9845,12.6673,175.4521],[-84.9826,12.6897,219.625],[-84.9969,12.7328,157.6621],[-85.0013,12.7409,211.1952],[-85.0058,12.7458,181.66],[-85.0201,12.7546,142.3698],[-85.0341,12.7721,230.0487],[-85.0528,12.7826,137.2512],[-85.0584,12.7836,143.7281],[-85.0646,12.7823,136.1604],[-85.0816,12.7722,270.6277],[-85.097,12.7669,332.6288],[-85.1029,12.7595,259.371],[-85.1126,12.7412,175.2804],[-85.1132,12.7377,223.7158],[-85.1105,12.7289,231.9523],[-85.112799999999993,12.7262,266.8995],[-85.1185,12.7257,219.975],[-85.1205,12.7235,203.2428],[-85.1191,12.7178,229.1426],[-85.1115,12.7089,307.1461],[-85.1105,12.7029,346.3698],[-85.1118,12.6989,289.0387],[-85.1185,12.6914,390.9644],[-85.1303,12.6826,364.3793],[-85.1364,12.6697,346.5921],[-85.1448,12.6619,276.8261],[-85.1439,12.6544,287.1288],[-85.1371,12.6376,336.1562],[-85.1379,12.6285,340.0227],[-85.1434,12.6213,233.1684],[-85.1498,12.6209,207.8925],[-85.1616,12.6259,209.4709],[-85.1645,12.6238,297.827],[-85.1659,12.6214,328.4047],[-85.1632,12.6052,246.714],[-85.1644,12.599,293.4094],[-85.17,12.5927,240.9008],[-85.1744,12.5917,216.2676],[-85.1849,12.5947,249.7562],[-85.1961,12.5954,226.256],[-85.2016,12.5944,221.8326],[-85.2101,12.5875,228.8419],[-85.2147,12.5889,277.4646],[-85.2175,12.5919,228.9087],[-85.231,12.6184,187.7588],[-85.2433,12.6311,267.9196],[-85.2469,12.6317,264.3022],[-85.2526,12.6225,238.60059999999999],[-85.2606,12.6245,231.72559999999999],[-85.2736,12.6238,249.1437],[-85.277,12.6259,252.9563],[-85.2766,12.63,288.8018],[-85.2706,12.6365,283.9487],[-85.269,12.6413,265.5286],[-85.272,12.6461,277.0533],[-85.2752,12.6479,311.1397],[-85.2804,12.6475,261.1267],[-85.2976,12.6504,400.9523],[-85.3093,12.6544,298.0584],[-85.3171,12.6658,220.8898],[-85.3212,12.6674,224.2103],[-85.3438,12.6698,220.9033],[-85.3504,12.6617,236.6809],[-85.3538,12.6609,245.6734],[-85.3582,12.6684,259.1024],[-85.362799999999993,12.6838,227.65],[-85.3782,12.6898,264.9361],[-85.3976,12.7022,351.6556],[-85.409,12.6994,329.8085],[-85.4202,12.6865,330.6791],[-85.4337,12.6814,339.5719],[-85.4457,12.6666,369.4196],[-85.4542,12.6689,303.4644],[-85.4703,12.6824,274.6208],[-85.4861,12.6845,371.446],[-85.4988,12.6882,297.3128],[-85.5114,12.6798,309.8549],[-85.5157,12.6795,281.4805],[-85.5229,12.6829,264.3824],[-85.541,12.6798,293.9167],[-85.5508,12.6739,289.7939],[-85.5582,12.6559,307.0501],[-85.5638,12.65,462.554],[-85.5838,12.65,330.0163],[-85.5929,12.6449,512.7357],[-85.5962,12.6395,446.4013],[-85.6006,12.6402,488.6237],[-85.6071,12.6442,641.6652],[-85.6114,12.6429,503.1932],[-85.6173,12.6381,555.5084],[-85.6313,12.6348,414.4972],[-85.6346,12.6273,451.4115],[-85.6404,12.6275,478.4832],[-85.6464,12.6313,475.7922],[-85.6488,12.631,475.2983],[-85.6509,12.627,446.9221],[-85.655,12.6273,602.5278],[-85.6619,12.6319,522.8692],[-85.6715,12.6318,582.1675],[-85.6837,12.6379,621.1356],[-85.6959,12.6394,790.3842],[-85.7123,12.636,987.5796],[-85.739,12.6246,934.2957],[-85.7694,12.6195,767.9168],[-85.8322,12.6186,491.5508],[-85.8571,12.6147,390.7881],[-85.8619,12.6161,385.8674],[-85.8799,12.6117,447.9742],[-85.8849,12.6097,425.0381],[-85.8848,12.6013,506.6143],[-85.882,12.5936,544.144],[-85.8805,12.5804,545.0075],[-85.8822,12.5713,455.3771],[-85.8872,12.5623,465.416],[-85.9013,12.5519,473.7334],[-85.9322,12.5416,692.8246],[-85.949,12.5308,810.1094],[-85.9653,12.5115,500.7892],[-85.9784,12.5022,410.7019],[-85.9814,12.4955,354.3578],[-85.9785,12.4892,288.2444],[-85.9804,12.4875,322.5597],[-85.9858,12.487,430.9123],[-85.9851,12.4816,390.6021],[-85.9793,12.4736,285.3969],[-85.9732,12.4604,336.6339],[-85.9747,12.4576,407.1664],[-85.9777,12.4574,458.2183],[-85.9789,12.4554,393.9336],[-85.9751,12.4429,424.8442],[-85.9636,12.4348,363.5426],[-85.9424,12.4006,363.8582],[-85.9372,12.3964,388.8542],[-85.9272,12.394,311.6906],[-85.9239,12.3906,232.7027],[-85.921,12.3779,119.0],[-85.9132,12.3733,120.9726],[-85.912,12.3701,119.0],[-85.9227,12.3606,119.0],[-85.9272,12.3424,185.1809],[-85.9306,12.3344,99.4008],[-85.9286,12.329,95.0144],[-85.9059,12.3034,81.6922],[-85.8682,12.2754,59.5152],[-85.8278,12.2412,51.552],[-85.8487,12.2087,45.1539],[-85.8481,12.2052,45.1674],[-85.8424,12.1991,43.0392],[-85.8505,12.1948,49.8286],[-85.8521,12.1902,43.9189],[-85.8496,12.1801,43.8301],[-85.8498,12.1739,41.7607],[-85.8476,12.1683,38.001],[-85.8415,12.163,36.7445],[-85.847,12.1567,38.9889],[-85.8473,12.138,37.3905],[-85.8454,12.1293,35.7534],[-85.8384,12.1237,34.2908],[-85.8338,12.1228,34.3945],[-85.8249,12.1246,35.0499],[-85.8196,12.1234,37.141],[-85.8038,12.1138,31.3505],[-85.7901,12.1102,31.0],[-85.7867,12.1063,31.0],[-85.7857,12.091,31.0],[-85.784,12.0894,31.0],[-85.7804,12.0906,31.0],[-85.7796,12.0964,31.0],[-85.7775,12.0976,31.0],[-85.7741,12.096,31.0],[-85.7607,12.0794,31.0],[-85.7437,12.0703,31.0],[-85.7229,12.0657,31.0],[-85.7049,12.0691,31.0],[-85.7051,12.0622,31.0],[-85.7026,12.0556,31.0],[-85.6933,12.0428,31.0],[-85.669,12.0371,31.0],[-85.6748,12.0593,31.0],[-85.6762,12.0757,35.6494],[-85.6659,12.0886,35.442],[-85.6606,12.1029,70.6528],[-85.6481,12.1252,49.0111],[-85.6394,12.1373,69.3794],[-85.6384,12.1449,72.876],[-85.6418,12.1582,169.9818],[-85.638,12.1758,365.2747],[-85.632,12.1857,217.2151],[-85.6032,12.2003,213.2948],[-85.5989,12.2046,256.1049],[-85.5973,12.2098,307.2418],[-85.5959,12.2346,420.0495],[-85.5901,12.2676,147.4149],[-85.5821,12.2846,144.6228],[-85.5671,12.3017,267.6823]]]]}
,"properties": {"GID_1": "NIC.3_1","GID_0": "NIC","country": "Nicaragua","province": "Boaco","VARNAME_1": "NA","NL_NAME_1": "NA","TYPE_1": "Departamento","ENGTYPE_1": "Department","CC_1": "NA","HASC_1": "NI.BO","ISO_1": "NI-BO","name": "Boaco.province","area_km2": 4194.353,"hist_schema_id": "Elevation0-9000","hist_area_km2": {"25": 121.581,"50": 176.353,"75": 51.534,"100": 40.486,"125": 64.831,"150": 84.808,"175": 111.731,"200": 117.299,"225": 141.511,"250": 215.426,"275": 297.075,"300": 301.248,"325": 280.423,"350": 263.729,"375": 243.692,"400": 224.253,"425": 174.506,"450": 148.62,"475": 150.924,"500": 149.185,"525": 142.292,"550": 127.218,"575": 100.012,"600": 76.531,"625": 63.983,"650": 58.186,"675": 47.341,"700": 36.658,"725": 27.882,"750": 24.279,"775": 23.119,"800": 20.945,"825": 18.44,"850": 15.811,"875": 13.679,"900": 10.368,"925": 8.236,"950": 5.939,"975": 4.035,"1000": 3.6,"1025": 3.145,"1050": 1.593,"1075": 0.931,"1100": 0.538,"1125": 0.331,"1150": 0.041}}}