{"type":"Feature","properties":{"ISO3166-1-Alpha-3":"NIC","country":"Nicaragua","fill":"#FF0","id":"668","name":"Boaco"},
"geometry":{"type": "Polygon","coordinates": [[[-84.96853,12.64951,193.5599],[-84.97377,12.65465,211.2411],[-84.9853,12.66042,178.8215],[-84.98638,12.66375,175.7285],[-84.98685,12.66819,167.55],[-84.98393,12.68372,211.9524],[-84.98522,12.70214,203.4352],[-84.98961,12.71478,185.1674],[-84.99822,12.7307,159.6956],[-85.00429,12.73772,187.3062],[-85.01021,12.74292,195.0069],[-85.01917,12.7477,135.0058],[-85.02708,12.76005,154.2879],[-85.03199,12.76204,137.7051],[-85.06139,12.78385,162.7306],[-85.07992,12.79366,123.9367],[-85.09857,12.79322,180.2349],[-85.11772,12.77625,193.2045],[-85.12289,12.76434,251.3759],[-85.12645,12.73633,143.4972],[-85.13077,12.72163,180.585],[-85.13369,12.72196,170.8071],[-85.14201,12.717,299.2063],[-85.14924,12.7109,163.9967],[-85.14878,12.70796,142.8961],[-85.15214,12.7061,152.8061],[-85.16552,12.6937,191.4356],[-85.15534,12.67755,147.8841],[-85.15428,12.66269,188.5168],[-85.16232,12.65496,219.461],[-85.17919,12.66016,182.0095],[-85.17841,12.64936,207.6247],[-85.1795,12.6398,201.622],[-85.18213,12.63174,174.8605],[-85.18601,12.62541,224.1233],[-85.19283,12.62541,176.4426],[-85.19771,12.62972,176.0187],[-85.20704,12.6359,188.1841],[-85.21608,12.63933,190.2485],[-85.22014,12.63566,193.3068],[-85.22301,12.62584,245.2314],[-85.2295,12.62755,279.5433],[-85.26076,12.66181,221.1083],[-85.27205,12.66352,217.7716],[-85.28905,12.65272,211.2377],[-85.29587,12.65272,242.1428],[-85.29045,12.67791,247.4704],[-85.28905,12.68065,204.6729],[-85.29626,12.68607,276.2929],[-85.3122,12.68703,230.4652],[-85.33109,12.69703,228.4042],[-85.36411,12.70817,222.1293],[-85.37099,12.71168,245.1818],[-85.37447,12.72134,271.9478],[-85.38284,12.73124,230.8758],[-85.39295,12.73899,276.9546],[-85.40171,12.74209,340.2314],[-85.40762,12.74325,227.6694],[-85.41525,12.73772,230.9122],[-85.41674,12.73573,233.1135],[-85.41835,12.7317,231.7051],[-85.42059,12.72721,259.0272],[-85.42377,12.72325,278.9403],[-85.42566,12.72155,270.0589],[-85.43003,12.71884,311.123],[-85.4346,12.71674,282.5311],[-85.44243,12.71439,252.039],[-85.44496,12.71313,278.427],[-85.44669,12.71137,295.0098],[-85.44775,12.70902,314.2219],[-85.45336,12.70718,267.9968],[-85.46354,12.70615,263.7921],[-85.52754,12.70948,259.8543],[-85.53077,12.70889,259.2661],[-85.5334,12.7078,248.9339],[-85.53532,12.70615,262.0646],[-85.53689,12.70424,273.1425],[-85.54989,12.67879,286.6783],[-85.55289,12.67458,289.9753],[-85.55679,12.67308,292.4258],[-85.5627,12.67228,378.8445],[-85.58201,12.67215,290.5738],[-85.58666,12.67137,293.0943],[-85.59567,12.66669,382.1076],[-85.61603,12.6629,409.5989],[-85.62789,12.66073,402.8483],[-85.64012,12.65075,409.4934],[-85.64412,12.64889,375.3183],[-85.64699,12.649,382.5278],[-85.65285,12.6521,401.9892],[-85.66872,12.65502,454.2289],[-85.68187,12.65853,464.337],[-85.85574,12.623,396.1029],[-85.87194,12.61494,420.2569],[-85.88953,12.57879,580.316],[-85.93736,12.55264,802.2039],[-85.94271,12.54859,790.5262],[-85.97227,12.52208,585.4237],[-85.97836,12.50456,389.4562],[-85.97436,12.47087,261.9174],[-85.96963,12.45666,337.0089],[-85.96281,12.44526,217.5404],[-85.95015,12.42857,190.4111],[-85.92496,12.40165,151.0542],[-85.92144,12.39612,220.6422],[-85.92025,12.38994,187.8223],[-85.9223,12.3703,119.0],[-85.9225,12.35361,203.6273],[-85.92082,12.3464,193.1122],[-85.91762,12.34113,221.213],[-85.83021,12.26013,60.7168],[-85.82806,12.2568,58.9427],[-85.82982,12.25098,53.9274],[-85.8463,12.22631,47.3755],[-85.8515,12.19876,45.9421],[-85.84527,12.17949,40.5061],[-85.84375,12.16435,37.0576],[-85.84212,12.15673,37.5655],[-85.8368,12.15032,40.082],[-85.82835,12.1443,36.7878],[-85.8123,12.13812,35.9396],[-85.78509,12.11497,31.0],[-85.73148,12.04133,31.0],[-85.65665,12.04647,33.0571],[-85.64004,12.14698,78.5767],[-85.63526,12.15657,121.3133],[-85.62588,12.17138,231.6983],[-85.62446,12.17324,269.6802],[-85.6233,12.17517,349.8393],[-85.62213,12.1768,350.0499],[-85.60208,12.22197,423.882],[-85.59994,12.22894,365.4803],[-85.5997,12.23558,374.197],[-85.60211,12.25377,202.0052],[-85.60226,12.27809,128.7611],[-85.6011,12.2845,268.5262],[-85.59911,12.28938,150.009],[-85.59107,12.3001,188.8583],[-85.58635,12.30468,172.1601],[-85.56056,12.32312,218.1778],[-85.52281,12.34134,486.2497],[-85.50855,12.34553,480.5359],[-85.49759,12.34516,499.7998],[-85.47284,12.34121,460.7731],[-85.44372,12.34072,488.5915],[-85.40085,12.33889,518.1621],[-85.32905,12.35144,365.7899],[-85.27505,12.35744,315.3092],[-85.23415,12.37105,329.624],[-85.22223,12.37749,320.1479],[-85.16371,12.41705,497.5515],[-85.14862,12.42296,493.0715],[-85.13795,12.42537,275.9327],[-85.12774,12.42413,255.4069],[-85.12172,12.42438,259.1218],[-85.10738,12.42663,259.3705],[-85.07801,12.44087,269.5365],[-85.0633,12.45185,294.8739],[-85.0523,12.46255,291.2293],[-85.03566,12.48319,410.6093],[-85.03044,12.49456,404.9576],[-85.02762,12.50565,500.6674],[-85.02713,12.54246,395.7173],[-85.02571,12.55365,390.455],[-85.02323,12.56171,433.9136],[-85.01928,12.56967,370.0901],[-84.98122,12.62445,250.565],[-84.96853,12.64951,193.5599]]]}}