{"type":"Feature","properties":{"featurecla":"River","scalerank":11,"rivernum":22174,"dissolve":"22174River","name":"null18","name_alt":null,"note":"ID is link back to CEC data","name_full":null,"min_zoom":6.7,"strokeweig":0.15,"uident":2061001,"min_label":7.7},
"geometry":{"type": "LineString","coordinates": [[-85.415272590228724,12.439724025514877,425.525],[-85.3443904287704,12.405788478639877,275.605],[-85.192128058978724,12.384548244264877,420.2732],[-85.1647029287704,12.391384181764877,369.3065]]}}