{"type":"Feature","properties":{"GID_2":"NIC.17.2_1","GID_0":"NIC","country":"Nicaragua","GID_1":"NIC.17_1","province":"RíoSanJuan","NL_NAME_1":"NA","county":"Morrito","VARNAME_2":"NA","NL_NAME_2":"NA","TYPE_2":"Municipio","ENGTYPE_2":"Municipality","CC_2":"NA","HASC_2":"NI.SJ.MO","name":"Morrito.county"},
"geometry":{"type": "MultiPolygon","coordinates": [[[[-85.1147,11.5223,31.0],[-85.1158,11.5193,31.0],[-85.1149,11.5157,31.0],[-85.1114,11.5139,31.0],[-85.1047,11.5164,31.0],[-85.1032,11.519,31.0],[-85.1033,11.5228,31.0],[-85.1061,11.5246,31.0],[-85.1111,11.5245,31.0],[-85.1147,11.5223,31.0]]],
[[[-85.0988,11.5343,45.6197],[-85.1008,11.5309,31.0],[-85.0997,11.5267,31.0],[-85.0916,11.5287,31.0],[-85.0903,11.5314,31.0],[-85.0928,11.5358,32.3122],[-85.0988,11.5343,45.6197]]],
[[[-85.1075,11.6309,31.0],[-85.1105,11.6295,31.0],[-85.1095,11.6177,31.0],[-85.0984,11.6169,31.0],[-85.0939,11.6136,31.0],[-85.0894,11.6016,31.0],[-85.07,11.5798,31.0],[-85.0663,11.5601,31.0],[-85.058,11.5481,31.0],[-85.0446,11.5425,31.0],[-85.0364,11.5322,31.0],[-85.0284,11.5287,31.0],[-85.0045,11.4919,31.0],[-84.9802,11.4722,31.0],[-84.972,11.4606,31.0],[-84.9688,11.4592,31.0],[-84.9622,11.46,31.0],[-84.959,11.4617,31.0],[-84.9559,11.4667,31.0],[-84.9528,11.4841,35.0935],[-84.9456,11.4953,34.3448],[-84.9224,11.506,42.623],[-84.8976,11.5038,34.384],[-84.8803,11.5068,34.7165],[-84.8581,11.5205,36.5875],[-84.8494,11.5294,38.9371],[-84.833,11.5511,42.8768],[-84.8261,11.5735,68.5852],[-84.8304,11.5773,106.7005],[-84.8326,11.5831,69.3262],[-84.8314,11.599,66.4247],[-84.84,11.6109,71.2116],[-84.8449,11.6215,94.4538],[-84.8619,11.6453,126.6741],[-84.865,11.6525,180.3849],[-84.8657,11.6596,189.1925],[-84.8582,11.6746,85.5817],[-84.8409,11.6911,98.024],[-84.8354,11.7106,90.3196],[-84.8322,11.7149,93.4408],[-84.822,11.7223,125.4492],[-84.8219,11.7275,122.6601],[-84.8298,11.7428,125.2066],[-84.8478,11.7637,177.6858],[-84.8796,11.8073,81.0274],[-84.8832,11.7997,83.1634],[-84.8965,11.7856,165.1493],[-84.9055,11.7846,101.915],[-84.9133,11.78,72.8985],[-84.9184,11.7798,80.0454],[-84.9215,11.7814,68.1328],[-84.9292,11.7735,67.4769],[-84.9394,11.7708,66.3283],[-84.944,11.7675,66.8771],[-84.9591,11.7657,59.3278],[-84.9639,11.7632,56.5296],[-84.9665,11.7596,53.6558],[-84.9691,11.748,56.4305],[-84.9787,11.7444,52.8377],[-84.9799,11.7425,62.2469],[-84.9795,11.7369,54.2364],[-84.9754,11.7315,49.1783],[-84.9754,11.7256,47.3017],[-84.9765,11.7231,48.3865],[-84.9836,11.7189,48.8684],[-84.9849,11.7143,45.1125],[-84.9944,11.714,48.2693],[-85.0016,11.7116,49.4533],[-85.0057,11.7068,48.4771],[-85.0139,11.6899,43.4386],[-85.0159,11.6883,45.3242],[-85.0234,11.6884,49.0079],[-85.028,11.6798,71.6672],[-85.0308,11.6796,50.9886],[-85.0389,11.687,44.9243],[-85.0479,11.6896,41.5846],[-85.0507,11.6886,39.9505],[-85.0507,11.6832,43.4086],[-85.0558,11.6826,40.1104],[-85.0545,11.677,42.4214],[-85.0557,11.6743,42.6088],[-85.0619,11.6715,40.241],[-85.0725,11.6607,74.2548],[-85.0964,11.6567,34.507],[-85.0986,11.6521,33.2193],[-85.0985,11.6448,33.5381],[-85.1014,11.6412,31.0],[-85.1067,11.639,31.0],[-85.1059,11.6324,31.0],[-85.1075,11.6309,31.0]]]]}}