{"type": "Feature","bbox": [-86.0826,11.8757,-86.0451,11.9098],"geometry": {"type": "MultiPolygon","coordinates": [[[[-86.0546,11.8972,372.6725],[-86.049,11.9044,81.7213],[-86.0451,11.9064,73.0],[-86.0451,11.9098,73.0],[-86.0592,11.907,186.0785],[-86.0655,11.9034,444.7098],[-86.0737,11.8948,445.7861],[-86.0826,11.8812,398.2877],[-86.0697,11.8757,366.3174],[-86.0546,11.8972,372.6725]]]]}
,"properties": {"GID_2": "NIC.14.8_1","GID_0": "NIC","country": "Nicaragua","GID_1": "NIC.14_1","province": "Masaya","NL_NAME_1": "NA","county": "SanJuandeOriente","VARNAME_2": "NA","NL_NAME_2": "NA","TYPE_2": "Municipio","ENGTYPE_2": "Municipality","CC_2": "NA","HASC_2": "NI.MS.SJ","name": "San_Juande_Oriente.county","area_km2": 5.975163,"hist_schema_id": "Elevation0-9000","hist_area_km2": {"75": 0.248952,"100": 0.062238,"125": 0.082984,"150": 0.103731,"175": 0.124477,"200": 0.16597,"225": 0.082985,"250": 0.124478,"275": 0.020746,"300": 0.082986,"325": 0.041493,"350": 0.124484,"375": 1.473089,"400": 1.244848,"425": 1.244821,"450": 0.726134,"475": 0.020747}}}