{"type": "Feature","bbox": [-86.6834,11.8715,-86.3554,12.1585],"geometry": {"type": "MultiPolygon","coordinates": [[[[-86.6834,12.0057,4.7665],[-86.669,11.9926,4.6717],[-86.6643,11.9932,0.5498],[-86.6651,11.9904,0.0],[-86.6637,11.9879,0.4816],[-86.6385,11.9629,0.0],[-86.6243,11.9412,0.6848],[-86.6215,11.9412,3.4957],[-86.6226,11.9388,0.5747],[-86.6171,11.929,9.9712],[-86.6171,11.9254,8.9549],[-86.6185,11.9243,2.8663],[-86.6176,11.921,12.7916],[-86.6196,11.9196,8.196],[-86.6176,11.9151,9.4999],[-86.6201,11.9107,0.0],[-86.6185,11.9107,2.1412],[-86.6157,11.9071,2.3379],[-86.6162,11.9051,0.0],[-86.5835,11.8771,3.8865],[-86.5815,11.8774,6.7384],[-86.5818,11.8757,1.3895],[-86.5768,11.8715,0.0],[-86.5748,11.8757,12.1409],[-86.5754,11.8816,11.7025],[-86.5877,11.8995,24.1489],[-86.5871,11.9031,25.2361],[-86.5832,11.908,39.1667],[-86.5756,11.9117,43.8915],[-86.5684,11.92,53.7148],[-86.5527,11.9218,66.3639],[-86.5463,11.9208,75.1307],[-86.5319,11.9072,103.0977],[-86.5262,11.9058,83.9147],[-86.5089,11.912,119.0118],[-86.5007,11.9093,129.2204],[-86.498,11.9097,132.7408],[-86.4927,11.914,151.958],[-86.4799,11.914,146.5787],[-86.4706,11.9213,166.9841],[-86.4599,11.9228,183.7719],[-86.4503,11.9267,220.2836],[-86.4373,11.9447,251.0643],[-86.4324,11.9573,305.8328],[-86.432,11.9697,295.0975],[-86.4596,12.0044,187.4649],[-86.3554,12.0598,454.8809],[-86.3789,12.0814,478.8442],[-86.3904,12.0977,456.4803],[-86.3957,12.1077,414.3368],[-86.3992,12.1202,423.5146],[-86.4015,12.1341,297.3585],[-86.4005,12.1418,268.2082],[-86.4511,12.1309,276.1539],[-86.4854,12.1259,204.4572],[-86.4873,12.1585,223.4265],[-86.5192,12.1582,214.5794],[-86.5199,12.1494,157.2064],[-86.5176,12.143,180.3783],[-86.5191,12.1379,153.5555],[-86.5378,12.1302,113.799],[-86.5469,12.1163,100.2067],[-86.5669,12.108,81.0208],[-86.5834,12.0968,74.9263],[-86.5962,12.0826,54.3585],[-86.6323,12.0894,52.1246],[-86.6356,12.0889,59.5444],[-86.6501,12.0806,23.2094],[-86.6574,12.0806,30.0868],[-86.6635,12.0778,30.5459],[-86.6681,12.0706,24.501],[-86.6684,12.067,35.5784],[-86.6568,12.0381,35.1975],[-86.6558,12.0311,44.1406],[-86.657,12.0263,34.6981],[-86.6658,12.0174,25.4655],[-86.6834,12.0057,4.7665]]]]}
,"properties": {"GID_2": "NIC.13.8_1","GID_0": "NIC","country": "Nicaragua","GID_1": "NIC.13_1","province": "Managua","NL_NAME_1": "NA","county": "VillaCarlosFonseca","VARNAME_2": "VillaCarlosFonsecaA","NL_NAME_2": "NA","TYPE_2": "Municipio","ENGTYPE_2": "Municipality","CC_2": "NA","HASC_2": "NI.MN.VC","name": "Villa_Carlos_Fonseca.county","area_km2": 594.6933,"hist_schema_id": "Elevation0-9000","hist_area_km2": {"0": 26.2791,"25": 82.7081,"50": 91.4333,"75": 64.3294,"100": 66.525,"125": 47.4457,"150": 40.374,"175": 35.0637,"200": 28.1785,"225": 20.3622,"250": 17.7904,"275": 14.7837,"300": 10.8021,"325": 8.7078,"350": 8.3551,"375": 8.0233,"400": 7.0489,"425": 4.9137,"450": 3.5454,"475": 2.6332,"500": 2.2807,"525": 1.5343,"550": 0.9123,"575": 0.5184,"600": 0.1451}}}