{"type":"Feature","properties":{"GID_2":"NIC.5.9_1","GID_0":"NIC","country":"Nicaragua","GID_1":"NIC.5_1","province":"Chinandega","NL_NAME_1":"NA","county":"SanFranciscodelNorte","VARNAME_2":"SanFransicodelNorte","NL_NAME_2":"NA","TYPE_2":"Municipio","ENGTYPE_2":"Municipality","CC_2":"NA","HASC_2":"NI.CI.SF","name":"San_Franciscodel_Norte.county"},
"geometry":{"type": "MultiPolygon","coordinates": [[[[-86.7704,13.275,868.4916],[-86.7717,13.2756,842.0794],[-86.7791,13.2628,787.8564],[-86.7913,13.2488,681.1385],[-86.7792,13.2229,351.5487],[-86.7782,13.2153,407.312],[-86.78,13.2128,453.1477],[-86.7864,13.2113,439.1854],[-86.7908,13.2083,286.2178],[-86.7937,13.1925,320.1019],[-86.7962,13.1889,353.3922],[-86.8051,13.1829,211.719],[-86.808,13.1786,161.2782],[-86.8122,13.1653,151.9468],[-86.8102,13.1618,148.5274],[-86.8106,13.1584,191.4585],[-86.814,13.1512,153.6544],[-86.8128,13.1472,133.8366],[-86.8064,13.1422,110.5706],[-86.7949,13.1385,124.6449],[-86.7679,13.1342,148.8454],[-86.7605,13.1306,160.2534],[-86.7584,13.1277,152.0449],[-86.7581,13.122,196.8489],[-86.7631,13.1139,140.1019],[-86.7644,13.1068,132.9682],[-86.7579,13.0858,97.8869],[-86.7502,13.0917,117.4206],[-86.7377,13.0955,167.4102],[-86.7436,13.1088,161.0765],[-86.7464,13.1215,204.3413],[-86.7476,13.1432,272.703],[-86.7466,13.1531,233.9949],[-86.7421,13.1667,252.9636],[-86.7305,13.1877,261.6258],[-86.7162,13.201599999999999,286.9436],[-86.7181,13.2064,298.0571],[-86.7128,13.216,294.1087],[-86.7079,13.2331,353.2613],[-86.7147,13.259,416.2148],[-86.7189,13.2668,566.2514],[-86.7226,13.2681,551.711],[-86.7386,13.2636,686.5229],[-86.7492,13.2677,900.0961],[-86.7563,13.267,928.4045],[-86.7618,13.2686,747.0526],[-86.7704,13.275,868.4916]]]]}}