{"type": "Feature","bbox": [-86.4687,13.5704,-86.317,13.7829],"geometry": {"type": "MultiPolygon","coordinates": [[[[-86.4681,13.7737,1664.6205],[-86.4687,13.759,1541.2935],[-86.4667,13.7334,1272.292],[-86.4599,13.7007,921.1337],[-86.446,13.6911,802.5285],[-86.4397,13.6821,760.0926],[-86.4384,13.6776,778.6288],[-86.4397,13.6698,718.33],[-86.4488,13.6607,735.1797],[-86.4499,13.6532,641.7741],[-86.4455,13.6467,647.0352],[-86.4245,13.6285,576.9065],[-86.4224,13.6233,538.2804],[-86.4285,13.587,721.4956],[-86.3841,13.5777,908.1906],[-86.3744,13.5704,799.9856],[-86.3584,13.5785,1040.1904],[-86.3385,13.5793,826.8998],[-86.3181,13.5883,662.3728],[-86.317,13.5913,517.4659],[-86.3221,13.5925,575.9974],[-86.3354,13.5887,695.4255],[-86.3429,13.5911,565.3362],[-86.3494,13.5944,569.5604],[-86.3584,13.6041,509.8224],[-86.3785,13.6132,562.8771],[-86.3937,13.6175,592.2077],[-86.3899,13.6286,602.1323],[-86.3801,13.6348,625.0074],[-86.3773,13.6563,695.8766],[-86.3639,13.6808,831.265],[-86.3601,13.691,910.8188],[-86.36,13.718,1169.0204],[-86.38,13.7666,1789.3273],[-86.387,13.7606,1750.3042],[-86.394,13.759,1931.1991],[-86.4195,13.7617,2001.0729],[-86.4328,13.7587,1641.2098],[-86.4361,13.7595,1778.3386],[-86.4387,13.7622,1842.3411],[-86.4448,13.7792,1753.2484],[-86.4482,13.7825,1649.8987],[-86.4511,13.7829,1731.8273],[-86.4681,13.7737,1664.6205]]]]}
,"properties": {"GID_2": "NIC.16.6_1","GID_0": "NIC","country": "Nicaragua","GID_1": "NIC.16_1","province": "NuevaSegovia","NL_NAME_1": "NA","county": "Mozonte","VARNAME_2": "Mosonte","NL_NAME_2": "NA","TYPE_2": "Municipio","ENGTYPE_2": "Municipality","CC_2": "NA","HASC_2": "NI.NS.MO","name": "Mozonte.county","area_km2": 177.2065,"hist_schema_id": "Elevation0-9000","hist_area_km2": {"500": 0.2267,"525": 1.2776,"550": 1.8752,"575": 4.9249,"600": 8.1807,"625": 9.5405,"650": 10.1377,"675": 9.4575,"700": 8.3859,"725": 5.3778,"750": 3.7294,"775": 4.7594,"800": 3.8734,"825": 4.2854,"850": 3.6467,"875": 3.5642,"900": 3.6054,"925": 3.5435,"950": 3.0902,"975": 3.0694,"1000": 2.7809,"1025": 2.8221,"1050": 2.9662,"1075": 2.3482,"1100": 2.1834,"1125": 2.2864,"1150": 2.4511,"1175": 2.7189,"1200": 2.8012,"1225": 2.7394,"1250": 2.7394,"1275": 2.9866,"1300": 2.7394,"1325": 2.554,"1350": 2.8835,"1375": 2.7599,"1400": 2.3685,"1425": 2.1214,"1450": 2.4921,"1475": 2.3067,"1500": 2.2243,"1525": 2.3273,"1550": 2.2243,"1575": 2.4096,"1600": 2.1006,"1625": 2.0801,"1650": 1.8947,"1675": 1.7711,"1700": 1.9153,"1725": 1.6269,"1750": 1.3798,"1775": 1.5651,"1800": 1.3798,"1825": 0.8649,"1850": 0.6384,"1875": 0.4942,"1900": 0.4531,"1925": 0.2471,"1950": 0.2471,"1975": 0.3913,"2000": 0.1853,"2025": 0.103,"2050": 0.0824}}}