{"type":"Feature","properties":{"GID_2":"NIC.13.6_1","GID_0":"NIC","country":"Nicaragua","GID_1":"NIC.13_1","province":"Managua","NL_NAME_1":"NA","county":"Ticuantepe","VARNAME_2":"NA","NL_NAME_2":"NA","TYPE_2":"Municipio","ENGTYPE_2":"Municipality","CC_2":"NA","HASC_2":"NI.MN.TC","name":"Ticuantepe.county"},
"geometry":{"type": "MultiPolygon","coordinates": [[[[-86.2609,11.9859,640.1531],[-86.2268,11.9559,692.0311],[-86.183,11.975,512.2544],[-86.1653,12.0043,299.7152],[-86.1732,12.0147,300.4017],[-86.1935,12.0337,259.3109],[-86.1991,12.041,236.2666],[-86.2087,12.0375,247.8427],[-86.2286,12.0204,345.4259],[-86.2462,12.0041,441.4737],[-86.2609,11.9859,640.1531]]]]}}