{"type": "Feature","bbox": [-85.8189,11.3695,-85.7688,11.4534],"geometry": {"type": "MultiPolygon","coordinates": [[[[-85.7918,11.4525,44.4296],[-85.8004,11.4534,51.3226],[-85.8189,11.4484,52.7083],[-85.8068,11.4343,56.1017],[-85.8004,11.4193,50.3432],[-85.7998,11.3975,56.6977],[-85.8046,11.3736,69.4368],[-85.8011,11.3712,69.6117],[-85.7855,11.3695,41.0032],[-85.7775,11.3807,45.3111],[-85.7743,11.3826,44.2967],[-85.7688,11.3807,45.0507],[-85.7736,11.3924,38.2486],[-85.7809,11.4042,41.0067],[-85.7834,11.424,37.1403],[-85.7918,11.4525,44.4296]]]]}
,"properties": {"GID_2": "NIC.18.7_1","GID_0": "NIC","country": "Nicaragua","GID_1": "NIC.18_1","province": "Rivas","NL_NAME_1": "NA","county": "SanJorge","VARNAME_2": "NA","NL_NAME_2": "NA","TYPE_2": "Municipio","ENGTYPE_2": "Municipality","CC_2": "NA","HASC_2": "NI.RI.SJ","name": "San_Jorge.county","area_km2": 22.54974,"hist_schema_id": "Elevation0-9000","hist_area_km2": {"25": 0.56118,"50": 21.84307,"75": 0.1455}}}