{"type":"Feature","properties":{"GID_2":"NIC.9.6_1","GID_0":"NIC","country":"Nicaragua","GID_1":"NIC.9_1","province":"Jinotega","NL_NAME_1":"NA","county":"SantaMaríadePantasma","VARNAME_2":"NA","NL_NAME_2":"NA","TYPE_2":"Municipio","ENGTYPE_2":"Municipality","CC_2":"NA","HASC_2":"NI.JI.SM","name":"Santa_Maríade_Pantasma.county"},
"geometry":{"type": "MultiPolygon","coordinates": [[[[-85.792,13.5026,383.267],[-85.7985,13.5105,321.0083],[-85.8005,13.51,332.5807],[-85.8017,13.5054,344.6663],[-85.8053,13.5074,312.0492],[-85.8095,13.5151,310.9734],[-85.8136,13.5197,344.8583],[-85.8166,13.5202,399.3801],[-85.8214,13.5181,354.0405],[-85.8237,13.5115,445.4012],[-85.8335,13.5178,341.4474],[-85.8426,13.5147,404.5838],[-85.8469,13.5084,659.7147],[-85.8517,13.5051,445.8815],[-85.8632,13.5053,345.8907],[-85.8689,13.5027,466.4222],[-85.8789,13.5054,339.5579],[-85.8798,13.5007,361.6369],[-85.8854,13.4956,352.1745],[-85.8982,13.4886,406.778],[-85.9027,13.4839,341.8931],[-85.9039,13.4692,392.7039],[-85.91,13.4622,321.1066],[-85.9147,13.4675,321.125],[-85.9188,13.4693,344.7579],[-85.9275,13.4676,379.3079],[-85.9305,13.4695,363.3869],[-85.9349,13.4784,326.7824],[-85.9393,13.4832,327.1843],[-85.9586,13.4953,423.9189],[-85.975,13.5081,339.6278],[-85.9862,13.5101,344.589],[-85.999,13.5085,375.4418],[-86.008,13.5138,404.3301],[-86.0137,13.5136,387.5776],[-86.0164,13.5107,356.8326],[-86.0218,13.4972,411.2457],[-86.0128,13.4774,524.4321],[-86.0086,13.4632,496.6221],[-86.008,13.4526,495.6841],[-86.0101,13.4318,644.4373],[-86.0163,13.4117,860.8148],[-86.0324,13.3814,1035.6401],[-86.0382,13.343,963.7863],[-86.0364,13.3243,1022.3589],[-86.0336,13.3143,1096.3083],[-86.0086,13.2771,922.2939],[-85.9991,13.2688,1027.0184],[-85.9799,13.2595,1056.2695],[-85.9686,13.2573,1059.2319],[-85.9565,13.2572,1158.871],[-85.9487,13.2592,1094.9896],[-85.9271,13.2687,1026.9249],[-85.9131,13.2815,1060.4946],[-85.8945,13.3054,1033.8744],[-85.8791,13.3328,1056.1545],[-85.8749,13.3439,1091.2229],[-85.8568,13.3459,804.9628],[-85.8173,13.3459,592.1506],[-85.8112,13.3513,770.2169],[-85.8033,13.3653,683.2251],[-85.8037,13.3808,418.4347],[-85.8,13.3854,454.2872],[-85.7959,13.4113,429.7103],[-85.7947,13.4131,407.9807],[-85.79,13.4101,429.9457],[-85.7876,13.4099,439.9709],[-85.7858,13.4116,412.2446],[-85.7834,13.4274,416.5661],[-85.7778,13.4288,538.6957],[-85.7759,13.4325,600.4318],[-85.7781,13.4385,386.5566],[-85.7776,13.4408,418.2189],[-85.7715,13.4451,538.9677],[-85.7715,13.4537,389.2431],[-85.7638,13.4658,335.1453],[-85.7671,13.4757,344.3139],[-85.7736,13.4803,335.6513],[-85.775,13.4871,329.7126],[-85.78,13.4917,321.3942],[-85.7826,13.497,316.9969],[-85.792,13.5026,383.267]]]]}}