{"type":"Feature","properties":{"GID_2":"NIC.11.2_1","GID_0":"NIC","country":"Nicaragua","GID_1":"NIC.11_1","province":"León","NL_NAME_1":"NA","county":"ElJicaral","VARNAME_2":"NA","NL_NAME_2":"NA","TYPE_2":"Municipio","ENGTYPE_2":"Municipality","CC_2":"NA","HASC_2":"NI.LE.EJ","name":"El_Jicaral.county"},
"geometry":{"type": "MultiPolygon","coordinates": [[[[-86.4728,12.6135,62.2033],[-86.4694,12.6117,60.6976],[-86.4741,12.6055,61.676],[-86.4739,12.6018,64.102],[-86.4644,12.5893,60.0003],[-86.4664,12.5877,59.4762],[-86.4726,12.5892,60.7598],[-86.471,12.5846,59.5126],[-86.4752,12.5806,57.4471],[-86.4672,12.572,57.1771],[-86.4606,12.5567,55.7618],[-86.4617,12.5544,57.4391],[-86.4675,12.5521,50.3768],[-86.4692,12.5494,51.712],[-86.4594,12.5428,50.1807],[-86.4638,12.5342,51.1109],[-86.4562,12.5048,54.4921],[-86.4533,12.5018,53.0608],[-86.44,12.5,51.2564],[-86.4428,12.5105,53.7715],[-86.4397,12.5149,53.4963],[-86.4355,12.514099999999999,56.0702],[-86.4342,12.5116,56.1777],[-86.4369,12.5069,52.2493],[-86.4311,12.504,51.0807],[-86.427,12.4993,50.9583],[-86.4338,12.4935,54.4817],[-86.4347,12.4916,49.7395],[-86.4335,12.4885,46.9728],[-86.4218,12.483,49.3287],[-86.4146,12.4771,41.8301],[-86.413,12.472,40.2025],[-86.414,12.4636,40.0],[-86.409,12.4592,40.0],[-86.3787,12.4696,40.0],[-86.3693,12.4674,40.0],[-86.3594,12.4625,40.0],[-86.3572,12.4643,40.0],[-86.3595,12.4693,40.0],[-86.3538,12.4729,40.0441],[-86.3532,12.4751,41.1959],[-86.3571,12.4809,40.329],[-86.3519,12.4883,43.639],[-86.3549,12.4922,49.2276],[-86.3671,12.4953,47.1328],[-86.375,12.507,45.348],[-86.3698,12.5139,49.3092],[-86.3782,12.5167,50.11],[-86.378,12.5196,52.9152],[-86.371,12.5203,48.3312],[-86.3698,12.5219,51.9704],[-86.3748,12.5312,51.6177],[-86.3705,12.5367,56.8328],[-86.3696,12.5463,53.0623],[-86.362,12.56,55.6334],[-86.3587,12.5781,58.902],[-86.3547,12.5836,63.9564],[-86.3505,12.5945,68.2359],[-86.3318,12.6058,82.6545],[-86.3267,12.6162,88.7857],[-86.321,12.6221,119.8143],[-86.3069,12.627,159.3457],[-86.2868,12.6297,147.1022],[-86.2825,12.633,171.1994],[-86.2841,12.6469,168.6263],[-86.2782,12.6617,189.9187],[-86.2747,12.6767,219.9448],[-86.2792,12.6904,236.952],[-86.2784,12.7001,219.5094],[-86.2802,12.7051,238.4861],[-86.2783,12.7151,246.8118],[-86.2747,12.7221,317.8029],[-86.2761,12.727,282.4113],[-86.2732,12.7357,465.7849],[-86.2721,12.7617,450.0008],[-86.4113,12.7613,255.7132],[-86.4046,12.7371,346.8147],[-86.4054,12.7256,304.3936],[-86.4133,12.7158,267.9146],[-86.4216,12.6961,162.7324],[-86.4292,12.6849,213.6765],[-86.4487,12.6664,75.9623],[-86.455,12.6575,72.7608],[-86.4565,12.652,72.1262],[-86.4534,12.639099999999999,69.1698],[-86.4546,12.6357,67.3764],[-86.4584,12.6315,65.868],[-86.4679,12.6263,66.2663],[-86.471,12.6185,65.4332],[-86.474,12.6167,64.8626],[-86.4728,12.6135,62.2033]]]]}}