{"type":"Feature","properties":{"GID_2":"NIC.9.7_1","GID_0":"NIC","country":"Nicaragua","GID_1":"NIC.9_1","province":"Jinotega","NL_NAME_1":"NA","county":"Wiwilí","VARNAME_2":"NA","NL_NAME_2":"NA","TYPE_2":"Municipio","ENGTYPE_2":"Municipality","CC_2":"NA","HASC_2":"NI.JI.WI","name":"Wiwilí.county"},
"geometry":{"type": "MultiPolygon","coordinates": [[[[-85.8248,13.8527,407.1556],[-85.8429,13.8458,680.8939],[-85.8542,13.8292,754.5095],[-85.8635,13.8069,814.4219],[-85.8813,13.7902,797.3484],[-85.889,13.779,859.3215],[-85.893,13.7646,922.2294],[-85.8921,13.7499,971.2313],[-85.8884,13.7388,886.3431],[-85.8885,13.7238,1184.4713],[-85.8901,13.7193,971.8085],[-85.9018,13.7065,971.3295],[-85.9112,13.6734,685.6635],[-85.9162,13.6458,507.422],[-85.9185,13.594,637.9949],[-85.9259,13.58,606.9745],[-85.9297,13.5639,532.5535],[-85.9284,13.5503,464.2357],[-85.9235,13.537,386.6007],[-85.9115,13.52,398.3401],[-85.9059,13.5165,350.5628],[-85.8812,13.5078,318.349],[-85.8789,13.5054,339.5579],[-85.8689,13.5027,466.4222],[-85.8632,13.5053,345.8907],[-85.8517,13.5051,445.8815],[-85.8469,13.5084,659.7147],[-85.8426,13.5147,404.5838],[-85.837,13.5173,309.0903],[-85.8335,13.5178,341.4474],[-85.8237,13.5115,445.4012],[-85.8214,13.5181,354.0405],[-85.8166,13.5202,399.3801],[-85.8136,13.5197,344.8583],[-85.8095,13.5151,310.9734],[-85.8053,13.5074,312.0492],[-85.8017,13.5054,344.6663],[-85.8005,13.51,332.5807],[-85.7985,13.5105,321.0083],[-85.792,13.5026,383.267],[-85.7873,13.5057,317.6647],[-85.7814,13.5138,357.9995],[-85.7762,13.5308,403.749],[-85.7599,13.5485,560.8288],[-85.7442,13.5549,970.9241],[-85.7207,13.5575,1574.9369],[-85.7118,13.5622,1602.3101],[-85.7066,13.5655,1495.0525],[-85.6896,13.5824,1552.4242],[-85.6651,13.6002,1111.4001],[-85.6329,13.614,786.9473],[-85.6187,13.6266,733.7893],[-85.5958,13.6508,748.1652],[-85.5871,13.6563,750.132],[-85.5735,13.6577,762.044],[-85.5577,13.6552,690.142],[-85.539,13.649,351.7715],[-85.5209,13.6499,420.5435],[-85.5182,13.6518,377.2216],[-85.5221,13.6622,384.4068],[-85.5227,13.669,438.9041],[-85.5167,13.691,537.5203],[-85.5155,13.6932,571.9196],[-85.5062,13.696,417.3231],[-85.5019,13.7015,410.0564],[-85.4955,13.7288,433.3488],[-85.4924,13.7343,380.5654],[-85.4856,13.7381,405.6904],[-85.4837,13.7418,378.9028],[-85.4834,13.7571,333.2879],[-85.4735,13.7706,415.8286],[-85.4703,13.7725,311.8916],[-85.4683,13.772,304.8111],[-85.4632,13.7667,295.6836],[-85.4581,13.7648,290.0492],[-85.4429,13.7651,286.3918],[-85.4326,13.7693,280.5736],[-85.4274,13.7762,271.3055],[-85.4195,13.779,249.6636],[-85.4133,13.7797,242.859],[-85.4042,13.7748,251.1953],[-85.393,13.7779,245.4973],[-85.3907,13.7832,343.9359],[-85.3942,13.7911,235.3313],[-85.3891,13.7972,289.6698],[-85.3889,13.8002,309.8244],[-85.3916,13.807,239.7187],[-85.3892,13.8095,230.1877],[-85.383,13.8104,238.6916],[-85.3814,13.8146,238.7807],[-85.3829,13.8245,272.808],[-85.3804,13.8287,292.9058],[-85.3722,13.8312,241.0147],[-85.3697,13.8356,258.3607],[-85.3777,13.8547,241.6481],[-85.386,13.8669,232.389],[-85.3867,13.8721,239.4322],[-85.384,13.8758,231.3842],[-85.3838,13.8821,235.7681],[-85.3926,13.8943,227.606],[-85.394,13.8987,224.3994],[-85.3908,13.9048,228.0437],[-85.3813,13.9057,221.1106],[-85.3781,13.909,222.3429],[-85.3756,13.9162,218.6155],[-85.3764,13.9246,203.528],[-85.3751,13.9277,210.3661],[-85.371,13.9321,209.3106],[-85.3684,13.9417,209.5536],[-85.3607,13.9488,207.4261],[-85.3617,13.9569,200.9459],[-85.3573,13.9555,198.7405],[-85.3552,13.9569,216.2983],[-85.355,13.9593,218.0102],[-85.3585,13.9654,202.0983],[-85.3572,13.9698,202.8746],[-85.3551,13.9722,203.6949],[-85.3467,13.9733,199.5664],[-85.3498,13.983,195.5117],[-85.3402,13.9841,199.1854],[-85.3415,13.9984,213.1622],[-85.3495,14.01,336.6263],[-85.3489,14.0133,390.7957],[-85.3441,14.0182,363.9236],[-85.3428,14.0279,420.6499],[-85.341,14.0295,319.4394],[-85.339,14.029,312.1453],[-85.3353,14.0253,225.3089],[-85.321,14.0529,244.7309],[-85.3039,14.0741,245.1761],[-85.2988,14.0913,260.6915],[-85.2956,14.0918,241.9248],[-85.2946,14.0887,227.2739],[-85.2901,14.0878,211.047],[-85.2891,14.0897,222.3655],[-85.2898,14.1064,244.5285],[-85.288,14.1116,210.4017],[-85.2739,14.116,201.2097],[-85.2717,14.1182,202.7495],[-85.271,14.1224,212.0514],[-85.2608,14.1283,195.5056],[-85.2573,14.1377,209.7256],[-85.2593,14.1436,225.3419],[-85.2585,14.1476,216.139],[-85.2458,14.1514,189.7863],[-85.2447,14.1568,197.8371],[-85.2532,14.1677,344.0611],[-85.2521,14.1706,242.2789],[-85.2432,14.1745,189.4283],[-85.2332,14.1753,189.1121],[-85.2213,14.1861,201.9318],[-85.202,14.1974,191.8016],[-85.1982,14.2028,203.7066],[-85.1965,14.2166,215.5728],[-85.1899,14.2189,222.6492],[-85.1831,14.228,264.1865],[-85.1702,14.2296,187.662],[-85.1656,14.2338,216.6739],[-85.1635,14.2388,202.0952],[-85.1683,14.2441,214.6033],[-85.1683,14.2469,197.5308],[-85.1606,14.2497,201.3677],[-85.1572,14.255,185.567],[-85.1585,14.269,177.9447],[-85.1512,14.292,180.2479],[-85.1531,14.297,158.5893],[-85.1575,14.3009,235.6708],[-85.164,14.3008,197.9595],[-85.1602,14.2983,206.2594],[-85.1579,14.2935,158.0402],[-85.1836,14.2506,156.3591],[-85.1869,14.2476,175.7221],[-85.1921,14.2481,174.3609],[-85.1972,14.2571,176.0311],[-85.2104,14.2529,163.4233],[-85.2217,14.2566,170.7731],[-85.2286,14.2532,164.1789],[-85.2324,14.2532,158.5096],[-85.2467,14.2578,182.5835],[-85.2784,14.2574,189.0943],[-85.2859,14.2547,229.5747],[-85.2929,14.2492,186.5455],[-85.2967,14.2488,185.5544],[-85.3074,14.2545,175.8427],[-85.3174,14.2546,165.3082],[-85.3284,14.2473,234.7372],[-85.3387,14.2446,203.3696],[-85.3415,14.2323,173.3802],[-85.3492,14.2254,207.249],[-85.3521,14.218,257.0578],[-85.3574,14.2139,232.78],[-85.3644,14.2135,174.4525],[-85.3679,14.2154,185.0152],[-85.3706,14.2248,173.4043],[-85.3796,14.2229,188.2165],[-85.3818,14.2171,175.7421],[-85.3752,14.2113,171.5],[-85.3748,14.2088,178.2369],[-85.377,14.2029,210.4801],[-85.3759,14.195,195.6309],[-85.3811,14.1886,254.359],[-85.3777,14.1797,190.9494],[-85.3794,14.1755,204.9694],[-85.4,14.156,199.7867],[-85.3964,14.1412,199.1262],[-85.3969,14.1362,187.1052],[-85.4031,14.1323,199.6194],[-85.4052,14.1287,185.6331],[-85.4053,14.1248,195.8383],[-85.4147,14.1207,185.7007],[-85.4178,14.1155,210.0357],[-85.4249,14.1151,214.7969],[-85.4283,14.1061,204.0314],[-85.4365,14.1074,203.0544],[-85.4427,14.1042,243.9377],[-85.4506,14.113,205.5296],[-85.456,14.1121,196.0905],[-85.4584,14.1053,214.9514],[-85.4653,14.1035,301.0813],[-85.4674,14.1008,341.5549],[-85.4699,14.0918,263.2444],[-85.4786,14.0931,195.0838],[-85.4786,14.0859,204.7225],[-85.4815,14.0809,326.0077],[-85.4927,14.0934,236.9225],[-85.4949,14.078,225.5589],[-85.5006,14.079,277.1653],[-85.5052,14.0864,217.9656],[-85.509,14.0816,230.5392],[-85.5125,14.0621,237.8436],[-85.5196,14.0603,218.4367],[-85.523,14.0464,230.5607],[-85.5331,14.0483,219.874],[-85.5411,14.047,212.541],[-85.5564,14.0482,335.6945],[-85.5619,14.0521,209.2992],[-85.5625,14.0559,290.2263],[-85.56,14.0617,241.6593],[-85.5614,14.0652,211.838],[-85.5765,14.0624,267.496],[-85.5823,14.0457,360.2196],[-85.5879,14.0421,215.0353],[-85.5953,14.0429,314.5034],[-85.5973,14.0413,318.9169],[-85.5984,14.0369,239.9887],[-85.6079,14.0254,223.4699],[-85.6132,14.0226,248.4532],[-85.6218,14.0213,221.3813],[-85.6321,14.0112,227.3529],[-85.6534,14.0149,326.3074],[-85.6616,14.0127,239.2029],[-85.6637,14.0107,223.4314],[-85.665,13.9949,230.8937],[-85.6676,13.9902,241.7289],[-85.6742,13.9836,227.0889],[-85.6825,13.9784,313.5876],[-85.6994,13.9863,381.8621],[-85.7062,13.9884,299.0568],[-85.7125,13.988,234.7973],[-85.7196,13.9842,233.8916],[-85.7332,13.9696,234.4713],[-85.7412,13.9655,349.1606],[-85.7539,13.9649,249.9538],[-85.7591,13.9583,385.0542],[-85.7579,13.913,265.0264],[-85.7606,13.8954,264.9411],[-85.7652,13.8816,363.4992],[-85.7643,13.8793,396.3982],[-85.7502,13.8732,325.8441],[-85.7397,13.8621,355.0191],[-85.7388,13.8543,280.3872],[-85.7437,13.8398,254.665],[-85.7486,13.8351,337.6185],[-85.7555,13.8319,297.1585],[-85.7632,13.8421,339.6544],[-85.7709,13.8447,466.9554],[-85.7775,13.8443,399.516],[-85.7912,13.8393,427.8258],[-85.8112,13.8402,648.6923],[-85.8182,13.8432,457.8962],[-85.8223,13.8517,333.6087],[-85.8248,13.8527,407.1556]]]]}}