{"type":"Feature","properties":{"GID_2":"NIC.3.1_1","GID_0":"NIC","country":"Nicaragua","GID_1":"NIC.3_1","province":"Boaco","NL_NAME_1":"NA","county":"Boaco","VARNAME_2":"NA","NL_NAME_2":"NA","TYPE_2":"Municipio","ENGTYPE_2":"Municipality","CC_2":"NA","HASC_2":"NI.BO.BO","name":"Boaco.county"},
"geometry":{"type": "MultiPolygon","coordinates": [[[[-85.6642,12.5496,793.2733],[-85.6654,12.5373,740.3427],[-85.6717,12.5124,734.0144],[-85.6863,12.4851,515.0012],[-85.6937,12.4779,572.4528],[-85.6386,12.3776,410.6124],[-85.6079,12.3866,537.849],[-85.5947,12.4069,546.3239],[-85.5847,12.419,606.5544],[-85.5711,12.4286,925.0155],[-85.5517,12.4365,748.9028],[-85.4942,12.4463,478.356],[-85.4689,12.4522,468.2046],[-85.4519,12.4581,433.6983],[-85.4426,12.4656,385.8931],[-85.4383,12.476,418.1493],[-85.4297,12.4852,501.4509],[-85.4135,12.489,415.3147],[-85.3903,12.5048,425.3105],[-85.3534,12.5129,567.1237],[-85.3489,12.5157,478.4633],[-85.3455,12.522,347.12],[-85.3363,12.5246,298.3784],[-85.3251,12.5131,273.1929],[-85.3113,12.5131,243.4989],[-85.3019,12.5196,235.1527],[-85.2919,12.5334,241.4056],[-85.274,12.5489,270.639],[-85.248,12.5681,269.3291],[-85.2147,12.5889,277.4646],[-85.2175,12.5919,228.9087],[-85.231,12.6184,187.7588],[-85.2433,12.6311,267.9196],[-85.2469,12.6317,264.3022],[-85.2526,12.6225,238.60059999999999],[-85.2606,12.6245,231.72559999999999],[-85.2736,12.6238,249.1437],[-85.277,12.6259,252.9563],[-85.2766,12.63,288.8018],[-85.2706,12.6365,283.9487],[-85.269,12.6413,265.5286],[-85.272,12.6461,277.0533],[-85.2752,12.6479,311.1397],[-85.2804,12.6475,261.1267],[-85.2976,12.6504,400.9523],[-85.3093,12.6544,298.0584],[-85.3171,12.6658,220.8898],[-85.3212,12.6674,224.2103],[-85.3438,12.6698,220.9033],[-85.3504,12.6617,236.6809],[-85.3538,12.6609,245.6734],[-85.3582,12.6684,259.1024],[-85.362799999999993,12.6838,227.65],[-85.3782,12.6898,264.9361],[-85.3976,12.7022,351.6556],[-85.409,12.6994,329.8085],[-85.4202,12.6865,330.6791],[-85.4337,12.6814,339.5719],[-85.4457,12.6666,369.4196],[-85.4542,12.6689,303.4644],[-85.4703,12.6824,274.6208],[-85.4861,12.6845,371.446],[-85.4988,12.6882,297.3128],[-85.5114,12.6798,309.8549],[-85.5157,12.6795,281.4805],[-85.5229,12.6829,264.3824],[-85.5279,12.6827,248.4776],[-85.541,12.6798,293.9167],[-85.5481,12.6764,281.8616],[-85.5531,12.6707,289.6418],[-85.5599,12.6531,398.6656],[-85.5638,12.65,462.554],[-85.5838,12.65,330.0163],[-85.5929,12.6449,512.7357],[-85.5962,12.6395,446.4013],[-85.6006,12.6402,488.6237],[-85.6071,12.6442,641.6652],[-85.6114,12.6429,503.1932],[-85.6173,12.6381,555.5084],[-85.6279,12.6359,412.6625],[-85.6287,12.6273,424.9097],[-85.6642,12.5496,793.2733]]]]}}