{"type":"Feature","properties":{"GID_2":"NIC.17.1_1","GID_0":"NIC","country":"Nicaragua","GID_1":"NIC.17_1","province":"RíoSanJuan","NL_NAME_1":"NA","county":"ElAlmendro","VARNAME_2":"NA","NL_NAME_2":"NA","TYPE_2":"Municipio","ENGTYPE_2":"Municipality","CC_2":"NA","HASC_2":"NI.SJ.EA","name":"El_Almendro.county"},
"geometry":{"type": "MultiPolygon","coordinates": [[[[-84.61,11.8462,144.2768],[-84.6439,11.8473,121.0237],[-84.6635,11.8505,110.1175],[-84.6721,11.8527,116.9577],[-84.6783,11.8562,116.9256],[-84.6865,11.8575,122.006],[-84.7068,11.8543,142.2064],[-84.716,11.8573,154.3553],[-84.7376,11.8582,149.8248],[-84.7679,11.8476,171.3454],[-84.782,11.8491,176.4701],[-84.8055,11.8444,135.007],[-84.82,11.8388,132.1911],[-84.8681,11.8116,83.9209],[-84.8796,11.8073,81.0274],[-84.8478,11.7637,177.6858],[-84.8298,11.7428,125.2066],[-84.8219,11.7275,122.6601],[-84.822,11.7223,125.4492],[-84.8322,11.7149,93.4408],[-84.8354,11.7106,90.3196],[-84.8409,11.6911,98.024],[-84.8582,11.6746,85.5817],[-84.8657,11.6596,189.1925],[-84.865,11.6525,180.3849],[-84.8619,11.6453,126.6741],[-84.8449,11.6215,94.4538],[-84.84,11.6109,71.2116],[-84.8314,11.599,66.4247],[-84.8326,11.5831,69.3262],[-84.8304,11.5773,106.7005],[-84.8261,11.5735,68.5852],[-84.8317,11.5545,48.3932],[-84.8093,11.5411,55.0686],[-84.8014,11.5433,95.8671],[-84.7902,11.5496,56.2972],[-84.7636,11.5524,91.3132],[-84.7506,11.556,109.5124],[-84.7319,11.5522,134.3459],[-84.7116,11.5537,109.0318],[-84.7003,11.5476,139.411],[-84.6931,11.5457,148.9175],[-84.6623,11.5426,108.1282],[-84.6549,11.5439,106.8307],[-84.621,11.5607,146.2384],[-84.6101,11.563,214.1796],[-84.5697,11.5593,199.339],[-84.561,11.5842,322.9],[-84.5398,11.6172,281.0993],[-84.5378,11.6383,243.8796],[-84.5425,11.6505,243.1959],[-84.5671,11.6809,204.2688],[-84.5706,11.6901,199.1145],[-84.5713,11.7003,196.3995],[-84.5699,11.7091,215.6828],[-84.56,11.7385,207.8543],[-84.5601,11.7483,201.2958],[-84.562,11.7515,197.4927],[-84.5662,11.7534,213.046],[-84.5785,11.7524,207.8466],[-84.5833,11.7582,192.2387],[-84.6015,11.808,234.6444],[-84.61,11.8462,144.2768]]]]}}