{"type": "Feature","bbox": [-86.7377,12.9561,-86.4635,13.1158],"geometry": {"type": "MultiPolygon","coordinates": [[[[-86.6698,12.9561,121.3875],[-86.6634,12.9618,147.1185],[-86.641,12.975,112.2893],[-86.6331,12.9745,133.5502],[-86.6321,12.9762,134.2249],[-86.6336,12.9828,141.6456],[-86.6315,12.9843,133.9012],[-86.6267,12.9823,141.3996],[-86.6244,12.983,167.2712],[-86.6252,12.9875,137.7927],[-86.6239,12.9907,140.0011],[-86.604,12.9997,240.7169],[-86.5956,12.9993,249.2225],[-86.5834,12.9954,209.3506],[-86.5781,12.9915,216.7248],[-86.5732,12.9842,236.268],[-86.5628,12.9868,243.0477],[-86.559,12.9862,241.8959],[-86.546,12.9791,334.0257],[-86.5419,12.9787,383.1476],[-86.5388,12.9814,344.4819],[-86.5337,12.9801,375.8527],[-86.5314,12.9838,341.5027],[-86.5252,12.981,356.0521],[-86.5193,12.9812,353.851],[-86.5187,12.9869,425.7462],[-86.5227,12.9987,523.297],[-86.5269,13.0058,602.3247],[-86.5272,13.0129,632.4851],[-86.5247,13.014099999999999,554.5325],[-86.5153,13.0093,421.8727],[-86.5075,13.0136,429.2604],[-86.5008,13.0114,551.9517],[-86.4986,13.0121,494.0879],[-86.4971,13.0221,468.6276],[-86.4828,13.0384,451.8665],[-86.4822,13.0458,513.3824],[-86.4842,13.0593,498.5205],[-86.4831,13.0634,496.2258],[-86.4702,13.0824,594.9953],[-86.4635,13.0957,792.4167],[-86.4764,13.108,1037.0139],[-86.4854,13.1107,1209.4495],[-86.51,13.1114,1042.5334],[-86.5407,13.1158,780.9191],[-86.5728,13.1103,659.0896],[-86.5938,13.1035,660.1992],[-86.627,13.0825,404.2444],[-86.6372,13.0781,426.2034],[-86.6468,13.0764,335.6487],[-86.6576,13.077,240.8188],[-86.6618,13.0788,231.0898],[-86.6819,13.0942,160.0865],[-86.6926,13.0982,156.3884],[-86.7116,13.0998,170.5473],[-86.7285,13.095,166.8973],[-86.7377,13.0955,167.4102],[-86.7346,13.0905,153.5888],[-86.7309,13.0734,171.763],[-86.719,13.0546,231.8783],[-86.718,13.0333,246.567],[-86.7148,13.0221,284.356],[-86.6979,13.0046,168.9159],[-86.6881,12.9861,191.4626],[-86.6731,12.9644,121.5762],[-86.6698,12.9561,121.3875]]]]}
,"properties": {"GID_2": "NIC.11.1_1","GID_0": "NIC","country": "Nicaragua","GID_1": "NIC.11_1","province": "León","NL_NAME_1": "NA","county": "Achuapa","VARNAME_2": "NA","NL_NAME_2": "NA","TYPE_2": "Municipio","ENGTYPE_2": "Municipality","CC_2": "NA","HASC_2": "NI.LE.AC","name": "Achuapa.county","area_km2": 317.5074,"hist_schema_id": "Elevation0-9000","hist_area_km2": {"75": 0.0207,"100": 0.7024,"125": 3.8839,"150": 6.1351,"175": 8.4481,"200": 11.3812,"225": 14.9345,"250": 16.959,"275": 15.6784,"300": 29.4343,"325": 24.6421,"350": 17.7434,"375": 14.8721,"400": 12.9304,"425": 10.8854,"450": 10.4929,"475": 8.985,"500": 6.5269,"525": 7.6629,"550": 7.3737,"575": 7.7866,"600": 12.9085,"625": 11.4626,"650": 8.6331,"675": 6.8982,"700": 5.0393,"725": 3.7795,"750": 3.449,"775": 3.3869,"800": 3.4075,"825": 2.726,"850": 2.1684,"875": 1.7553,"900": 1.3836,"925": 1.2597,"950": 1.3217,"975": 1.3423,"1000": 1.363,"1025": 1.1977,"1050": 1.0738,"1075": 1.4042,"1100": 0.8467,"1125": 0.7641,"1150": 0.6195,"1175": 0.5576,"1200": 0.4543,"1225": 0.3097,"1250": 0.2065,"1275": 0.1652,"1300": 0.0826,"1325": 0.0206,"1350": 0.0413}}}