{"type":"Feature","properties":{"GID_2":"NIC.9.1_1","GID_0":"NIC","country":"Nicaragua","GID_1":"NIC.9_1","province":"Jinotega","NL_NAME_1":"NA","county":"ElCuá","VARNAME_2":"ElCu","NL_NAME_2":"NA","TYPE_2":"Municipio","ENGTYPE_2":"Municipality","CC_2":"NA","HASC_2":"NI.JI.EC","name":"El_Cuá.county"},
"geometry":{"type": "MultiPolygon","coordinates": [[[[-85.164,14.3008,197.9595],[-85.1552,14.2997,186.6093],[-85.1512,14.292,180.2479],[-85.1585,14.269,177.9447],[-85.1572,14.255,185.567],[-85.1583,14.2518,179.8581],[-85.1683,14.2469,197.5308],[-85.1683,14.2441,214.6033],[-85.1635,14.2388,202.0952],[-85.1656,14.2338,216.6739],[-85.1702,14.2296,187.662],[-85.1831,14.228,264.1865],[-85.1899,14.2189,222.6492],[-85.1965,14.2166,215.5728],[-85.1982,14.2028,203.7066],[-85.202,14.1974,191.8016],[-85.2213,14.1861,201.9318],[-85.2332,14.1753,189.1121],[-85.2432,14.1745,189.4283],[-85.2521,14.1706,242.2789],[-85.2532,14.1677,344.0611],[-85.2447,14.1568,197.8371],[-85.2458,14.1514,189.7863],[-85.2585,14.1476,216.139],[-85.2593,14.1436,225.3419],[-85.2573,14.1377,209.7256],[-85.2608,14.1283,195.5056],[-85.271,14.1224,212.0514],[-85.2717,14.1182,202.7495],[-85.2739,14.116,201.2097],[-85.288,14.1116,210.4017],[-85.2898,14.1064,244.5285],[-85.2891,14.0897,222.3655],[-85.2901,14.0878,211.047],[-85.2946,14.0887,227.2739],[-85.2956,14.0918,241.9248],[-85.2988,14.0913,260.6915],[-85.3039,14.0741,245.1761],[-85.321,14.0529,244.7309],[-85.3353,14.0253,225.3089],[-85.339,14.029,312.1453],[-85.341,14.0295,319.4394],[-85.3428,14.0279,420.6499],[-85.3441,14.0182,363.9236],[-85.3489,14.0133,390.7957],[-85.3495,14.01,336.6263],[-85.3415,13.9984,213.1622],[-85.3402,13.9841,199.1854],[-85.3498,13.983,195.5117],[-85.3467,13.9733,199.5664],[-85.3551,13.9722,203.6949],[-85.3572,13.9698,202.8746],[-85.3585,13.9654,202.0983],[-85.355,13.9593,218.0102],[-85.3552,13.9569,216.2983],[-85.3573,13.9555,198.7405],[-85.3617,13.9569,200.9459],[-85.3607,13.9488,207.4261],[-85.3684,13.9417,209.5536],[-85.371,13.9321,209.3106],[-85.3751,13.9277,210.3661],[-85.3764,13.9246,203.528],[-85.3756,13.9162,218.6155],[-85.3781,13.909,222.3429],[-85.3813,13.9057,221.1106],[-85.3908,13.9048,228.0437],[-85.394,13.8987,224.3994],[-85.3926,13.8943,227.606],[-85.3838,13.8821,235.7681],[-85.384,13.8758,231.3842],[-85.3867,13.8721,239.4322],[-85.386,13.8669,232.389],[-85.3777,13.8547,241.6481],[-85.3697,13.8356,258.3607],[-85.3722,13.8312,241.0147],[-85.3804,13.8287,292.9058],[-85.3829,13.8245,272.808],[-85.3814,13.8146,238.7807],[-85.383,13.8104,238.6916],[-85.3892,13.8095,230.1877],[-85.3916,13.807,239.7187],[-85.3889,13.8002,309.8244],[-85.3891,13.7972,289.6698],[-85.3942,13.7911,235.3313],[-85.3907,13.7832,343.9359],[-85.393,13.7779,245.4973],[-85.4042,13.7748,251.1953],[-85.4133,13.7797,242.859],[-85.4195,13.779,249.6636],[-85.4274,13.7762,271.3055],[-85.4326,13.7693,280.5736],[-85.4429,13.7651,286.3918],[-85.4581,13.7648,290.0492],[-85.4632,13.7667,295.6836],[-85.4683,13.772,304.8111],[-85.4703,13.7725,311.8916],[-85.4735,13.7706,415.8286],[-85.4834,13.7571,333.2879],[-85.4837,13.7418,378.9028],[-85.4856,13.7381,405.6904],[-85.4924,13.7343,380.5654],[-85.4955,13.7288,433.3488],[-85.5019,13.7015,410.0564],[-85.5062,13.696,417.3231],[-85.5155,13.6932,571.9196],[-85.5178,13.6882,513.3948],[-85.5227,13.669,438.9041],[-85.5221,13.6622,384.4068],[-85.5182,13.6518,377.2216],[-85.5243,13.6492,499.3615],[-85.539,13.649,351.7715],[-85.5661,13.6566,595.5862],[-85.5773,13.658,778.9276],[-85.5871,13.6563,750.132],[-85.5958,13.6508,748.1652],[-85.6187,13.6266,733.7893],[-85.6329,13.614,786.9473],[-85.6651,13.6002,1111.4001],[-85.6896,13.5824,1552.4242],[-85.7066,13.5655,1495.0525],[-85.7118,13.5622,1602.3101],[-85.7207,13.5575,1574.9369],[-85.7442,13.5549,970.9241],[-85.7599,13.5485,560.8288],[-85.7762,13.5308,403.749],[-85.7814,13.5138,357.9995],[-85.7873,13.5057,317.6647],[-85.792,13.5026,383.267],[-85.7826,13.497,316.9969],[-85.78,13.4917,321.3942],[-85.775,13.4871,329.7126],[-85.7736,13.4803,335.6513],[-85.7671,13.4757,344.3139],[-85.7638,13.4658,335.1453],[-85.7715,13.4537,389.2431],[-85.7715,13.4451,538.9677],[-85.7776,13.4408,418.2189],[-85.7781,13.4385,386.5566],[-85.7759,13.4325,600.4318],[-85.7778,13.4288,538.6957],[-85.7834,13.4274,416.5661],[-85.7858,13.4116,412.2446],[-85.7876,13.4099,439.9709],[-85.79,13.4101,429.9457],[-85.7947,13.4131,407.9807],[-85.797,13.4087,393.6351],[-85.8,13.3854,454.2872],[-85.8037,13.3808,418.4347],[-85.8033,13.3653,683.2251],[-85.8094,13.3534,781.4487],[-85.8155,13.3482,650.5013],[-85.8178,13.3438,593.8766],[-85.8136,13.3359,569.3479],[-85.8129,13.3297,600.1725],[-85.8142,13.3252,730.6133],[-85.8183,13.3199,628.361],[-85.8185,13.315,558.4074],[-85.8164,13.3085,683.7646],[-85.8104,13.3039,857.41],[-85.7943,13.3023,634.0845],[-85.788,13.3002,599.6603],[-85.7847,13.2968,589.4404],[-85.774,13.2753,749.1406],[-85.7614,13.2616,748.4238],[-85.754,13.2554,780.2366],[-85.7478,13.2525,761.6938],[-85.7412,13.2454,789.4391],[-85.7293,13.24,902.3899],[-85.7196,13.2395,1012.2439],[-85.6987,13.2453,1142.2981],[-85.681,13.2547,1591.573],[-85.672,13.2553,1631.9023],[-85.6609,13.2529,1476.9131],[-85.6548,13.2661,1149.1731],[-85.6288,13.3111,914.9672],[-85.6216,13.3161,878.3896],[-85.6097,13.3213,878.5192],[-85.5685,13.327,885.5143],[-85.5598,13.3312,1104.7952],[-85.5462,13.3442,925.0558],[-85.512,13.3706,745.1694],[-85.5074,13.3722,774.9229],[-85.5113,13.3791,787.5073],[-85.5132,13.3869,758.6139],[-85.5126,13.3998,886.7061],[-85.5061,13.4108,874.5219],[-85.4972,13.4199,866.0759],[-85.4713,13.4367,978.222],[-85.4405,13.4634,852.6743],[-85.4243,13.4676,1025.2762],[-85.4093,13.4751,1067.7599],[-85.3987,13.4934,630.3554],[-85.3978,13.4987,486.0639],[-85.4002,13.5122,609.5167],[-85.3998,13.5187,569.5029],[-85.3882,13.5443,475.2971],[-85.385,13.5545,442.3729],[-85.3838,13.5674,327.2907],[-85.3887,13.5791,329.079],[-85.4066,13.5929,482.9009],[-85.4165,13.6056,328.5334],[-85.4179,13.6118,406.8231],[-85.4155,13.6208,486.5905],[-85.4126,13.6253,565.4425],[-85.3885,13.6394,697.4283],[-85.3819,13.6469,618.7847],[-85.37,13.7017,633.6048],[-85.2931,13.7034,644.6985],[-85.1557,13.7908,529.0583],[-85.0575,13.7431,1184.234],[-84.8507,14.0707,304.5639],[-84.8635,14.1291,678.8593],[-84.8246,14.324,415.715],[-84.9023,14.3295,345.3619],[-84.9394,14.3294,233.3556],[-84.9429,14.3308,249.0065],[-84.948,14.343,205.1922],[-84.951,14.3449,214.3074],[-84.956,14.343,212.375],[-84.9585,14.3449,217.2542],[-84.9617,14.3491,204.1012],[-84.9657,14.3613,192.7756],[-84.9681,14.3635,211.8596],[-84.9758,14.3651,210.8711],[-84.9786,14.3685,184.5096],[-84.9814,14.3807,186.7157],[-84.984,14.3847,244.0792],[-84.9947,14.3905,197.2473],[-84.9975,14.3967,196.5064],[-84.9958,14.4028,164.3155],[-84.9915,14.4053,188.9731],[-84.9869,14.405,187.493],[-84.981,14.4086,185.7729],[-84.9795,14.4112,211.5053],[-84.981,14.4215,161.4819],[-84.98,14.4382,178.009],[-84.9858,14.4459,149.7527],[-84.9824,14.4526,175.3837],[-84.982,14.4602,156.1877],[-84.9777,14.4614,172.1357],[-84.9751,14.4665,169.0187],[-84.9689,14.4696,167.0814],[-84.9672,14.4725,184.9936],[-84.9664,14.4825,159.5765],[-84.9765,14.4988,177.7322],[-84.9918,14.5006,184.7528],[-84.9997,14.5118,159.578],[-85.0058,14.5171,170.3095],[-85.0054,14.5207,158.6558],[-85.0007,14.5253,139.8066],[-84.9994,14.5306,142.4231],[-85.007,14.5369,179.815],[-85.0068,14.544,194.5546],[-85.0001,14.5563,143.2167],[-84.9987,14.5671,143.8858],[-84.9924,14.5751,138.9521],[-84.9899,14.5818,143.338],[-84.9935,14.5922,143.5652],[-85.0096,14.5994,120.7013],[-85.0149,14.6067,138.1167],[-85.0278,14.606,157.8334],[-85.0252,14.602,118.7175],[-85.0451,14.5723,118.8836],[-85.0603,14.5651,123.0806],[-85.0655,14.5567,170.4678],[-85.0689,14.5542,141.3726],[-85.0762,14.5559,127.7932],[-85.0814,14.5553,155.9297],[-85.0897,14.5491,138.9098],[-85.0946,14.5499,132.8495],[-85.1035,14.5583,143.497],[-85.1139,14.5742,137.3866],[-85.1226,14.5766,169.6775],[-85.1266,14.5801,143.6808],[-85.1297,14.5797,143.4659],[-85.1376,14.5712,176.9578],[-85.1489,14.5702,144.491],[-85.151,14.5666,127.1478],[-85.1406,14.5481,141.5935],[-85.1443,14.5379,129.1955],[-85.1394,14.5276,144.222],[-85.1376,14.5172,152.887],[-85.139,14.5126,147.7193],[-85.1452,14.5062,146.2359],[-85.1507,14.4893,151.0903],[-85.1558,14.4829,133.9924],[-85.1724,14.4694,181.0446],[-85.1783,14.461,151.7798],[-85.1877,14.4294,170.8332],[-85.1954,14.4189,148.6482],[-85.1977,14.4091,160.9759],[-85.2033,14.402,147.848],[-85.2067,14.3896,152.7239],[-85.2138,14.3788,160.1895],[-85.2228,14.3725,162.2722],[-85.2255,14.3668,215.4601],[-85.2241,14.3631,184.1382],[-85.2197,14.3594,194.6599],[-85.2098,14.3588,166.9569],[-85.2039,14.3565,190.2927],[-85.2018,14.3525,169.4093],[-85.2013,14.3364,177.2679],[-85.1987,14.333,172.2352],[-85.1943,14.3311,168.4065],[-85.1903,14.3253,176.4811],[-85.1832,14.3284,163.2078],[-85.1811,14.328,167.8783],[-85.1795,14.322,165.0433],[-85.1803,14.3135,160.3459],[-85.1783,14.3059,186.9748],[-85.1764,14.3033,180.4665],[-85.164,14.3008,197.9595]]]]}}