{"type":"Feature","properties":{"GID_2":"NIC.1.4_1","GID_0":"NIC","country":"Nicaragua","GID_1":"NIC.1_1","province":"AtlánticoNorte","NL_NAME_1":"NA","county":"Rosita","VARNAME_2":"NA","NL_NAME_2":"NA","TYPE_2":"Municipio","ENGTYPE_2":"Municipality","CC_2":"NA","HASC_2":"NI.AN.RO","name":"Rosita.county"},
"geometry":{"type": "MultiPolygon","coordinates": [[[[-84.5076,13.858,179.862],[-84.5001,13.8511,134.2479],[-84.4965,13.845,153.3811],[-84.4768,13.8034,113.5849],[-84.459,13.763,164.5658],[-84.4245,13.673,41.6867],[-84.4294,13.6649,44.2664],[-84.4477,13.6481,38.895],[-84.4859,13.6077,44.6029],[-84.5491,13.5372,37.7191],[-84.5309,13.5393,54.4245],[-84.5207,13.5282,42.9439],[-84.5154,13.5251,40.3476],[-84.5055,13.5263,36.7109],[-84.4856,13.5235,34.0283],[-84.4794,13.5211,38.4274],[-84.4742,13.5171,42.5955],[-84.4725,13.5132,37.8059],[-84.4726,13.5094,37.7229],[-84.4768,13.4993,30.9],[-84.4762,13.4945,35.751],[-84.4554,13.4821,30.4494],[-84.4455,13.4732,27.3946],[-84.4352,13.4705,38.2444],[-84.4299,13.4612,37.8338],[-84.4226,13.4562,35.6959],[-84.4143,13.4472,39.16],[-84.3908,13.437,28.7452],[-84.3803,13.4421,28.2256],[-84.3734,13.4429,31.6975],[-84.3624,13.4365,21.3939],[-84.3556,13.4356,37.4853],[-84.3506,13.4306,35.5452],[-84.3639,13.6422,42.212],[-84.3364,13.658,37.994],[-84.2855,13.6798,24.0479],[-84.2164,13.7207,22.9897],[-84.1614,13.744,17.3566],[-84.1432,13.7533,18.8136],[-84.1302,13.7619,29.4889],[-84.0979,13.7903,27.4284],[-84.0747,13.8077,23.5533],[-83.9691,13.8711,33.9067],[-83.9395,13.8949,24.2897],[-83.9106,13.9133,23.3766],[-83.9109,13.9062,20.3357],[-83.9094,13.9032,22.0067],[-83.9046,13.9012,20.7566],[-83.8997,13.9017,22.7111],[-83.8603,13.9595,43.6481],[-83.8333,13.9907,71.2172],[-83.8103,14.0237,76.6162],[-83.7647,14.0813,81.7715],[-83.7434,14.1161,43.9408],[-83.7351,14.1547,31.0713],[-83.7304,14.1689,26.5194],[-83.7309,14.1855,30.7518],[-83.7347,14.2009,40.5527],[-83.7419,14.2099,34.7934],[-83.7516,14.2185,30.0514],[-83.7578,14.2383,26.9155],[-83.7625,14.2423,29.7453],[-83.8147,14.2585,48.5488],[-83.8278,14.2671,50.3602],[-83.8371,14.2753,64.7315],[-83.8409,14.2809,33.6203],[-83.8402,14.2843,32.2826],[-83.8359,14.2869,31.8357],[-83.836,14.2933,35.1376],[-83.8274,14.3015,61.4338],[-83.8313,14.3099,75.6433],[-83.8307,14.3129,80.1913],[-83.8267,14.3159,44.9582],[-83.8125,14.3185,23.292],[-83.8062,14.3233,25.4562],[-83.8045,14.3373,41.3886],[-83.8149,14.3907,45.4293],[-83.8154,14.4023,57.5917],[-83.8289,14.3947,64.9452],[-83.9017,14.392,62.1852],[-83.907,14.3897,57.9327],[-83.9105,14.3909,61.7221],[-83.9223,14.39,56.1447],[-83.9306,14.3882,48.0705],[-83.9353,14.3805,42.4069],[-83.9378,14.381,43.4544],[-83.9406,14.3856,54.6081],[-83.9428,14.3865,55.3878],[-83.9484,14.3808,46.8638],[-83.9599,14.3782,49.8667],[-83.9614,14.3805,57.8773],[-83.96,14.3825,58.7448],[-83.9609,14.3846,56.3878],[-83.9714,14.3761,51.5059],[-84.0084,14.3751,48.916],[-84.0179,14.3707,46.9907],[-84.0203,14.3714,50.4353],[-84.0218,14.3763,50.3304],[-84.0238,14.3773,49.9505],[-84.0311,14.3733,50.0906],[-84.0344,14.3745,46.6813],[-84.0439,14.3885,64.0278],[-84.0483,14.3931,63.5557],[-84.0567,14.3972,53.4544],[-84.0589,14.4022,57.1369],[-84.0621,14.4042,60.4495],[-84.0642,14.4038,64.3956],[-84.068,14.3997,53.9673],[-84.0706,14.4006,49.5551],[-84.0791,14.4101,57.1854],[-84.0944,14.4186,53.8237],[-84.0997,14.4194,57.0575],[-84.1055,14.4319,59.2837],[-84.1101,14.4354,56.8027],[-84.1153,14.4357,53.1168],[-84.1202,14.4321,57.171],[-84.1288,14.4303,55.502],[-84.1342,14.4271,54.2063],[-84.1384,14.4273,55.7214],[-84.1425,14.437,66.1421],[-84.1494,14.4397,65.4274],[-84.1551,14.4464,54.8745],[-84.1588,14.4478,66.9495],[-84.1604,14.4457,69.1071],[-84.16,14.4374,58.0008],[-84.1623,14.4347,62.2885],[-84.1688,14.4332,67.6535],[-84.1817,14.4342,64.6889],[-84.1846,14.4318,64.7061],[-84.1854,14.4239,86.4675],[-84.1786,14.3973,73.1125],[-84.1841,14.3839,85.1797],[-84.1802,14.3712,81.9535],[-84.1822,14.3684,84.6617],[-84.1953,14.3625,85.1816],[-84.2569,14.3575,122.1508],[-84.3335,14.249,520.4619],[-84.4026,14.0139,335.3227],[-84.406,14.0065,107.264],[-84.4105,14.0027,104.4271],[-84.4186,13.9974,150.4532],[-84.43,13.9928,109.867],[-84.4428,13.99,127.9989],[-84.4696,13.988,230.9477],[-84.472,13.9781,144.5802],[-84.4812,13.9628,160.0014],[-84.4811,13.9593,188.6028],[-84.4696,13.9371,62.61],[-84.4652,13.9337,76.4611],[-84.4543,13.9298,48.6523],[-84.4487,13.9247,48.556399999999996],[-84.4482,13.9224,50.392],[-84.4494,13.9207,50.5329],[-84.4581,13.9213,50.359],[-84.4612,13.9199,52.722],[-84.4638,13.9172,63.2548],[-84.4634,13.9093,48.2809],[-84.4652,13.9078,57.0085],[-84.4723,13.9085,60.9228],[-84.4793,13.9116,50.7026],[-84.4838,13.9097,63.4108],[-84.4794,13.905,45.2058],[-84.4805,13.9025,46.8096],[-84.485,13.9012,45.7986],[-84.4845,13.8977,64.6568],[-84.4787,13.8924,71.48],[-84.479,13.8875,83.0262],[-84.5004,13.8776,60.458],[-84.5037,13.8715,157.6126],[-84.5054,13.8604,282.6368],[-84.5076,13.858,179.862]]]]}}