{"type":"Feature","properties":{"GID_2":"NIC.5.2_1","GID_0":"NIC","country":"Nicaragua","GID_1":"NIC.5_1","province":"Chinandega","NL_NAME_1":"NA","county":"Chinandega","VARNAME_2":"NA","NL_NAME_2":"NA","TYPE_2":"Municipio","ENGTYPE_2":"Municipality","CC_2":"NA","HASC_2":"NI.CI.CN","name":"Chinandega.county"},
"geometry":{"type": "MultiPolygon","coordinates": [[[[-86.939,12.6604,677.1929],[-86.9301,12.6637,671.6442],[-86.9147,12.666,651.1518],[-86.881,12.6662,129.4321],[-86.8725,12.6749,90.3217],[-86.8658,12.6777,76.124],[-86.85,12.6805,54.9617],[-86.8466,12.6826,51.706],[-86.8352,12.6954,30.3639],[-86.8226,12.7024,25.6643],[-86.8185,12.7086,23.6547],[-86.8172,12.7149,25.1465],[-86.818,12.7198,25.2478],[-86.8198,12.7256,30.4693],[-86.8233,12.7295,26.4719],[-86.8243,12.7454,16.3284],[-86.8274,12.7516,21.3434],[-86.8411,12.7614,12.0133],[-86.8469,12.7745,10.9197],[-86.8565,12.7842,13.4581],[-86.8694,12.7847,9.1238],[-86.8827,12.7888,11.3153],[-86.9052,12.8028,6.9706],[-86.9393,12.8056,5.1724],[-86.961,12.8104,11.0091],[-86.9663,12.816,10.0147],[-86.9734,12.8315,5.9656],[-86.9762,12.8346,2.922],[-86.9828,12.8355,2.9002],[-86.9893,12.831,3.4925],[-86.9951,12.8299,3.849],[-87.0149,12.8324,6.4233],[-87.0382,12.8329,4.921],[-87.0557,12.849,6.5964],[-87.0581,12.8649,2.2649],[-87.0629,12.8657,3.9663],[-87.0709,12.8638,2.3159],[-87.0752,12.8677,6.6981],[-87.0776,12.8669,10.3049],[-87.0843,12.8691,2.6353],[-87.0942,12.8686,2.1878],[-87.102,12.8708,1.5245],[-87.1106,12.8707,1.659],[-87.1131,12.8673,1.5],[-87.1121,12.8577,2.8602],[-87.1139,12.8499,7.7564],[-87.1234,12.8372,1.0],[-87.1297,12.8121,6.2901],[-87.1285,12.7971,54.5644],[-87.1221,12.7621,37.9169],[-87.1231,12.7369,70.5401],[-87.1289,12.7159,82.9377],[-87.1414,12.689,74.5377],[-87.1452,12.6728,71.9923],[-87.1525,12.6615,62.7264],[-87.1658,12.652,47.7796],[-87.2007,12.6348,24.1914],[-87.2073,12.6279,20.7978],[-87.2046,12.6177,18.3825],[-87.2007,12.6101,20.4482],[-87.1922,12.6066,22.0048],[-87.1694,12.6017,28.1493],[-87.1587,12.5963,32.828],[-87.1524,12.5873,28.4471],[-87.1254,12.5303,17.1383],[-87.1213,12.5313,16.9662],[-87.0992,12.5455,24.5059],[-87.083,12.5466,32.6183],[-87.0719,12.5505,36.5844],[-87.0531,12.5645,56.3636],[-87.0378,12.6011,116.0062],[-87.0303,12.6082,138.7081],[-87.0136,12.6137,174.553],[-86.9872,12.6424,339.464],[-86.9736,12.6541,436.4709],[-86.9543,12.6763,915.4838],[-86.9464,12.6698,700.1039],[-86.939,12.6604,677.1929]]]]}}