{"type": "Feature","bbox": [-87.1177,12.2004,-86.6755,12.5354],"geometry": {"type": "MultiPolygon","coordinates": [[[[-87.0966,12.4561,3.8241],[-87.0978,12.4574,3.5772],[-87.1165,12.4504,0.0],[-87.1151,12.449,0.0],[-87.1129,12.4496,1.2017],[-87.1118,12.4468,0.0],[-87.109,12.4471,7.47],[-87.1079,12.4437,0.0],[-87.1049,12.4429,2.8686],[-87.1029,12.4338,0.971],[-87.0896,12.4257,3.6054],[-87.0876,12.4174,0.0],[-87.0949,12.4282,0.0],[-87.1012,12.4301,0.0],[-87.1004,12.4282,0.0],[-87.1015,12.4282,3.422],[-87.0912,12.4205,4.8183],[-87.087,12.4105,6.5855],[-87.0521,12.3846,0.0],[-87.0504,12.3843,2.7046],[-87.051,12.3865,2.3898],[-87.0493,12.3874,1.5709],[-87.0499,12.3854,2.7046],[-87.046,12.3826,5.6178],[-87.0457,12.3799,0.0],[-87.0374,12.3729,1.2365],[-87.0365,12.3696,0.5848],[-87.0315,12.3671,1.4997],[-87.0276,12.3624,0.0],[-87.0204,12.3574,2.4461],[-87.0185,12.3596,3.8258],[-87.0154,12.3585,0.744],[-87.0146,12.3596,2.5832],[-87.0149,12.3568,0.7731],[-87.0126,12.354,3.8747],[-87.0146,12.3554,0.8817],[-87.0157,12.3546,0.7795],[-87.0079,12.3485,0.0],[-86.9776,12.3304,5.8648],[-86.9737,12.3257,0.0],[-86.9654,12.3226,4.0415],[-86.9604,12.3176,3.9241],[-86.9374,12.3035,0.0],[-86.914,12.2915,1.098],[-86.8812,12.2718,0.0],[-86.8799,12.2724,0.0],[-86.8793,12.2771,0.8503],[-86.8771,12.269,0.0],[-86.8485,12.2515,1.0706],[-86.8465,12.2487,0.0],[-86.8349,12.2432,2.5934],[-86.8085,12.2268,2.7041],[-86.784,12.2085,4.3872],[-86.7799,12.2046,5.2677],[-86.7801,12.2018,0.1775],[-86.7782,12.2004,0.0],[-86.7776,12.2021,7.7327],[-86.7743,12.201,5.7552],[-86.7748,12.2022,6.6548],[-86.7718,12.2043,0.8826],[-86.7718,12.207,2.2192],[-86.7796,12.2212,2.3246],[-86.7851,12.2235,2.2087],[-86.7921,12.2232,4.1674],[-86.794,12.2257,2.4759],[-86.7988,12.2218,6.4433],[-86.8049,12.2262,5.8406],[-86.8035,12.2268,2.9941],[-86.7985,12.2226,2.0],[-86.794,12.2287,1.8877],[-86.7918,12.2249,2.0],[-86.7851,12.2249,1.8576],[-86.7785,12.2224,1.9047],[-86.7748,12.2162,1.9242],[-86.7698,12.2276,0.9801],[-86.7819,12.2509,8.4713],[-86.7819,12.2815,20.3133],[-86.7885,12.2979,25.0052],[-86.7936,12.3167,36.1243],[-86.794,12.3282,45.8466],[-86.7823,12.3495,62.8457],[-86.7716,12.3612,83.3186],[-86.7629,12.3646,88.9608],[-86.7476,12.3623,98.5662],[-86.7397,12.4072,175.2745],[-86.7074,12.4413,266.0625],[-86.6755,12.4689,489.5973],[-86.6819,12.4859,870.5274],[-86.6923,12.5037,597.9212],[-86.7087,12.5218,474.9929],[-86.7247,12.5354,245.8721],[-86.7456,12.5182,257.1819],[-86.7636,12.5095,246.4984],[-86.8153,12.5017,174.343],[-86.8408,12.4961,145.9655],[-86.8626,12.4874,122.4813],[-86.8818,12.476,96.9182],[-86.8901,12.4733,91.3994],[-86.902,12.4742,82.16],[-86.915,12.4956,85.8385],[-86.9222,12.5007,79.6138],[-86.9315,12.5036,74.0097],[-86.9428,12.5028,66.9813],[-86.962,12.4989,55.9759],[-86.9827,12.4895,42.5994],[-86.9927,12.4871,39.5189],[-87.0043,12.4875,34.401],[-87.0086,12.4897,31.9891],[-87.0357,12.479,22.6109],[-87.0532,12.4631,16.0991],[-87.0647,12.458,17.7588],[-87.0893,12.4547,5.5622],[-87.0954,12.4548,4.0305],[-87.0966,12.4561,3.8241]]],
[[[-87.1174,12.4503,0.0],[-87.1177,12.4502,1.0607],[-87.1174,12.4501,0.0],[-87.1174,12.4503,0.0]]]]}
,"properties": {"GID_2": "NIC.11.6_1","GID_0": "NIC","country": "Nicaragua","GID_1": "NIC.11_1","province": "León","NL_NAME_1": "NA","county": "León","VARNAME_2": "NA","NL_NAME_2": "NA","TYPE_2": "Municipio","ENGTYPE_2": "Municipality","CC_2": "NA","HASC_2": "NI.LE.LE","name": "León.county","area_km2": 807.826,"hist_schema_id": "Elevation0-9000","hist_area_km2": {"0": 132.2753,"25": 150.3258,"50": 114.8885,"75": 96.2691,"100": 72.0203,"125": 47.976,"150": 36.7513,"175": 31.0977,"200": 23.6441,"225": 20.4966,"250": 19.5848,"275": 16.9131,"300": 10.9716,"325": 7.9491,"350": 6.0033,"375": 4.2851,"400": 3.395,"425": 2.3185,"450": 1.7182,"475": 1.4905,"500": 1.3869,"525": 0.9729,"550": 0.621,"575": 0.7038,"600": 0.4968,"625": 0.3933,"650": 0.414,"675": 0.414,"700": 0.2484,"725": 0.3726,"750": 0.2898,"775": 0.2898,"800": 0.3933,"825": 0.2277,"850": 0.0828,"875": 0.0621,"900": 0.0207,"925": 0.0207,"975": 0.0207,"1000": 0.0207}}}