{"type":"Feature","properties":{"GID_2":"NIC.16.5_1","GID_0":"NIC","country":"Nicaragua","GID_1":"NIC.16_1","province":"NuevaSegovia","NL_NAME_1":"NA","county":"Macuelizo","VARNAME_2":"NA","NL_NAME_2":"NA","TYPE_2":"Municipio","ENGTYPE_2":"Municipality","CC_2":"NA","HASC_2":"NI.NS.MA","name":"Macuelizo.county"},
"geometry":{"type": "MultiPolygon","coordinates": [[[[-86.6472,13.7782,910.9709],[-86.6429,13.7577,1135.4467],[-86.6459,13.729,1171.4824],[-86.6486,13.7187,1074.3547],[-86.6529,13.7108,1085.6292],[-86.6604,13.703,1175.194],[-86.6785,13.6957,974.4434],[-86.6799,13.6935,981.437],[-86.6774,13.685,1061.4047],[-86.6787,13.6762,852.3285],[-86.6835,13.6714,658.3394],[-86.7005,13.6615,537.8838],[-86.7057,13.6523,498.935],[-86.6731,13.6503,789.192],[-86.646,13.641,1216.8125],[-86.6416,13.6384,1329.5933],[-86.634,13.6299,1056.7056],[-86.6321,13.6024,1168.5312],[-86.6246,13.5931,854.4047],[-86.5971,13.5795,674.9843],[-86.5909,13.5789,719.279],[-86.5849,13.582,714.5063],[-86.5826,13.5816,793.8618],[-86.5714,13.5711,609.531],[-86.5593,13.5738,569.9098],[-86.5621,13.5834,680.0482],[-86.5644,13.6159,863.345],[-86.5605,13.644,726.2231],[-86.5616,13.6658,989.0614],[-86.553,13.6685,893.8955],[-86.5304,13.6712,1011.4297],[-86.529,13.6817,1013.8488],[-86.5304,13.7018,1298.3429],[-86.5351,13.717,1249.1313],[-86.5517,13.7435,1157.2112],[-86.5557,13.753,1168.8287],[-86.5537,13.7745,1143.1572],[-86.5476,13.8004,1429.127],[-86.5608,13.8007,1404.6553],[-86.5652,13.7989,1346.4384],[-86.5703,13.7919,1242.05],[-86.5771,13.7887,1304.1323],[-86.605,13.7818,1163.6108],[-86.6111,13.7811,1078.0247],[-86.6315,13.7835,1079.3873],[-86.6416,13.7786,973.1105],[-86.6472,13.7782,910.9709]]]]}}