{"type":"Feature","properties":{"GID_1":"NIC.10_1","GID_0":"NIC","country":"Nicaragua","province":"LagoNicaragua","VARNAME_1":"NA","NL_NAME_1":"NA","TYPE_1":"Waterbody","ENGTYPE_1":"Waterbody","CC_1":"NA","HASC_1":"lake","ISO_1":"NA","name":"Lago_Nicaragua.province"},
"geometry":{"type": "MultiPolygon","coordinates": [[[[-85.1877,11.0476,35.2449],[-85.1866,11.0556,36.5886],[-85.193,11.0817,33.9783],[-85.1837,11.0859,33.8189],[-85.1796,11.0929,32.7115],[-85.1743,11.0914,33.891],[-85.1685,11.0863,32.4865],[-85.1557,11.084,33.0967],[-85.1447,11.0719,33.3693],[-85.1367,11.0681,33.0739],[-85.1222,11.0697,33.8234],[-85.1158,11.0734,33.4382],[-85.1046,11.0686,38.3203],[-85.0778,11.0693,34.825],[-85.0738,11.0657,32.6737],[-85.0705,11.056,32.7762],[-85.0581,11.0565,33.7158],[-85.0508,11.0508,34.2294],[-85.0191,11.0531,33.5257],[-85.0098,11.0559,34.5258],[-85.0057,11.0543,34.3993],[-85.0041,11.0518,33.8103],[-85.0047,11.0426,34.298],[-85.0033,11.0379,34.8691],[-84.9972,11.0331,32.8554],[-84.9841,11.0336,32.4355],[-84.9554,11.0431,33.5613],[-84.9512,11.0426,33.0921],[-84.9485,11.0413,33.0628],[-84.9364,11.0265,36.0694],[-84.9324,11.018,38.6682],[-84.9258,11.0153,39.231],[-84.9184,11.0151,38.9037],[-84.9065,11.0181,34.113],[-84.8737,11.0339,32.3345],[-84.8693,11.0346,32.3395],[-84.8463,11.0319,35.8894],[-84.8415,11.0329,35.2132],[-84.8269,11.0414,32.8848],[-84.8176,11.0531,31.0],[-84.8033,11.0614,32.4531],[-84.793,11.059,32.916],[-84.7864,11.0604,33.9419],[-84.7882,11.0626,32.614],[-84.7969,11.0665,31.9609],[-84.7874,11.0865,31.0],[-84.7849,11.0956,31.0],[-84.7929,11.1107,31.0],[-84.7967,11.1112,31.0],[-84.8009,11.1155,31.0],[-84.8044,11.1301,31.0],[-84.8029,11.1531,31.0],[-84.8052,11.1621,31.0],[-84.8041,11.171,31.0],[-84.8067,11.186,31.0],[-84.8059,11.1909,31.0],[-84.8018,11.1967,31.0],[-84.8024,11.1996,31.0],[-84.8068,11.2042,31.0],[-84.8066,11.2066,31.0],[-84.8018,11.2116,31.0],[-84.8,11.2182,31.0],[-84.8072,11.222,31.0],[-84.8098,11.2262,31.0],[-84.8186,11.273,31.0],[-84.8366,11.2828,31.0],[-84.8496,11.2847,31.0],[-84.8638,11.2986,31.0],[-84.88,11.3029,31.0],[-84.8828,11.3053,31.0],[-84.8828,11.3096,31.0],[-84.8743,11.3115,31.0],[-84.8737,11.3164,31.0],[-84.878,11.3293,31.0],[-84.8967,11.3402,31.0],[-84.9062,11.3407,31.0],[-84.9086,11.3505,31.0],[-84.9128,11.3564,31.0],[-84.9137,11.3614,31.0],[-84.9119,11.3658,31.0],[-84.9158,11.3801,31.0],[-84.9178,11.3991,31.0],[-84.9178,11.4022,31.0],[-84.9131,11.4099,31.0],[-84.9199,11.4242,31.0],[-84.9225,11.427,31.0],[-84.9252,11.4272,31.0],[-84.9342,11.419,31.0],[-84.9366,11.4121,31.0],[-84.9398,11.4087,31.0],[-84.9427,11.4075,31.0],[-84.9451,11.409,31.0],[-84.9573,11.426,31.0],[-84.9573,11.435,31.0],[-84.9666,11.4464,31.0],[-84.9674,11.4497,31.0],[-84.9651,11.4595,31.0],[-84.972,11.4606,31.0],[-84.9802,11.4722,31.0],[-85.0025,11.4896,31.0],[-85.0284,11.5287,31.0],[-85.0364,11.5322,31.0],[-85.0446,11.5425,31.0],[-85.058,11.5481,31.0],[-85.0663,11.5601,31.0],[-85.07,11.5798,31.0],[-85.0894,11.6016,31.0],[-85.0918,11.6106,31.0],[-85.0952,11.6153,31.0],[-85.1024,11.6176,31.0],[-85.1095,11.6177,31.0],[-85.1105,11.6295,31.0],[-85.1147,11.6247,31.0],[-85.1133,11.6153,31.0],[-85.1164,11.6153,31.0],[-85.1203,11.6233,31.0],[-85.126,11.646,31.0],[-85.1295,11.6523,31.0],[-85.1357,11.6574,31.0],[-85.1507,11.6641,31.0],[-85.1508,11.6838,31.0],[-85.1628,11.6981,31.0],[-85.1673,11.7001,31.0],[-85.171,11.6982,31.0],[-85.1719,11.6951,31.0],[-85.1744,11.6944,31.0],[-85.1792,11.7014,31.0],[-85.1839,11.7026,31.0],[-85.1856,11.7054,31.0],[-85.1825,11.7107,31.0],[-85.1835,11.7139,31.0],[-85.1921,11.7212,31.0],[-85.1945,11.7349,31.0],[-85.2018,11.7447,31.0],[-85.2106,11.7508,31.0],[-85.2169,11.7526,35.5708],[-85.2297,11.7512,31.0],[-85.2354,11.7522,31.4902],[-85.2513,11.7638,31.0],[-85.2708,11.7686,31.0],[-85.2929,11.792,31.0],[-85.3071,11.8102,31.0],[-85.3139,11.8229,31.0],[-85.3285,11.8376,31.0],[-85.3342,11.8421,31.0],[-85.3436,11.8451,31.0],[-85.3545,11.8522,31.0],[-85.3709,11.8651,31.0],[-85.4023,11.8679,31.0],[-85.4208,11.8772,31.0],[-85.4284,11.8786,31.0],[-85.4321,11.8766,31.0],[-85.4347,11.8654,31.0],[-85.438,11.8629,31.0],[-85.4482,11.869,31.0],[-85.4608,11.8813,31.0],[-85.4705,11.8801,31.0],[-85.4733,11.8811,31.0],[-85.4827,11.8907,31.0],[-85.5128,11.9416,31.0],[-85.5303,11.9673,31.0],[-85.5458,11.982,31.0],[-85.5656,12.0064,31.0],[-85.5807,12.0178,31.0],[-85.5927,12.0241,31.0],[-85.6077,12.026,31.0],[-85.6261,12.0168,31.0],[-85.6305,12.0159,31.0],[-85.6397,12.0178,31.0],[-85.6466,12.0125,31.0],[-85.6613,12.0218,31.0],[-85.6597,12.0237,31.0],[-85.6531,12.0254,31.0],[-85.6517,12.0285,31.0],[-85.6527,12.0304,31.0],[-85.6632,12.0331,31.0],[-85.6671,12.0366,31.0],[-85.6933,12.0428,31.0],[-85.6954,12.0445,31.0],[-85.7045,12.0601,31.0],[-85.7049,12.0691,31.0],[-85.7229,12.0657,31.0],[-85.7437,12.0703,31.0],[-85.7607,12.0794,31.0],[-85.7741,12.096,31.0],[-85.7775,12.0976,31.0],[-85.7796,12.0964,31.0],[-85.7804,12.0906,31.0],[-85.784,12.0894,31.0],[-85.786,12.0934,31.0],[-85.789,12.0931,31.0],[-85.7919,12.09,31.0],[-85.8004,12.0895,31.0],[-85.8086,12.0847,31.0],[-85.8101,12.0805,31.0],[-85.8142,12.0802,31.0],[-85.8198,12.0845,31.0],[-85.8218,12.0822,31.0],[-85.8179,12.0759,31.0],[-85.8226,12.0707,31.0],[-85.8367,12.0652,31.0],[-85.8434,12.0651,31.0],[-85.8588,12.0679,31.0],[-85.8641,12.0704,31.0],[-85.8677,12.075,31.0],[-85.8674,12.0828,31.0],[-85.8839,12.0992,34.6569],[-85.927,12.0962,33.8954],[-85.9536,12.0983,32.5858],[-85.9728,12.1039,31.0],[-85.9919,12.1135,32.2215],[-85.9863,12.107,32.0985],[-85.9874,12.1028,31.0],[-85.9822,12.0942,31.0],[-85.9834,12.0765,32.1915],[-85.9789,12.0734,31.9432],[-85.9663,12.075,32.3995],[-85.9643,12.0731,33.109],[-85.976,12.0621,35.2867],[-85.977,12.0536,36.015],[-85.9749,12.0518,35.74],[-85.9671,12.0532,36.1595],[-85.9565,12.0729,34.1218],[-85.9567,12.0775,33.7867],[-85.9601,12.0849,32.5021],[-85.9599,12.0886,32.5473],[-85.9572,12.0914,32.5685],[-85.937,12.0897,33.9237],[-85.9157,12.0899,33.6513],[-85.9026,12.0923,35.2449],[-85.8937,12.0965,34.7857],[-85.8907,12.0955,34.7001],[-85.8943,12.0902,35.9768],[-85.8938,12.0867,36.7358],[-85.8817,12.0871,31.2579],[-85.8777,12.0841,31.0],[-85.8773,12.0764,31.0],[-85.8839,12.0668,31.0],[-85.8949,12.0443,31.0],[-85.912,12.0196,31.0],[-85.9196,11.9984,31.0],[-85.9356,11.9664,31.0],[-85.9365,11.96,31.0],[-85.9382,11.9194,34.3737],[-85.9336,11.9025,41.8427],[-85.9268,11.8952,31.0],[-85.921,11.8954,31.0],[-85.9196,11.8981,35.482],[-85.9155,11.8982,37.5682],[-85.8991,11.8914,38.224],[-85.8941,11.8863,33.3705],[-85.8871,11.8706,31.0],[-85.8877,11.8659,31.0],[-85.89,11.8638,31.0],[-85.8955,11.8647,32.691],[-85.9063,11.8758,31.0],[-85.9179,11.8813,31.0],[-85.9201,11.8819,31.0],[-85.9234,11.8799,31.0],[-85.925,11.8756,73.652],[-85.925,11.8662,73.8483],[-85.9221,11.8608,89.5794],[-85.9215,11.8501,157.3801],[-85.9187,11.8477,154.614],[-85.9157,11.8513,113.4275],[-85.9104,11.8473,102.3259],[-85.8994,11.8262,31.0],[-85.8951,11.8079,191.426],[-85.8858,11.797,31.0],[-85.8859,11.7913,31.0],[-85.883,11.7847,31.0],[-85.883,11.7827,31.0],[-85.8902,11.7774,89.537],[-85.8918,11.7741,57.4995],[-85.8849,11.7535,31.0],[-85.8859,11.7459,31.0],[-85.8924,11.7403,31.0],[-85.8968,11.7309,31.0],[-85.905,11.7332,31.0],[-85.907,11.7323,31.0],[-85.9088,11.7277,31.0],[-85.9229,11.7178,39.6453],[-85.9233,11.7156,43.6905],[-85.9175,11.707,33.4707],[-85.9205,11.6972,39.0608],[-85.9172,11.6899,59.9241],[-85.9105,11.681,43.5784],[-85.8991,11.679,31.726],[-85.8977,11.6761,53.7167],[-85.9013,11.6712,80.7769],[-85.9004,11.6671,73.9133],[-85.8856,11.655,34.4615],[-85.8749,11.6399,35.4725],[-85.8716,11.6394,36.0831],[-85.8701,11.6415,36.7825],[-85.8716,11.646,34.6817],[-85.8783,11.6556,41.8905],[-85.8826,11.6845,31.0],[-85.8797,11.6849,32.0169],[-85.8758,11.6808,32.1839],[-85.8686,11.6774,35.1591],[-85.8639,11.6366,39.1062],[-85.8551,11.6001,32.1233],[-85.8394,11.5544,40.1499],[-85.8333,11.5426,34.6653],[-85.8163,11.5207,38.2153],[-85.7962,11.4901,37.2939],[-85.793,11.477,35.9563],[-85.7926,11.4563,46.4803],[-85.7834,11.424,37.1403],[-85.7809,11.4042,41.0067],[-85.7709,11.3866,43.1443],[-85.7648,11.3689,41.9855],[-85.7539,11.3544,41.3175],[-85.7489,11.3442,48.0643],[-85.7293,11.323,56.4953],[-85.7124,11.3159,36.7891],[-85.7063,11.3062,41.8179],[-85.7017,11.3023,42.2451],[-85.6926,11.2899,48.7886],[-85.6762,11.2648,57.2025],[-85.6593,11.2523,66.4516],[-85.6347,11.227,78.4266],[-85.6249,11.2256,59.5401],[-85.6217,11.1998,74.6019],[-85.6098,11.2198,38.8993],[-85.5604,11.21,243.9097],[-85.5223,11.1676,130.012],[-85.424,11.129,72.4717],[-85.3575,11.1263,46.1073],[-85.2286,11.0631,40.1526],[-85.1877,11.0476,35.2449]],
[[-85.2127,11.7129,31.0],[-85.213,11.7173,31.0],[-85.2106,11.7184,31.0],[-85.2082,11.7174,31.0],[-85.2078,11.7147,31.0],[-85.2092,11.7132,31.0],[-85.2127,11.7129,31.0]],
[[-85.2159,11.7182,31.0],[-85.2168,11.7158,31.0],[-85.2191,11.7153,31.0],[-85.2221,11.7164,31.0],[-85.2231,11.7193,31.0],[-85.2223,11.7216,31.0],[-85.2179,11.7212,31.0],[-85.2159,11.7182,31.0]],
[[-85.2077,11.7234,31.0],[-85.2075,11.7252,31.0],[-85.2052,11.7263,31.0],[-85.2029,11.7197,31.0],[-85.2047,11.7183,31.0],[-85.2077,11.7234,31.0]],
[[-85.2154,11.727,31.0],[-85.2108,11.7271,31.0],[-85.2107,11.7238,31.0],[-85.2125,11.7216,31.0],[-85.2171,11.726,31.0],[-85.2154,11.727,31.0]],
[[-85.2208,11.7243,31.0],[-85.2227,11.7263,31.0],[-85.2228,11.7296,31.0],[-85.22,11.7299,31.0],[-85.218,11.726,31.0],[-85.2185,11.7245,31.0],[-85.2208,11.7243,31.0]],
[[-85.2173,11.7326,31.0],[-85.2241,11.7346,31.0],[-85.2239,11.7384,31.0],[-85.2206,11.7384,31.0],[-85.2182,11.7362,31.0],[-85.2173,11.7326,31.0]],
[[-85.2152,11.7361,31.9569],[-85.2154,11.7378,31.0],[-85.2136,11.7388,31.0],[-85.2112,11.738,39.848],[-85.2105,11.736,31.0],[-85.212,11.7341,31.0],[-85.215,11.7343,34.0347],[-85.2152,11.7361,31.9569]],
[[-85.2104,11.741,31.0],[-85.2068,11.7434,31.0],[-85.2061,11.7387,31.0],[-85.2084,11.7387,37.9095],[-85.2104,11.741,31.0]],
[[-85.2283,11.7327,31.0],[-85.231,11.729,31.0],[-85.2329,11.7297,31.0],[-85.2354,11.737,31.0],[-85.2419,11.7425,31.0],[-85.2411,11.7472,31.0],[-85.2362,11.7473,31.0],[-85.2339,11.7455,31.4597],[-85.2281,11.7355,31.0],[-85.2283,11.7327,31.0]],
[[-85.2149,11.7458,31.0],[-85.2144,11.749,39.4443],[-85.2105,11.7488,31.0],[-85.211,11.745,31.0],[-85.2149,11.7458,31.0]],
[[-85.612,11.9299,31.0],[-85.6162,11.9295,31.0],[-85.617,11.9337,31.0],[-85.612799999999993,11.9351,31.0],[-85.612,11.9299,31.0]],
[[-85.6145,11.9421,31.0],[-85.6184,11.9411,31.0],[-85.6196,11.9435,31.0],[-85.6188,11.9478,31.0],[-85.6142,11.9481,31.0],[-85.6125,11.946,31.0],[-85.6145,11.9421,31.0]],
[[-85.6167,11.974,31.0],[-85.6082,11.9758,31.0],[-85.6069,11.9728,31.0],[-85.609,11.9667,31.0],[-85.6149,11.9612,31.0],[-85.6172,11.9627,31.0],[-85.6192,11.968,31.0],[-85.6187,11.9727,31.0],[-85.6167,11.974,31.0]],
[[-85.878,12.0625,31.0],[-85.8801,12.0622,31.0],[-85.882,12.0647,31.0],[-85.8781,12.0711,31.0],[-85.8715,12.0732,31.0],[-85.8655,12.0704,31.0],[-85.8659,12.0661,31.0],[-85.878,12.0625,31.0]],
[[-85.9022,11.7135,31.0],[-85.905,11.7147,31.0],[-85.9054,11.7176,31.0],[-85.9016,11.7207,31.0],[-85.8997,11.7196,31.0],[-85.8994,11.7166,31.0],[-85.8998,11.7146,31.0],[-85.9022,11.7135,31.0]],
[[-85.8704,11.6862,35.8175],[-85.8744,11.6871,33.7114],[-85.8773,11.6907,31.0],[-85.8769,11.6984,31.0],[-85.8747,11.7017,31.0],[-85.872,11.7014,31.0],[-85.8693,11.695,118.4105],[-85.8663,11.6945,31.0],[-85.8642,11.6964,31.0],[-85.8645,11.7,31.0],[-85.87,11.709,88.2962],[-85.8822,11.7168,31.0],[-85.8823,11.7188,31.0],[-85.8762,11.7229,31.0],[-85.8756,11.7274,31.0],[-85.8654,11.7375,137.8658],[-85.8677,11.748,64.5255],[-85.8656,11.7491,84.2514],[-85.8594,11.7481,189.9055],[-85.854,11.7534,177.3129],[-85.8507,11.7525,138.185],[-85.8402,11.7433,128.5263],[-85.8189,11.7439,490.9393],[-85.8096,11.7421,358.8434],[-85.808,11.7437,329.0881],[-85.8077,11.7506,152.4007],[-85.8034,11.7507,156.0201],[-85.7992,11.7478,108.4202],[-85.7931,11.7388,86.3218],[-85.7948,11.7286,150.6891],[-85.7933,11.7241,128.0425],[-85.786,11.7131,31.0],[-85.7862,11.7005,31.0],[-85.7884,11.6952,31.0],[-85.7934,11.6916,31.0],[-85.8028,11.6901,31.0],[-85.8381,11.6964,31.0],[-85.8492,11.6963,31.0],[-85.8636,11.6883,31.0],[-85.8704,11.6862,35.8175]],
[[-85.8229,11.7594,58.4379],[-85.8223,11.7545,134.2111],[-85.824,11.7518,179.7604],[-85.8285,11.7579,83.4526],[-85.8256,11.7607,52.2942],[-85.8229,11.7594,58.4379]],
[[-85.8643,11.7602,35.7935],[-85.864,11.7571,38.0269],[-85.8707,11.7577,31.0],[-85.8679,11.7617,31.2933],[-85.8655,11.7619,32.8464],[-85.8643,11.7602,35.7935]],
[[-85.8603,11.7698,54.2277],[-85.8566,11.7744,31.0],[-85.8526,11.7737,33.7005],[-85.8518,11.7694,70.6627],[-85.8531,11.7673,85.6945],[-85.8577,11.7672,41.2851],[-85.8603,11.7698,54.2277]],
[[-85.6446,11.5655,164.0442],[-85.6311,11.5692,179.4765],[-85.6174,11.5688,174.615],[-85.6068,11.576,106.9637],[-85.5914,11.5771,57.5953],[-85.5877,11.5769,63.1694],[-85.5675,11.5611,50.9338],[-85.5644,11.5528,46.9999],[-85.5699,11.5321,72.8713],[-85.5696,11.5241,63.1934],[-85.5667,11.5034,63.1684],[-85.5613,11.4837,33.9135],[-85.556,11.4761,38.3086],[-85.5489,11.4712,138.1884],[-85.5342,11.473,235.1905],[-85.5304,11.4705,257.3485],[-85.5264,11.4701,337.7861],[-85.5151,11.475,285.5075],[-85.5101,11.4755,246.8096],[-85.492,11.4686,329.3766],[-85.4874,11.4716,236.1537],[-85.487,11.4775,143.7009],[-85.485,11.4784,141.2385],[-85.4811,11.4759,160.0193],[-85.4787,11.4709,191.6969],[-85.4771,11.4603,242.8969],[-85.4665,11.4488,123.6363],[-85.4632,11.4355,68.9543],[-85.4619,11.4199,50.359],[-85.463,11.4099,31.0],[-85.4691,11.3965,31.0],[-85.4789,11.3895,31.0],[-85.5077,11.3781,31.0],[-85.5199,11.3773,31.0],[-85.5333,11.38,31.0],[-85.5449,11.3862,31.0],[-85.5538,11.3987,31.0],[-85.5676,11.4103,31.0],[-85.5756,11.4337,31.0],[-85.5751,11.4408,31.0],[-85.5702,11.453,31.0],[-85.575,11.4614,31.0],[-85.5932,11.475,31.0],[-85.6039,11.4788,31.0],[-85.6255,11.4783,31.0],[-85.6267,11.4741,31.0],[-85.626,11.4684,31.0],[-85.6308,11.4676,31.0],[-85.6354,11.4638,31.0],[-85.6414,11.4703,31.0],[-85.6489,11.4714,31.0],[-85.6682,11.4595,31.0],[-85.6774,11.4585,31.0],[-85.7008,11.4717,31.0],[-85.7169,11.4859,31.0],[-85.7188,11.4882,31.0],[-85.719,11.4926,31.0],[-85.7082,11.512,42.3291],[-85.6997,11.5237,55.1556],[-85.7,11.5332,44.7556],[-85.6985,11.538,48.4168],[-85.6894,11.5464,109.6338],[-85.66,11.561,152.0423],[-85.6446,11.5655,164.0442]],
[[-85.1008,11.5309,31.0],[-85.0977,11.5353,45.6197],[-85.0953,11.536,39.7151],[-85.0913,11.5344,31.0],[-85.0903,11.5314,31.0],[-85.0939,11.5275,31.0],[-85.0997,11.5267,31.0],[-85.1008,11.5309,31.0]],
[[-85.5591,11.5303,31.0],[-85.5556,11.5256,31.0],[-85.5568,11.5224,31.0],[-85.5596,11.5224,37.3746],[-85.5615,11.5244,47.1249],[-85.5613,11.5305,35.8372],[-85.5591,11.5303,31.0]],
[[-85.1149,11.5221,31.0],[-85.1111,11.5245,31.0],[-85.1061,11.5246,31.0],[-85.1033,11.5228,31.0],[-85.1032,11.519,31.0],[-85.1047,11.5164,31.0],[-85.1114,11.5139,31.0],[-85.1149,11.5157,31.0],[-85.1149,11.5221,31.0]],
[[-85.0175,11.2007,31.0],[-85.0148,11.2031,31.0],[-85.0141,11.2003,31.0],[-85.0166,11.1985,51.6081],[-85.0175,11.2007,31.0]],
[[-85.0303,11.202,61.0825],[-85.0277,11.201599999999999,64.8008],[-85.0261,11.1989,57.9547],[-85.0322,11.1964,146.4031],[-85.0341,11.1986,93.5902],[-85.0303,11.202,61.0825]],
[[-85.0215,11.1909,94.6889],[-85.0168,11.1955,104.123],[-85.0139,11.193,31.0],[-85.0188,11.186,63.5711],[-85.0212,11.1876,92.4715],[-85.0215,11.1909,94.6889]],
[[-85.0369,11.1919,143.1683],[-85.0332,11.1849,169.7995],[-85.0287,11.1802,121.2069],[-85.0232,11.1801,92.6747],[-85.0203,11.1672,31.0],[-85.0141,11.157,31.0],[-85.0162,11.1544,31.0],[-85.0194,11.1538,31.0],[-85.0324,11.1531,31.0],[-85.0549,11.1373,31.0],[-85.0651,11.1581,31.0],[-85.0574,11.1741,34.6526],[-85.0617,11.1877,31.0],[-85.0575,11.1899,167.6771],[-85.0418,11.1867,33.6795],[-85.0406,11.1914,125.5198],[-85.0369,11.1919,143.1683]],
[[-84.9776,11.1731,52.7061],[-84.9739,11.1748,58.7637],[-84.9708,11.1741,31.0],[-84.9697,11.1717,31.0],[-84.9762,11.1687,44.3003],[-84.9783,11.1694,50.1526],[-84.9791,11.1718,50.7721],[-84.9776,11.1731,52.7061]],
[[-84.9882,11.1704,36.6794],[-84.9864,11.1725,31.0],[-84.9866,11.1534,31.0],[-84.9817,11.1478,31.0],[-84.9854,11.1459,31.0],[-84.994,11.1481,31.0],[-84.999,11.1456,31.0],[-85.0002,11.1476,31.0],[-84.9971,11.1548,31.0],[-84.9999,11.166,31.0],[-84.9969,11.1679,31.0],[-84.9902,11.1684,31.0],[-84.9882,11.1704,36.6794]],
[[-84.9455,11.1516,36.4825],[-84.9471,11.15,31.0],[-84.9488,11.1512,31.0],[-84.9482,11.1553,53.0115],[-84.946,11.155,47.0345],[-84.9455,11.1516,36.4825]],
[[-84.9525,11.1443,31.0],[-84.954,11.1458,31.0],[-84.9534,11.148,31.0],[-84.9514,11.1485,31.0],[-84.9474,11.1425,31.0],[-84.9497,11.1417,31.0],[-84.9525,11.1443,31.0]],
[[-84.9737,11.1445,31.0],[-84.9739,11.1479,31.0],[-84.9711,11.1476,31.0],[-84.9663,11.1433,31.0],[-84.9605,11.1414,31.0],[-84.9568,11.1373,31.0],[-84.9537,11.1367,31.0],[-84.9358,11.1368,57.6593],[-84.9348,11.1344,61.4392],[-84.9391,11.1256,31.0],[-84.9343,11.1217,31.0],[-84.9262,11.1193,31.0],[-84.9269,11.1159,31.0],[-84.9292,11.1137,31.0],[-84.9397,11.1142,31.0],[-84.9685,11.1374,31.0],[-84.9737,11.1445,31.0]],
[[-85.0083,11.1572,31.0],[-85.0035,11.1558,31.0],[-85.0034,11.1522,31.0],[-85.0084,11.1532,31.0],[-85.0083,11.1572,31.0]],
[[-85.0694,11.1746,31.0],[-85.0683,11.1762,31.0],[-85.0662,11.1755,31.0],[-85.0667,11.1687,121.4519],[-85.0712,11.1545,31.0],[-85.0711,11.1417,31.0],[-85.0748,11.1405,31.0],[-85.0809,11.1474,31.0],[-85.0823,11.1525,31.0],[-85.0771,11.161,31.0],[-85.0765,11.1691,31.0],[-85.0717,11.1702,60.6429],[-85.0694,11.1746,31.0]],
[[-84.906,11.0719,31.0],[-84.8999,11.0787,31.0],[-84.8978,11.0771,31.0],[-84.9014,11.0683,31.0],[-84.905,11.0668,31.0],[-84.906,11.0719,31.0]]]]}}