{"type":"Feature","properties":{"GID_2":"NIC.14.5_1","GID_0":"NIC","country":"Nicaragua","GID_1":"NIC.14_1","province":"Masaya","NL_NAME_1":"NA","county":"Nandasmo","VARNAME_2":"NA","NL_NAME_2":"NA","TYPE_2":"Municipio","ENGTYPE_2":"Municipality","CC_2":"NA","HASC_2":"NI.MS.NA","name":"Nandasmo.county"},
"geometry":{"type": "MultiPolygon","coordinates": [[[[-86.1065,11.8806,425.9464],[-86.1017,11.885,429.5937],[-86.0989,11.8939,451.2524],[-86.0933,11.9041,462.5994],[-86.0987,11.8971,450.3189],[-86.1013,11.9153,432.2516],[-86.1118,11.9429,275.3097],[-86.1228,11.9362,326.1551],[-86.1256,11.9096,460.3042],[-86.1263,11.8822,472.6569],[-86.1225,11.8769,451.2912],[-86.117,11.8765,427.1395],[-86.1065,11.8806,425.9464]]]]}}