{"type": "Feature","bbox": [-85.16,11.9502,-84.7718,12.2934],"geometry": {"type": "MultiPolygon","coordinates": [[[[-84.8016,12.2934,277.939],[-84.8171,12.2931,271.6071],[-84.8848,12.2809,369.5732],[-84.8846,12.2652,255.9641],[-84.8972,12.2587,245.0887],[-84.8998,12.254,276.431],[-84.9059,12.2326,255.6515],[-84.9072,12.2209,225.1351],[-84.9087,12.2167,236.1255],[-84.9139,12.2122,267.3362],[-84.9128,12.208,283.2621],[-84.9137,12.2052,251.691],[-84.9189,12.203,262.9641],[-84.9236,12.2039,267.9785],[-84.9279,12.1996,291.0993],[-84.9314,12.1987,342.313],[-84.9488,12.1989,355.1544],[-84.9568,12.1928,338.9772],[-84.9592,12.1825,362.5776],[-84.9555,12.1656,430.9545],[-84.9574,12.158,561.4551],[-84.9717,12.1495,570.0793],[-85.003,12.1389,503.1585],[-85.032,12.1369,376.0297],[-85.0528,12.1233,298.946],[-85.0765,12.1151,367.2399],[-85.083,12.1106,357.483],[-85.0933,12.0981,311.4444],[-85.1044,12.09,359.387],[-85.1244,12.079,402.1678],[-85.1322,12.0765,360.338],[-85.14,12.0619,357.084],[-85.1437,12.0435,357.5476],[-85.1462,12.0198,278.6437],[-85.1547,12.0076,116.6857],[-85.16,11.994,97.7591],[-85.149,11.9927,109.874],[-85.1304,11.9872,158.5656],[-85.1055,11.9771,187.3324],[-85.0603,11.9502,134.4396],[-85.0007,11.9564,360.9158],[-84.9756,11.9616,268.05],[-84.972,11.9638,287.2053],[-84.9745,11.9699,371.3989],[-85.0012,12.0092,279.5101],[-85.0072,12.0235,269.727],[-85.0109,12.0382,341.7912],[-85.0094,12.0437,350.6729],[-84.9705,12.1,308.5375],[-84.9616,12.1038,355.1719],[-84.9186,12.112,399.2047],[-84.8981,12.1129,205.7018],[-84.8776,12.1185,290.3513],[-84.8726,12.123,271.1443],[-84.8698,12.1291,224.9783],[-84.8664,12.1322,277.5165],[-84.8591,12.1351,332.3297],[-84.8505,12.1437,207.9904],[-84.847,12.1448,243.7274],[-84.8359,12.145,212.7533],[-84.8313,12.1473,199.1777],[-84.8273,12.139,225.1638],[-84.8231,12.1387,186.6615],[-84.8199,12.1402,185.077],[-84.8155,12.1459,174.3309],[-84.8122,12.1464,202.5581],[-84.7993,12.1355,229.3282],[-84.7964,12.1353,276.7376],[-84.7873,12.1361,273.2673],[-84.7718,12.1405,370.264],[-84.7751,12.1545,147.4266],[-84.7849,12.1793,213.445],[-84.7877,12.2015,247.1298],[-84.7957,12.2235,359.8258],[-84.7961,12.234,307.5241],[-84.7819,12.2574,222.8917],[-84.7809,12.2623,206.5318],[-84.7849,12.2718,207.6476],[-84.8016,12.2934,277.939]]]]}
,"properties": {"GID_2": "NIC.6.7_1","GID_0": "NIC","country": "Nicaragua","GID_1": "NIC.6_1","province": "Chontales","NL_NAME_1": "NA","county": "SantoTomás","VARNAME_2": "NA","NL_NAME_2": "NA","TYPE_2": "Municipio","ENGTYPE_2": "Municipality","CC_2": "NA","HASC_2": "NI.CO.ST","name": "Santo_Tomás.county","area_km2": 567.9745,"hist_schema_id": "Elevation0-9000","hist_area_km2": {"100": 0.4355,"125": 3.3597,"150": 7.445,"175": 16.9598,"200": 31.5293,"225": 48.7069,"250": 59.7701,"275": 68.7688,"300": 69.1093,"325": 46.7266,"350": 48.6765,"375": 41.8999,"400": 45.1363,"425": 28.4057,"450": 14.9908,"475": 10.4291,"500": 7.8994,"525": 6.8628,"550": 4.9341,"575": 3.9801,"600": 1.389,"625": 0.394,"650": 0.1244,"675": 0.0415}}}