{"type": "Feature","bbox": [-87.2602,12.4979,-87.1255,12.6279],"geometry": {"type": "MultiPolygon","coordinates": [[[[-87.216,12.5351,1.0511],[-87.2157,12.535,1.0511],[-87.2157,12.5351,1.0511],[-87.216,12.5351,1.0511]]],
[[[-87.1255,12.5301,17.1383],[-87.1554,12.5927,27.1856],[-87.1608,12.5979,29.5119],[-87.1694,12.6017,28.1493],[-87.1922,12.6066,22.0048],[-87.2007,12.6101,20.4482],[-87.2046,12.6177,18.3825],[-87.2073,12.6279,20.7978],[-87.2141,12.6259,17.8605],[-87.2251,12.6271,16.6582],[-87.2362,12.6191,13.7513],[-87.2397,12.6137,14.5494],[-87.2472,12.5928,6.8605],[-87.2507,12.5887,8.8615],[-87.2555,12.5865,3.2207],[-87.2565,12.5817,5.7193],[-87.2602,12.5768,7.3851],[-87.2568,12.5705,9.9248],[-87.2459,12.5614,3.8081],[-87.2428,12.5566,2.9718],[-87.2404,12.5559,1.0443],[-87.239,12.5574,4.3146],[-87.2401,12.5558,1.0443],[-87.2355,12.5528,4.0081],[-87.2331,12.5472,3.9484],[-87.2282,12.5416,3.4409],[-87.216,12.5351,1.0511],[-87.2257,12.5493,0.6734],[-87.2243,12.549,4.0928],[-87.2146,12.5385,1.1571],[-87.214,12.5333,0.4747],[-87.2005,12.5168,4.9281],[-87.1905,12.5111,3.4601],[-87.1885,12.5123,0.0],[-87.1957,12.5176,0.0],[-87.1968,12.5199,0.0],[-87.196,12.5254,0.0],[-87.2007,12.5265,0.0],[-87.196,12.5279,0.439],[-87.1926,12.5179,0.0],[-87.1854,12.5104,0.5983],[-87.1821,12.5085,0.0],[-87.1799,12.5099,0.4879],[-87.1712,12.5068,0.0],[-87.1668,12.5026,0.0],[-87.1646,12.5138,1.0331],[-87.1674,12.5182,0.0],[-87.1651,12.5204,0.6698],[-87.1626,12.514,3.6287],[-87.1615,12.5143,3.6287],[-87.1478,12.4979,5.4143],[-87.1405,12.5002,5.2723],[-87.1329,12.5153,2.8473],[-87.1312,12.5217,7.1371],[-87.1255,12.5301,17.1383]]]]}
,"properties": {"GID_2": "NIC.5.5_1","GID_0": "NIC","country": "Nicaragua","GID_1": "NIC.5_1","province": "Chinandega","NL_NAME_1": "NA","county": "ElRealejo","VARNAME_2": "NA","NL_NAME_2": "NA","TYPE_2": "Municipio","ENGTYPE_2": "Municipality","CC_2": "NA","HASC_2": "NI.CI.ER","name": "El_Realejo.county","area_km2": 116.22067,"hist_schema_id": "Elevation0-9000","hist_area_km2": {"0": 61.67373,"25": 54.54694}}}