{"type": "Feature","bbox": [-86.3152,12.9062,-86.1091,13.0817],"geometry": {"type": "MultiPolygon","coordinates": [[[[-86.3152,12.9598,997.1767],[-86.3116,12.9455,1111.6804],[-86.3042,12.9341,1283.5743],[-86.2877,12.9298,1245.7358],[-86.2802,12.9262,1311.6658],[-86.2772,12.9239,1214.0452],[-86.2723,12.9131,1118.5054],[-86.2596,12.9062,1121.6226],[-86.2118,12.9312,509.9771],[-86.2031,12.9338,487.8441],[-86.1842,12.9352,502.4083],[-86.171,12.9392,593.1688],[-86.163,12.9448,516.0759],[-86.1576,12.9521,503.382],[-86.1538,12.9658,724.6349],[-86.1395,12.9956,512.3859],[-86.1402,12.9991,516.5431],[-86.145,13.0044,584.2181],[-86.1449,13.0075,576.9919],[-86.1375,13.0093,504.3593],[-86.1335,13.0124,538.9929],[-86.1267,13.0236,545.6809],[-86.1144,13.0262,647.1611],[-86.1106,13.0306,698.4575],[-86.1091,13.0439,566.8035],[-86.1119,13.0586,712.1465],[-86.1209,13.0656,958.2355],[-86.1448,13.0736,949.2444],[-86.1632,13.0817,816.9824],[-86.1626,13.078,696.0011],[-86.1661,13.0767,680.5112],[-86.1817,13.0731,820.5663],[-86.1931,13.0682,904.2617],[-86.2126,13.0647,883.8661],[-86.2497,13.0519,646.4869],[-86.2681,13.0241,830.0043],[-86.2782,13.0236,1011.1873],[-86.2906,13.0278,1330.2406],[-86.294,13.0233,1350.4039],[-86.3092,12.9738,1204.3811],[-86.3152,12.9598,997.1767]]]]}
,"properties": {"GID_2": "NIC.7.3_1","GID_0": "NIC","country": "Nicaragua","GID_1": "NIC.7_1","province": "Estelí","NL_NAME_1": "NA","county": "LaTrinidad","VARNAME_2": "NA","NL_NAME_2": "NA","TYPE_2": "Municipio","ENGTYPE_2": "Municipality","CC_2": "NA","HASC_2": "NI.ES.LT","name": "La_Trinidad.county","area_km2": 260.842,"hist_schema_id": "Elevation0-9000","hist_area_km2": {"475": 0.31,"500": 3.2646,"525": 7.148,"550": 11.5066,"575": 14.1508,"600": 17.2501,"625": 18.882,"650": 16.1963,"675": 14.5434,"700": 15.8659,"725": 13.3866,"750": 11.3209,"775": 10.5565,"800": 9.4821,"825": 8.5525,"850": 7.9121,"875": 8.6767,"900": 8.1808,"925": 8.718,"950": 8.6559,"975": 7.3133,"1000": 5.7229,"1025": 4.8347,"1050": 5.1034,"1075": 5.579,"1100": 3.9673,"1125": 3.8226,"1150": 3.1614,"1175": 2.025,"1200": 1.7358,"1225": 0.6199,"1250": 1.0125,"1275": 0.8679,"1300": 0.3306,"1325": 0.124,"1350": 0.0413,"1375": 0.0207}}}