{"type": "Feature","bbox": [-86.0684,12.0072,-85.9643,12.1406],"geometry": {"type": "MultiPolygon","coordinates": [[[[-85.9671,12.0532,36.1595],[-85.9749,12.0518,35.74],[-85.977,12.0536,36.015],[-85.9767,12.0591,35.8009],[-85.976,12.0621,35.2867],[-85.9643,12.0731,33.109],[-85.9663,12.075,32.3995],[-85.9789,12.0734,31.9432],[-85.9834,12.0765,32.1915],[-85.9839,12.0828,33.0428],[-85.9818,12.0915,31.0],[-85.9834,12.0972,31.0],[-85.9874,12.1028,31.0],[-85.9863,12.107,32.0985],[-86.0073,12.1312,33.862],[-86.0373,12.1406,37.5234],[-86.0489,12.138,47.304],[-86.0684,12.1262,82.4735],[-86.0653,12.1189,86.0916],[-86.0604,12.0736,135.9654],[-86.0589,12.0372,191.334],[-86.0245,12.0249,115.629],[-85.9773,12.0112,41.7961],[-85.9699,12.0072,40.8343],[-85.9683,12.0119,41.4118],[-85.9686,12.0461,34.8861],[-85.9671,12.0532,36.1595]]]]}
,"properties": {"GID_2": "NIC.14.9_1","GID_0": "NIC","country": "Nicaragua","GID_1": "NIC.14_1","province": "Masaya","NL_NAME_1": "NA","county": "Tisma","VARNAME_2": "NA","NL_NAME_2": "NA","TYPE_2": "Municipio","ENGTYPE_2": "Municipality","CC_2": "NA","HASC_2": "NI.MS.TI","name": "Tisma.county","area_km2": 110.59032,"hist_schema_id": "Elevation0-9000","hist_area_km2": {"25": 23.69589,"50": 44.88778,"75": 16.44132,"100": 13.311,"125": 7.09126,"150": 3.60791,"175": 1.45149,"200": 0.10368}}}