{"type": "Feature","bbox": [-85.8105,13.0367,-85.531,13.2661],"geometry": {"type": "MultiPolygon","coordinates": [[[[-85.6609,13.2529,1476.9131],[-85.6669,13.2422,1324.1304],[-85.6801,13.2261,1080.2645],[-85.7159,13.1943,832.0503],[-85.7365,13.1736,909.6368],[-85.744,13.1638,842.2903],[-85.7561,13.1398,948.1122],[-85.7658,13.1263,637.6498],[-85.7735,13.1215,554.2538],[-85.7952,13.1197,778.4642],[-85.8009,13.1164,829.5801],[-85.8105,13.1072,841.2469],[-85.8028,13.0367,715.1986],[-85.7634,13.0428,411.7424],[-85.7193,13.0389,832.7121],[-85.6864,13.0423,478.1614],[-85.6677,13.046,561.4745],[-85.6558,13.0458,397.5222],[-85.6384,13.0418,576.8351],[-85.5882,13.054,435.3465],[-85.5796,13.0595,341.5518],[-85.5808,13.0674,310.368],[-85.5795,13.0703,335.0137],[-85.5662,13.0769,606.6936],[-85.531,13.0707,349.0406],[-85.533,13.0986,280.4758],[-85.5445,13.1322,413.4804],[-85.5494,13.138,447.1927],[-85.5576,13.1429,684.8917],[-85.5851,13.1444,539.0554],[-85.5915,13.1472,540.7538],[-85.5961,13.1539,477.8517],[-85.5982,13.1632,479.8772],[-85.599,13.1913,598.6711],[-85.6036,13.2013,539.2339],[-85.6364,13.2299,743.0419],[-85.6386,13.2352,777.7996],[-85.6407,13.2518,1100.2786],[-85.6493,13.2623,962.9108],[-85.6548,13.2661,1149.1731],[-85.6609,13.2529,1476.9131]]]]}
,"properties": {"GID_2": "NIC.15.13_1","GID_0": "NIC","country": "Nicaragua","GID_1": "NIC.15_1","province": "Matagalpa","NL_NAME_1": "NA","county": "Tuma-LaDalia","VARNAME_2": "LaDalia","NL_NAME_2": "NA","TYPE_2": "Municipio","ENGTYPE_2": "Municipality","CC_2": "NA","HASC_2": "NI.MT.TD","name": "Tuma-La_Dalia.county","area_km2": 425.2387,"hist_schema_id": "Elevation0-9000","hist_area_km2": {"225": 0.5163,"250": 2.7673,"275": 6.0924,"300": 10.1401,"325": 12.3703,"350": 16.3769,"375": 17.657,"400": 20.238,"425": 21.0017,"450": 22.9014,"475": 21.3316,"500": 22.5289,"525": 23.0854,"550": 22.2389,"575": 20.4217,"600": 18.8317,"625": 17.6135,"650": 17.7164,"675": 16.7246,"700": 15.0932,"725": 13.503,"750": 13.2757,"775": 13.2545,"800": 11.4582,"825": 10.2815,"850": 7.866,"875": 5.9664,"900": 4.8309,"925": 3.8396,"950": 2.8075,"975": 2.0023,"1000": 1.4244,"1025": 1.2797,"1050": 1.0321,"1075": 1.1352,"1100": 0.743,"1125": 0.7843,"1150": 0.5572,"1175": 0.6398,"1200": 0.5572,"1225": 0.4747,"1250": 0.3096,"1275": 0.2889,"1300": 0.227,"1325": 0.1651,"1350": 0.2683,"1375": 0.1032,"1400": 0.0826,"1425": 0.0619,"1450": 0.0619,"1475": 0.1238,"1500": 0.0413,"1525": 0.0826,"1550": 0.0413,"1575": 0.0206}}}