{"type": "Feature","bbox": [-86.1113,11.8288,-86.0697,11.9041],"geometry": {"type": "MultiPolygon","coordinates": [[[[-86.0854,11.8288,272.1503],[-86.0725,11.8711,349.5749],[-86.0697,11.8757,366.3174],[-86.0826,11.8812,398.2877],[-86.0779,11.8889,411.2473],[-86.0933,11.9041,462.5994],[-86.0989,11.8939,451.2524],[-86.1017,11.885,429.5937],[-86.1065,11.8806,425.9464],[-86.1048,11.8733,411.89],[-86.1051,11.8633,382.2159],[-86.1113,11.8417,352.6263],[-86.095,11.8377,301.0451],[-86.0854,11.8288,272.1503]]]]}
,"properties": {"GID_2": "NIC.14.7_1","GID_0": "NIC","country": "Nicaragua","GID_1": "NIC.14_1","province": "Masaya","NL_NAME_1": "NA","county": "Niquinohomo","VARNAME_2": "NA","NL_NAME_2": "NA","TYPE_2": "Municipio","ENGTYPE_2": "Municipality","CC_2": "NA","HASC_2": "NI.MS.NQ","name": "Niquinohomo.county","area_km2": 20.58319,"hist_schema_id": "Elevation0-9000","hist_area_km2": {"250": 0.0415,"275": 0.29052,"300": 2.40711,"325": 3.50679,"350": 4.08768,"375": 3.54807,"400": 2.80102,"425": 2.55195,"450": 1.30706,"475": 0.04149}}}