{"type":"Feature","properties":{"GID_2":"NIC.9.5_1","GID_0":"NIC","country":"Nicaragua","GID_1":"NIC.9_1","province":"Jinotega","NL_NAME_1":"NA","county":"SanSebastiándeYalí","VARNAME_2":"NA","NL_NAME_2":"NA","TYPE_2":"Municipio","ENGTYPE_2":"Municipality","CC_2":"NA","HASC_2":"NI.JI.SS","name":"San_Sebastiánde_Yalí.county"},
"geometry":{"type": "MultiPolygon","coordinates": [[[[-86.2312,13.2545,1173.7803],[-86.2288,13.2472,1369.191],[-86.2302,13.2448,1373.2079],[-86.2402,13.2435,1384.6415],[-86.2448,13.2406,1376.941],[-86.2425,13.2341,1394.2407],[-86.238,13.228,1394.1869],[-86.2387,13.2231,1417.067],[-86.2056,13.2239,1220.6787],[-86.1785,13.2273,1041.074],[-86.1206,13.2254,1115.1836],[-86.1197,13.2365,1257.7504],[-86.1244,13.2576,1310.7769],[-86.1245,13.2677,1457.0356],[-86.1214,13.2728,1565.5435],[-86.1109,13.2809,1408.4587],[-86.0991,13.293,1040.6826],[-86.0921,13.3045,1066.1005],[-86.0904,13.3215,967.9456],[-86.0915,13.3408,892.953],[-86.0882,13.3566,807.5824],[-86.0892,13.3645,784.1736],[-86.0781,13.3826,785.3084],[-86.0773,13.3909,795.8374],[-86.0784,13.4031,714.6467],[-86.0818,13.4093,889.8789],[-86.0904,13.4189,742.0717],[-86.11,13.4352,512.2482],[-86.1124,13.4409,519.8491],[-86.1174,13.436,566.1875],[-86.122,13.4339,500.3522],[-86.1337,13.435,514.4935],[-86.1442,13.4326,668.4267],[-86.1557,13.4349,550.6307],[-86.1798,13.4345,495.7345],[-86.1968,13.4219,659.9028],[-86.2118,13.4008,788.2081],[-86.221,13.385,704.7806],[-86.2218,13.3759,769.1833],[-86.2331,13.363,713.696],[-86.2297,13.3546,779.479],[-86.2355,13.3499,763.0657],[-86.2316,13.3442,748.8482],[-86.2314,13.3402,792.0547],[-86.2399,13.3282,823.2454],[-86.2387,13.3132,904.814],[-86.2322,13.2834,1035.8749],[-86.234,13.2659,987.519],[-86.2312,13.2545,1173.7803]]]]}}