{"type":"Feature","properties":{"GID_2":"NIC.5.10_1","GID_0":"NIC","country":"Nicaragua","GID_1":"NIC.5_1","province":"Chinandega","NL_NAME_1":"NA","county":"SanPedrodelNorte","VARNAME_2":"NA","NL_NAME_2":"NA","TYPE_2":"Municipio","ENGTYPE_2":"Municipality","CC_2":"NA","HASC_2":"NI.CI.SP","name":"San_Pedrodel_Norte.county"},
"geometry":{"type": "MultiPolygon","coordinates": [[[[-86.919,13.1467,89.258],[-86.9141,13.139,76.8995],[-86.9047,13.1323,139.0979],[-86.8955,13.1314,103.2297],[-86.8886,13.1336,111.5964],[-86.8777,13.1452,128.4454],[-86.8683,13.1715,422.3347],[-86.8683,13.1796,308.722],[-86.8707,13.1901,248.3638],[-86.8812,13.2067,287.8575],[-86.8928,13.2139,302.6219],[-86.9121,13.2207,230.9422],[-86.9164,13.2155,165.0097],[-86.9152,13.2091,173.954],[-86.9165,13.203,187.8768],[-86.929,13.1823,142.4279],[-86.9286,13.1707,111.9625],[-86.919,13.1467,89.258]]],
[[[-86.9097,13.2297,230.5795],[-86.911,13.2223,183.6235],[-86.9024,13.2266,241.2135],[-86.8842,13.2406,376.0826],[-86.8733,13.244,485.2314],[-86.8205,13.2412,395.8895],[-86.798,13.2448,533.3069],[-86.7873,13.2529,766.2294],[-86.7791,13.2628,787.8564],[-86.7738,13.2729,849.8468],[-86.7717,13.2756,842.0794],[-86.7704,13.275,868.4916],[-86.7957,13.2936,1228.6923],[-86.8192,13.3063,1409.7878],[-86.8288,13.3054,1180.6006],[-86.8402,13.3001,1252.3186],[-86.86,13.2963,727.1187],[-86.8706,13.2886,575.0774],[-86.8769,13.2749,482.5868],[-86.8988,13.263,331.8148],[-86.9079,13.2563,251.759],[-86.9087,13.2542,264.2302],[-86.9053,13.2463,275.1997],[-86.9097,13.2297,230.5795]]]]}}