{"type":"Feature","properties":{"GID_2":"NIC.12.6_1","GID_0":"NIC","country":"Nicaragua","GID_1":"NIC.12_1","province":"Madriz","NL_NAME_1":"NA","county":"Somoto","VARNAME_2":"NA","NL_NAME_2":"NA","TYPE_2":"Municipio","ENGTYPE_2":"Municipality","CC_2":"NA","HASC_2":"NI.MD.SO","name":"Somoto.county"},
"geometry":{"type": "MultiPolygon","coordinates": [[[[-86.7507,13.5618,1038.2208],[-86.7457,13.5507,1072.6353],[-86.7374,13.4783,882.7208],[-86.7253,13.4519,866.3587],[-86.7232,13.4403,978.152],[-86.7094,13.4432,724.91],[-86.6859,13.4436,812.3076],[-86.6437,13.449,681.2101],[-86.6095,13.4436,738.1021],[-86.5805,13.4325,1034.9905],[-86.549,13.4306,1199.7605],[-86.5407,13.4281,1012.8112],[-86.5241,13.4297,826.8702],[-86.5078,13.4257,737.9838],[-86.5109,13.4405,886.6097],[-86.5085,13.4523,724.8297],[-86.5153,13.4649,760.9359],[-86.522,13.4899,688.1525],[-86.5205,13.5189,1045.7778],[-86.5196,13.5241,927.9709],[-86.5164,13.5277,902.0679],[-86.5248,13.532,762.4429],[-86.5368,13.5421,708.5137],[-86.5522,13.5599,682.8931],[-86.5593,13.5738,569.9098],[-86.5714,13.5711,609.531],[-86.5826,13.5816,793.8618],[-86.5849,13.582,714.5063],[-86.5909,13.5789,719.279],[-86.5971,13.5795,674.9843],[-86.6246,13.5931,854.4047],[-86.6321,13.6024,1168.5312],[-86.634,13.6299,1056.7056],[-86.6416,13.6384,1329.5933],[-86.646,13.641,1216.8125],[-86.6731,13.6503,789.192],[-86.7123,13.6522,534.9236],[-86.7378,13.6567,774.298],[-86.7513,13.6522,781.5868],[-86.7622,13.6452,682.6507],[-86.7527,13.6392,697.3293],[-86.7515,13.6359,648.3293],[-86.7674,13.5841,1049.7516],[-86.7683,13.573,1157.9614],[-86.767,13.5701,1189.0564],[-86.7507,13.5618,1038.2208]]]]}}