{"type": "Feature","bbox": [-85.6084,12.3047,-84.9681,12.7836],"geometry": {"type": "MultiPolygon","coordinates": [[[[-85.1616,12.6259,209.4709],[-85.1659,12.6214,328.4047],[-85.1632,12.6052,246.714],[-85.1644,12.599,293.4094],[-85.17,12.5927,240.9008],[-85.1744,12.5917,216.2676],[-85.1849,12.5947,249.7562],[-85.1961,12.5954,226.256],[-85.2016,12.5944,221.8326],[-85.2101,12.5875,228.8419],[-85.2147,12.5889,277.4646],[-85.248,12.5681,269.3291],[-85.274,12.5489,270.639],[-85.2919,12.5334,241.4056],[-85.3019,12.5196,235.1527],[-85.3113,12.5131,243.4989],[-85.3251,12.5131,273.1929],[-85.3303,12.5172,360.6071],[-85.334,12.5236,297.6912],[-85.3417,12.5238,315.9556],[-85.3455,12.522,347.12],[-85.3489,12.5157,478.4633],[-85.3534,12.5129,567.1237],[-85.3903,12.5048,425.3105],[-85.4135,12.489,415.3147],[-85.4297,12.4852,501.4509],[-85.4383,12.476,418.1493],[-85.4426,12.4656,385.8931],[-85.4519,12.4581,433.6983],[-85.4689,12.4522,468.2046],[-85.4942,12.4463,478.356],[-85.5517,12.4365,748.9028],[-85.5759,12.4261,830.6489],[-85.5924,12.4101,721.1626],[-85.6079,12.3866,537.849],[-85.6084,12.3734,565.166],[-85.6006,12.3561,585.8738],[-85.5621,12.3047,373.8445],[-85.5442,12.3116,201.8729],[-85.5314,12.313,369.4558],[-85.5054,12.3121,456.3829],[-85.488,12.3161,451.1543],[-85.4788,12.3113,461.2888],[-85.4699,12.3089,467.0182],[-85.4523,12.3184,442.2316],[-85.4455,12.3174,476.7638],[-85.4373,12.3087,448.7802],[-85.4318,12.308,495.4422],[-85.4061,12.3102,604.8837],[-85.3429,12.3221,537.0314],[-85.3172,12.3245,369.0549],[-85.3004,12.3374,351.6621],[-85.2927,12.3304,304.6786],[-85.2861,12.3276,340.5051],[-85.2826,12.3282,363.748],[-85.2652,12.3372,359.1906],[-85.248,12.3512,457.3692],[-85.2286,12.3613,335.7328],[-85.2115,12.3787,346.6298],[-85.1971,12.3963,417.3132],[-85.1769,12.4082,396.636],[-85.1424,12.4208,333.7636],[-85.127,12.4092,265.2649],[-85.1201,12.4085,258.4519],[-85.1044,12.4213,267.5427],[-85.0957,12.4244,269.4355],[-85.0777,12.4269,282.4727],[-85.0373,12.4801,372.2401],[-85.0332,12.4915,390.6657],[-85.0332,12.5315,459.4837],[-85.0296,12.5461,385.2543],[-85.0112,12.573,350.8254],[-85.0046,12.5862,436.7919],[-84.9681,12.6448,193.3788],[-84.9796,12.6492,192.9196],[-84.9836,12.6549,192.4692],[-84.9845,12.6673,175.4521],[-84.9826,12.6897,219.625],[-84.9969,12.7328,157.6621],[-85.0013,12.7409,211.1952],[-85.0058,12.7458,181.66],[-85.0201,12.7546,142.3698],[-85.0341,12.7721,230.0487],[-85.0528,12.7826,137.2512],[-85.0584,12.7836,143.7281],[-85.0646,12.7823,136.1604],[-85.0816,12.7722,270.6277],[-85.097,12.7669,332.6288],[-85.1029,12.7595,259.371],[-85.1126,12.7412,175.2804],[-85.1132,12.7377,223.7158],[-85.1105,12.7289,231.9523],[-85.112799999999993,12.7262,266.8995],[-85.1185,12.7257,219.975],[-85.1205,12.7235,203.2428],[-85.1191,12.7178,229.1426],[-85.1115,12.7089,307.1461],[-85.1105,12.7029,346.3698],[-85.1118,12.6989,289.0387],[-85.1185,12.6914,390.9644],[-85.1303,12.6826,364.3793],[-85.1364,12.6697,346.5921],[-85.1448,12.6619,276.8261],[-85.1439,12.6544,287.1288],[-85.1371,12.6376,336.1562],[-85.1379,12.6285,340.0227],[-85.1434,12.6213,233.1684],[-85.1468,12.6208,232.7665],[-85.1533,12.622,177.8951],[-85.1616,12.6259,209.4709]]]]}
,"properties": {"GID_2": "NIC.3.2_1","GID_0": "NIC","country": "Nicaragua","GID_1": "NIC.3_1","province": "Boaco","NL_NAME_1": "NA","county": "Camoapa","VARNAME_2": "NA","NL_NAME_2": "NA","TYPE_2": "Municipio","ENGTYPE_2": "Municipality","CC_2": "NA","HASC_2": "NI.BO.CA","name": "Camoapa.county","area_km2": 1465.538,"hist_schema_id": "Elevation0-9000","hist_area_km2": {"125": 3.991,"150": 19.584,"175": 33.816,"200": 41.334,"225": 53.589,"250": 89.618,"275": 147.081,"300": 150.288,"325": 143.909,"350": 141.168,"375": 125.041,"400": 105.295,"425": 72.931,"450": 53.298,"475": 52.661,"500": 49.017,"525": 50.861,"550": 45.269,"575": 28.516,"600": 15.324,"625": 8.925,"650": 7.413,"675": 5.239,"700": 4.452,"725": 3.976,"750": 2.92,"775": 2.775,"800": 1.76,"825": 1.739,"850": 1.284,"875": 1.015,"900": 0.683,"925": 0.393,"950": 0.186,"975": 0.124,"1025": 0.062}}}