{"type": "Feature","bbox": [-86.3911,13.385,-86.1797,13.5913],"geometry": {"type": "MultiPolygon","coordinates": [[[[-86.221,13.385,704.7806],[-86.1991,13.4193,737.3936],[-86.1798,13.4345,495.7345],[-86.1797,13.4975,1250.193],[-86.1871,13.5106,1198.9933],[-86.2059,13.5284,1209.3657],[-86.2156,13.5347,1300.8702],[-86.2245,13.5383,1195.8519],[-86.2415,13.5418,812.2954],[-86.2523,13.5472,705.1243],[-86.2699,13.5612,649.1606],[-86.287,13.5782,854.1359],[-86.3069,13.5895,718.1868],[-86.317,13.5913,517.4659],[-86.3181,13.5883,662.3728],[-86.3341,13.5807,728.3004],[-86.3426,13.5788,895.7311],[-86.3584,13.5785,1040.1904],[-86.3715,13.5709,843.5026],[-86.3744,13.5704,799.9856],[-86.3779,13.5723,780.6296],[-86.3786,13.568,769.7624],[-86.3911,13.5421,982.2645],[-86.3884,13.5363,1044.4445],[-86.3816,13.5317,897.3288],[-86.3677,13.5164,870.1153],[-86.3635,13.5006,764.8811],[-86.3645,13.4897,646.7366],[-86.3555,13.4848,615.2921],[-86.3182,13.4744,496.6389],[-86.3104,13.4289,868.2817],[-86.3005,13.4313,1063.9197],[-86.2838,13.4315,1039.9917],[-86.253,13.4276,1210.248],[-86.2434,13.4242,1324.0281],[-86.2371,13.4185,1363.1963],[-86.221,13.385,704.7806]]]]}
,"properties": {"GID_2": "NIC.12.7_1","GID_0": "NIC","country": "Nicaragua","GID_1": "NIC.12_1","province": "Madriz","NL_NAME_1": "NA","county": "Telpaneca","VARNAME_2": "NA","NL_NAME_2": "NA","TYPE_2": "Municipio","ENGTYPE_2": "Municipality","CC_2": "NA","HASC_2": "NI.MD.TE","name": "Telpaneca.county","area_km2": 281.2292,"hist_schema_id": "Elevation0-9000","hist_area_km2": {"400": 0.165,"425": 0.9073,"450": 2.701,"475": 7.1539,"500": 8.4114,"525": 10.8647,"550": 11.9366,"575": 14.7814,"600": 15.6884,"625": 15.8326,"650": 14.4923,"675": 14.2447,"700": 14.3891,"725": 13.7502,"750": 12.7402,"775": 12.2456,"800": 11.5244,"825": 11.3184,"850": 9.2361,"875": 8.0615,"900": 6.4327,"925": 6.3297,"950": 6.8454,"975": 5.8969,"1000": 5.464,"1025": 4.7013,"1050": 4.2476,"1075": 3.8352,"1100": 3.5672,"1125": 3.4847,"1150": 3.2373,"1175": 3.8352,"1200": 3.0516,"1225": 2.598,"1250": 2.1032,"1275": 1.299,"1300": 0.9485,"1325": 1.0722,"1350": 0.6392,"1375": 0.4124,"1400": 0.4124,"1425": 0.2681,"1450": 0.0412,"1475": 0.0619}}}