{"type": "Feature","bbox": [-87.009,12.5054,-86.881,12.6662],"geometry": {"type": "MultiPolygon","coordinates": [[[[-86.9794,12.5054,50.6804],[-86.9598,12.515,63.9846],[-86.9473,12.5253,74.4747],[-86.9407,12.5404,92.0221],[-86.9386,12.5579,117.1548],[-86.9398,12.5999,178.4713],[-86.9347,12.6059,191.0884],[-86.9239,12.6109,220.8074],[-86.9107,12.6207,253.2589],[-86.881,12.6662,129.4321],[-86.9147,12.666,651.1518],[-86.9301,12.6637,671.6442],[-86.939,12.6604,677.1929],[-86.946,12.6461,357.877],[-86.9465,12.6292,262.6032],[-86.9483,12.6251,245.5409],[-86.9639,12.6122,207.6028],[-86.9897,12.5844,123.1402],[-86.9948,12.582,114.7512],[-87.008,12.5799,100.7465],[-87.009,12.571,84.445],[-87.0016,12.5503,65.1122],[-87.0007,12.5318,51.3617],[-86.9965,12.5257,49.8073],[-86.9827,12.512,50.2576],[-86.9794,12.5054,50.6804]]]]}
,"properties": {"GID_2": "NIC.5.7_1","GID_0": "NIC","country": "Nicaragua","GID_1": "NIC.5_1","province": "Chinandega","NL_NAME_1": "NA","county": "Posoltega","VARNAME_2": "NA","NL_NAME_2": "NA","TYPE_2": "Municipio","ENGTYPE_2": "Municipality","CC_2": "NA","HASC_2": "NI.CI.PO","name": "Posoltega.county","area_km2": 95.02067,"hist_schema_id": "Elevation0-9000","hist_area_km2": {"50": 8.03069,"75": 18.6473,"100": 15.10709,"125": 9.10512,"150": 6.64219,"175": 4.8624,"200": 4.07596,"225": 3.62068,"250": 3.86888,"275": 4.1171,"300": 3.33084,"325": 2.6688,"350": 2.08949,"375": 1.15852,"400": 0.76544,"425": 0.95163,"450": 0.84818,"475": 0.6413,"500": 0.72405,"525": 0.59993,"550": 0.49649,"575": 0.41374,"600": 0.35168,"625": 0.24824,"650": 0.37236,"675": 0.45511,"700": 0.20687,"725": 0.22755,"750": 0.24824,"775": 0.12412,"800": 0.02069}}}