{"type":"Feature","properties":{"GID_2":"NIC.8.3_1","GID_0":"NIC","country":"Nicaragua","GID_1":"NIC.8_1","province":"Granada","NL_NAME_1":"NA","county":"Granada","VARNAME_2":"NA","NL_NAME_2":"NA","TYPE_2":"Municipio","ENGTYPE_2":"Municipality","CC_2":"NA","HASC_2":"NI.GR.GR","name":"Granada.county"},
"geometry":{"type": "MultiPolygon","coordinates": [[[[-86.0287,11.8856,364.3793],[-86.0029,11.8838,349.65],[-85.9874,11.8781,240.3658],[-85.9936,11.8669,296.168],[-86.0093,11.8455,371.3189],[-86.011,11.8393,355.9739],[-86.0142,11.8246,297.111],[-86.0167,11.7876,161.0855],[-86.0154,11.7765,129.5],[-86.0127,11.7715,117.8373],[-86.0099,11.7691,114.1434],[-85.9997,11.7661,112.3883],[-85.9826,11.7652,99.3698],[-85.9674,11.7603,75.6072],[-85.9337,11.7384,39.3863],[-85.913,11.7306,31.0],[-85.9088,11.7277,31.0],[-85.907,11.7323,31.0],[-85.905,11.7332,31.0],[-85.8968,11.7309,31.0],[-85.8924,11.7403,31.0],[-85.885,11.7481,31.0],[-85.8857,11.7567,31.0],[-85.8918,11.7741,57.4995],[-85.8902,11.7774,89.537],[-85.883,11.7827,31.0],[-85.883,11.7847,31.0],[-85.8859,11.7913,31.0],[-85.8858,11.797,31.0],[-85.8951,11.8079,191.426],[-85.8994,11.8262,31.0],[-85.9104,11.8473,102.3259],[-85.9157,11.8513,113.4275],[-85.9187,11.8477,154.614],[-85.9215,11.8501,157.3801],[-85.9221,11.8608,89.5794],[-85.925,11.8662,73.8483],[-85.925,11.8756,73.652],[-85.9234,11.8799,31.0],[-85.9201,11.8819,31.0],[-85.9179,11.8813,31.0],[-85.9063,11.8758,31.0],[-85.8955,11.8647,32.691],[-85.89,11.8638,31.0],[-85.8877,11.8659,31.0],[-85.8871,11.8706,31.0],[-85.8941,11.8863,33.3705],[-85.8991,11.8914,38.224],[-85.9155,11.8982,37.5682],[-85.9196,11.8981,35.482],[-85.921,11.8954,31.0],[-85.9268,11.8952,31.0],[-85.9319,11.8995,45.3659],[-85.9382,11.9194,34.3737],[-85.937,11.926,31.0],[-85.9379,11.9376,31.0],[-85.9356,11.9664,31.0],[-85.9196,11.9984,31.0],[-85.912,12.0196,31.0],[-85.8949,12.0443,31.0],[-85.8839,12.0668,31.0],[-85.8773,12.0764,31.0],[-85.8787,12.0861,31.0],[-85.8938,12.0867,36.7358],[-85.8943,12.0902,35.9768],[-85.8907,12.0955,34.7001],[-85.8937,12.0965,34.7857],[-85.9026,12.0923,35.2449],[-85.9157,12.0899,33.6513],[-85.937,12.0897,33.9237],[-85.9529,12.0917,33.1932],[-85.9572,12.0914,32.5685],[-85.9599,12.0886,32.5473],[-85.9565,12.0729,34.1218],[-85.9682,12.0486,34.9143],[-85.9687,12.0097,40.7181],[-86.0013,11.9646,130.9357],[-86.016,11.9483,204.5909],[-86.0236,11.9331,73.0],[-86.0249,11.9252,73.0],[-86.0403,11.922,73.0],[-86.0429,11.9102,73.0],[-86.0451,11.9098,73.0],[-86.0451,11.9064,73.0],[-86.049,11.9044,81.7213],[-86.0546,11.8972,372.6725],[-86.0481,11.8907,390.105],[-86.042,11.8878,370.4806],[-86.0287,11.8856,364.3793]]],
[[[-85.8805,12.0627,31.0],[-85.8659,12.0661,31.0],[-85.8655,12.0704,31.0],[-85.8715,12.0732,31.0],[-85.8781,12.0711,31.0],[-85.8815,12.0674,31.0],[-85.882,12.0647,31.0],[-85.8805,12.0627,31.0]]],
[[[-85.8483,12.17,40.2138],[-85.8498,12.1739,41.7607],[-85.8671,12.1798,40.3211],[-85.872,12.1867,42.5479],[-85.8867,12.1869,44.0585],[-85.8908,12.1902,45.0293],[-85.9042,12.1794,43.1511],[-85.9059,12.1685,41.6266],[-85.9106,12.1621,41.1417],[-85.923,12.1534,39.9567],[-85.9675,12.1403,38.8409],[-85.9881,12.1314,31.4078],[-85.9975,12.13,32.5581],[-86.0073,12.1312,33.862],[-85.9919,12.1135,32.2215],[-85.9728,12.1039,31.0],[-85.9596,12.0994,32.8768],[-85.927,12.0962,33.8954],[-85.8839,12.0992,34.6569],[-85.8674,12.0828,31.0],[-85.8677,12.075,31.0],[-85.8641,12.0704,31.0],[-85.85,12.0659,31.0],[-85.8367,12.0652,31.0],[-85.8253,12.0688,31.0],[-85.8199,12.0732,31.0],[-85.8179,12.0759,31.0],[-85.8218,12.0822,31.0],[-85.8198,12.0845,31.0],[-85.8142,12.0802,31.0],[-85.8101,12.0805,31.0],[-85.8086,12.0847,31.0],[-85.8034,12.0883,31.0],[-85.7919,12.09,31.0],[-85.789,12.0931,31.0],[-85.786,12.0934,31.0],[-85.7862,12.1036,31.0],[-85.7901,12.1102,31.0],[-85.8038,12.1138,31.3505],[-85.8196,12.1234,37.141],[-85.8249,12.1246,35.0499],[-85.8338,12.1228,34.3945],[-85.8433,12.1266,35.8759],[-85.847,12.133,39.2817],[-85.847,12.1567,38.9889],[-85.8415,12.163,36.7445],[-85.8483,12.17,40.2138]]]]}}