{"type": "Feature","bbox": [-84.7437,13.0268,-83.3582,13.9133],"geometry": {"type": "MultiPolygon","coordinates": [[[[-83.3782,13.0329,0.0],[-83.3796,13.0329,0.0],[-83.3793,13.0268,0.0],[-83.3785,13.0271,0.0],[-83.3782,13.0329,0.0]]],
[[[-83.359,13.0324,0.0],[-83.3601,13.0304,0.9681],[-83.3585,13.0296,0.9681],[-83.3582,13.0315,1.7735],[-83.359,13.0324,0.0]]],
[[[-83.8964,13.8985,22.8132],[-83.8997,13.9017,22.7111],[-83.9046,13.9012,20.7566],[-83.9094,13.9032,22.0067],[-83.9109,13.9062,20.3357],[-83.9106,13.9133,23.3766],[-83.9395,13.8949,24.2897],[-83.9691,13.8711,33.9067],[-84.0747,13.8077,23.5533],[-84.0979,13.7903,27.4284],[-84.1302,13.7619,29.4889],[-84.1432,13.7533,18.8136],[-84.1614,13.744,17.3566],[-84.2164,13.7207,22.9897],[-84.2855,13.6798,24.0479],[-84.3364,13.658,37.994],[-84.3639,13.6422,42.212],[-84.3506,13.4306,35.5452],[-84.3556,13.4356,37.4853],[-84.3624,13.4365,21.3939],[-84.3734,13.4429,31.6975],[-84.3803,13.4421,28.2256],[-84.3908,13.437,28.7452],[-84.4143,13.4472,39.16],[-84.4226,13.4562,35.6959],[-84.4299,13.4612,37.8338],[-84.4352,13.4705,38.2444],[-84.4455,13.4732,27.3946],[-84.4554,13.4821,30.4494],[-84.4762,13.4945,35.751],[-84.4768,13.4993,30.9],[-84.4726,13.5094,37.7229],[-84.4725,13.5132,37.8059],[-84.4742,13.5171,42.5955],[-84.4794,13.5211,38.4274],[-84.4856,13.5235,34.0283],[-84.5055,13.5263,36.7109],[-84.5154,13.5251,40.3476],[-84.5207,13.5282,42.9439],[-84.5309,13.5393,54.4245],[-84.5491,13.5372,37.7191],[-84.5905,13.4903,69.4833],[-84.6447,13.3901,45.0304],[-84.6781,13.3352,67.4366],[-84.7437,13.2201,82.6505],[-84.6079,13.2406,58.7125],[-84.5812,13.2417,54.7849],[-84.5326,13.2498,82.0996],[-84.3356,13.256,58.3261],[-84.3211,13.2553,55.958],[-84.3103,13.2645,31.7486],[-84.3002,13.2771,29.795],[-84.2907,13.2821,34.144],[-84.2847,13.282,28.037],[-84.2797,13.2776,19.4341],[-84.2769,13.2771,30.8051],[-84.2717,13.28,30.9649],[-84.2638,13.2788,18.497],[-84.2599,13.2825,29.0248],[-84.2552,13.2835,16.1434],[-84.2499,13.2801,17.5112],[-84.2471,13.2706,15.6153],[-84.2431,13.2662,16.9364],[-84.2338,13.2645,23.241],[-84.2257,13.2667,34.7814],[-84.2138,13.2772,30.7306],[-84.1984,13.2868,24.9837],[-84.1924,13.2882,17.1425],[-84.1772,13.2878,28.1716],[-84.1646,13.2927,10.1193],[-84.147,13.2937,21.1305],[-84.144,13.2923,24.5666],[-84.1412,13.2851,8.575],[-84.1208,13.2097,19.1772],[-84.115,13.1944,4.2472],[-84.1132,13.1934,2.725],[-84.0996,13.197,18.154],[-84.0696,13.201,14.6434],[-84.0716,13.2132,7.155],[-84.0684,13.2194,4.7975],[-84.0612,13.2182,19.1049],[-84.0566,13.2146,9.9964],[-84.051,13.2054,9.6401],[-84.0344,13.2106,7.1306],[-84.0224,13.2212,19.2976],[-84.0176,13.2224,9.4119],[-84.0098,13.2186,23.597],[-84.0042,13.2236,15.7543],[-83.9848,13.224,4.2027],[-83.9828,13.2258,4.1481],[-83.9827,13.229,15.9677],[-83.9876,13.242,15.6809],[-83.9861,13.2449,6.3972],[-83.9889,13.2484,13.0263],[-83.9884,13.251,13.4796],[-83.9855,13.252,15.9068],[-83.9704,13.2537,4.6381],[-83.9396,13.254,20.1549],[-83.9251,13.2575,23.1665],[-83.9078,13.259,16.8622],[-83.8582,13.2588,13.17],[-83.8471,13.2522,10.578],[-83.8332,13.24,14.8758],[-83.8193,13.2409,18.4129],[-83.8107,13.2397,16.6004],[-83.8027,13.2359,12.64],[-83.7996,13.2325,13.1532],[-83.7988,13.2275,13.1847],[-83.8013,13.221,18.7931],[-83.8199,13.1912,19.8749],[-83.8306,13.1665,24.5141],[-83.8312,13.1607,23.0657],[-83.8297,13.1574,24.3684],[-83.822,13.1504,22.4985],[-83.7313,13.0933,35.9954],[-83.6924,13.0652,48.0071],[-83.6618,13.0467,51.4119],[-83.6469,13.036,37.5316],[-83.6438,13.0348,47.823],[-83.5883,13.0379,14.9996],[-83.5645,13.0353,1.9914],[-83.5464,13.0315,4.4489],[-83.5404,13.0324,0.0],[-83.5521,13.0957,2.0523],[-83.561,13.1554,3.0384],[-83.5663,13.1985,2.1045],[-83.5715,13.2649,0.9661],[-83.5726,13.2985,3.1306],[-83.5713,13.3404,3.7304],[-83.566,13.3832,2.7399],[-83.5599,13.4076,1.4148],[-83.5621,13.411,0.0],[-83.5657,13.4093,1.3688],[-83.5668,13.4035,1.1328],[-83.5682,13.4065,2.3956],[-83.5729,13.4085,2.179],[-83.5707,13.4104,2.2231],[-83.5587,13.4137,0.2225],[-83.5579,13.441,3.6974],[-83.5557,13.4574,4.8787],[-83.5529,13.4657,1.4551],[-83.5529,13.4707,0.0],[-83.5554,13.4696,1.1164],[-83.5571,13.4707,0.2973],[-83.559,13.4763,5.5026],[-83.5679,13.4779,4.9299],[-83.5607,13.4782,0.0],[-83.5582,13.4763,5.5026],[-83.5568,13.4718,0.2973],[-83.5504,13.4729,2.084],[-83.5482,13.471,0.0],[-83.5418,13.5035,5.9996],[-83.5338,13.5249,4.2603],[-83.5257,13.5379,6.1228],[-83.5251,13.5429,5.1929],[-83.526,13.5471,0.7048],[-83.531,13.5515,1.4417],[-83.5321,13.5579,0.0],[-83.5421,13.5593,1.1674],[-83.546,13.5615,3.531],[-83.5501,13.5821,8.1689],[-83.5501,13.5915,8.6576],[-83.5521,13.5926,0.5],[-83.5557,13.5918,0.5],[-83.5568,13.5865,4.4001],[-83.5574,13.5879,2.8617],[-83.5568,13.5913,0.5],[-83.5629,13.5932,3.9772],[-83.5687,13.5893,0.5],[-83.5779,13.5879,0.5],[-83.5815,13.5913,0.5],[-83.5815,13.5943,4.0562],[-83.5749,13.5971,1.922],[-83.5746,13.5999,1.8959],[-83.5799,13.5982,8.496],[-83.5826,13.5999,7.1668],[-83.5832,13.6024,0.5],[-83.5879,13.601,2.3365],[-83.5879,13.6029,0.5],[-83.5901,13.6024,0.5],[-83.5926,13.6054,0.5],[-83.5957,13.606,4.2932],[-83.594,13.6093,5.6706],[-83.5946,13.6171,11.5912],[-83.5904,13.6213,0.5],[-83.5896,13.6249,0.5],[-83.5862,13.6246,0.5],[-83.5862,13.6276,3.0239],[-83.5835,13.6299,0.5],[-83.581,13.639099999999999,8.4461],[-83.5701,13.6443,4.3],[-83.5704,13.6485,5.886],[-83.5671,13.6562,0.5],[-83.5771,13.6532,0.5],[-83.594,13.6363,0.5],[-83.5954,13.6338,0.5],[-83.5943,13.631,3.1219],[-83.5985,13.6332,1.9078],[-83.6001,13.6376,0.5],[-83.6046,13.6396,3.1295],[-83.604,13.641,8.0438],[-83.601,13.6393,3.9703],[-83.5976,13.6401,0.5],[-83.594,13.644,6.1472],[-83.5949,13.6457,0.5],[-83.6029,13.6429,10.0172],[-83.6107,13.6474,0.5],[-83.6146,13.6443,1.5674],[-83.6135,13.6474,0.5],[-83.621,13.651,0.5],[-83.6199,13.6515,0.5],[-83.6154,13.649,5.4417],[-83.6132,13.6496,0.5],[-83.6168,13.661,0.5],[-83.6176,13.6701,4.642],[-83.6308,13.6839,0.7327],[-83.6358,13.6931,0.8931],[-83.6396,13.7087,0.7548],[-83.64,13.7191,0.8692],[-83.6496,13.7283,2.0698],[-83.6591,13.7303,4.6105],[-83.6762,13.7417,2.7219],[-83.6823,13.7481,9.204],[-83.6885,13.7601,2.5737],[-83.6909,13.7683,2.9658],[-83.6915,13.7781,8.3891],[-83.6972,13.7907,8.8742],[-83.704,13.7973,14.9538],[-83.716,13.8007,5.6285],[-83.7243,13.7997,12.3424],[-83.7346,13.8045,5.5471],[-83.7415,13.8033,11.0554],[-83.7467,13.8065,7.7718],[-83.7553,13.8066,14.2972],[-83.7615,13.8019,11.7919],[-83.7643,13.8023,17.4719],[-83.7701,13.8071,16.5228],[-83.7766,13.8086,14.5417],[-83.7798,13.8074,17.7881],[-83.782,13.7981,12.1874],[-83.7838,13.7969,16.2924],[-83.8027,13.7997,18.483],[-83.8076,13.7987,9.2061],[-83.8084,13.7947,16.9667],[-83.8053,13.7841,15.6523],[-83.8138,13.7825,19.5385],[-83.8214,13.7849,20.6884],[-83.8236,13.7871,17.3814],[-83.8231,13.7921,15.825],[-83.8194,13.7989,15.1796],[-83.8335,13.8269,22.8679],[-83.8333,13.8293,21.5805],[-83.8308,13.8309,19.5667],[-83.8236,13.8307,15.2653],[-83.8219,13.8333,9.543],[-83.8399,13.8399,20.3027],[-83.8433,13.8489,20.4872],[-83.8479,13.8539,12.9722],[-83.863,13.8581,22.5837],[-83.864,13.8599,16.1675],[-83.8624,13.8617,13.3935],[-83.8569,13.8639,22.5365],[-83.8643,13.8705,19.3195],[-83.8605,13.8779,39.4492],[-83.8623,13.88,18.7049],[-83.8875,13.8797,23.5991],[-83.8893,13.8825,15.489],[-83.8897,13.8949,21.7823],[-83.8924,13.8977,18.0505],[-83.8964,13.8985,22.8132]]],
[[[-83.5629,13.5971,8.7479],[-83.5629,13.5975,8.7479],[-83.5643,13.5974,6.3345],[-83.5638,13.5968,0.5],[-83.5629,13.5971,8.7479]]],
[[[-83.561,13.6607,0.5],[-83.566,13.6607,0.5],[-83.5629,13.6524,2.1642],[-83.5607,13.656,10.5344],[-83.5546,13.6579,2.5821],[-83.5549,13.6593,0.5],[-83.559,13.6582,9.3596],[-83.561,13.6607,0.5]]]]}
,"properties": {"GID_2": "NIC.1.2_1","GID_0": "NIC","country": "Nicaragua","GID_1": "NIC.1_1","province": "AtlánticoNorte","NL_NAME_1": "NA","county": "Prinzapolka","VARNAME_2": "NA","NL_NAME_2": "NA","TYPE_2": "Municipio","ENGTYPE_2": "Municipality","CC_2": "NA","HASC_2": "NI.AN.PR","name": "Prinzapolka.county","area_km2": 6443.648,"hist_schema_id": "Elevation0-9000","hist_area_km2": {"0": 2668.05,"25": 2763.905,"50": 859.432,"75": 124.622,"100": 21.266,"125": 4.93,"150": 0.784,"175": 0.35,"200": 0.165,"225": 0.124}}}