{"type": "Feature","bbox": [-86.2621,12.9844,-84.8246,14.6067],"geometry": {"type": "MultiPolygon","coordinates": [[[[-86.1795,13.0903,812.6132],[-86.1494,13.0754,903.8687],[-86.1209,13.0656,958.2355],[-86.1149,13.062,882.4105],[-86.1119,13.0586,712.1465],[-86.1094,13.0497,745.241],[-86.1106,13.0306,698.4575],[-86.0998,13.0275,633.2365],[-86.0915,13.0291,642.5734],[-86.0814,13.0248,892.3295],[-86.0771,13.0298,693.1886],[-86.0671,13.0291,607.0125],[-86.0515,13.0245,715.0964],[-86.0414,13.0137,905.7533],[-86.0362,12.9993,993.2244],[-86.0338,12.987,1012.5513],[-86.0032,12.9844,1210.7939],[-85.9966,12.9851,1174.7688],[-85.9955,12.9904,1176.5339],[-85.9969,13.0058,986.3924],[-85.9931,13.0087,915.0164],[-85.9766,13.0037,924.8678],[-85.9402,13.0003,1084.9812],[-85.9213,13.0065,1410.7034],[-85.8819,13.0463,1239.2616],[-85.8202,13.0978,1094.2103],[-85.8009,13.1164,829.5801],[-85.7914,13.1207,785.4514],[-85.7735,13.1215,554.2538],[-85.7658,13.1263,637.6498],[-85.7561,13.1398,948.1122],[-85.744,13.1638,842.2903],[-85.7365,13.1736,909.6368],[-85.7159,13.1943,832.0503],[-85.6889,13.2172,944.3572],[-85.6669,13.2422,1324.1304],[-85.6548,13.2661,1149.1731],[-85.6288,13.3111,914.9672],[-85.6216,13.3161,878.3896],[-85.6097,13.3213,878.5192],[-85.5685,13.327,885.5143],[-85.5598,13.3312,1104.7952],[-85.5462,13.3442,925.0558],[-85.512,13.3706,745.1694],[-85.5074,13.3722,774.9229],[-85.5113,13.3791,787.5073],[-85.5132,13.3869,758.6139],[-85.5126,13.3998,886.7061],[-85.5061,13.4108,874.5219],[-85.4972,13.4199,866.0759],[-85.4713,13.4367,978.222],[-85.4405,13.4634,852.6743],[-85.4243,13.4676,1025.2762],[-85.4093,13.4751,1067.7599],[-85.3987,13.4934,630.3554],[-85.3978,13.4987,486.0639],[-85.4002,13.5122,609.5167],[-85.3998,13.5187,569.5029],[-85.3882,13.5443,475.2971],[-85.385,13.5545,442.3729],[-85.3838,13.5674,327.2907],[-85.3887,13.5791,329.079],[-85.4066,13.5929,482.9009],[-85.4165,13.6056,328.5334],[-85.4179,13.6118,406.8231],[-85.4155,13.6208,486.5905],[-85.4126,13.6253,565.4425],[-85.3885,13.6394,697.4283],[-85.3819,13.6469,618.7847],[-85.37,13.7017,633.6048],[-85.2931,13.7034,644.6985],[-85.1557,13.7908,529.0583],[-85.0575,13.7431,1184.234],[-84.8507,14.0707,304.5639],[-84.8635,14.1291,678.8593],[-84.8246,14.324,415.715],[-84.9023,14.3295,345.3619],[-84.9394,14.3294,233.3556],[-84.9429,14.3308,249.0065],[-84.948,14.343,205.1922],[-84.951,14.3449,214.3074],[-84.956,14.343,212.375],[-84.9585,14.3449,217.2542],[-84.9617,14.3491,204.1012],[-84.9657,14.3613,192.7756],[-84.9681,14.3635,211.8596],[-84.9758,14.3651,210.8711],[-84.9786,14.3685,184.5096],[-84.9814,14.3807,186.7157],[-84.984,14.3847,244.0792],[-84.9947,14.3905,197.2473],[-84.9975,14.3967,196.5064],[-84.9958,14.4028,164.3155],[-84.9915,14.4053,188.9731],[-84.9869,14.405,187.493],[-84.981,14.4086,185.7729],[-84.9795,14.4112,211.5053],[-84.981,14.4215,161.4819],[-84.98,14.4382,178.009],[-84.9858,14.4459,149.7527],[-84.9824,14.4526,175.3837],[-84.982,14.4602,156.1877],[-84.9777,14.4614,172.1357],[-84.9751,14.4665,169.0187],[-84.9689,14.4696,167.0814],[-84.9659,14.4768,177.3604],[-84.9687,14.4875,141.95],[-84.9765,14.4988,177.7322],[-84.9918,14.5006,184.7528],[-84.9997,14.5118,159.578],[-85.0058,14.5171,170.3095],[-85.0054,14.5207,158.6558],[-85.0007,14.5253,139.8066],[-84.9994,14.5306,142.4231],[-85.007,14.5369,179.815],[-85.0064,14.5457,183.6822],[-85.0001,14.5563,143.2167],[-84.9987,14.5671,143.8858],[-84.9901,14.5798,145.706],[-84.9918,14.5885,137.2938],[-84.9966,14.5946,172.2063],[-85.0096,14.5994,120.7013],[-85.0149,14.6067,138.1167],[-85.0278,14.606,157.8334],[-85.0252,14.602,118.7175],[-85.0451,14.5723,118.8836],[-85.0603,14.5651,123.0806],[-85.0655,14.5567,170.4678],[-85.0689,14.5542,141.3726],[-85.0762,14.5559,127.7932],[-85.0814,14.5553,155.9297],[-85.0897,14.5491,138.9098],[-85.0946,14.5499,132.8495],[-85.1035,14.5583,143.497],[-85.1139,14.5742,137.3866],[-85.1226,14.5766,169.6775],[-85.1266,14.5801,143.6808],[-85.1297,14.5797,143.4659],[-85.1376,14.5712,176.9578],[-85.1489,14.5702,144.491],[-85.151,14.5666,127.1478],[-85.1406,14.5481,141.5935],[-85.1443,14.5379,129.1955],[-85.1394,14.5276,144.222],[-85.1376,14.5172,152.887],[-85.139,14.5126,147.7193],[-85.1452,14.5062,146.2359],[-85.1507,14.4893,151.0903],[-85.1558,14.4829,133.9924],[-85.1724,14.4694,181.0446],[-85.1783,14.461,151.7798],[-85.1877,14.4294,170.8332],[-85.1954,14.4189,148.6482],[-85.1977,14.4091,160.9759],[-85.2033,14.402,147.848],[-85.2067,14.3896,152.7239],[-85.2138,14.3788,160.1895],[-85.2228,14.3725,162.2722],[-85.2255,14.3668,215.4601],[-85.2241,14.3631,184.1382],[-85.2197,14.3594,194.6599],[-85.2098,14.3588,166.9569],[-85.2039,14.3565,190.2927],[-85.2018,14.3525,169.4093],[-85.2013,14.3364,177.2679],[-85.1987,14.333,172.2352],[-85.1943,14.3311,168.4065],[-85.1903,14.3253,176.4811],[-85.1832,14.3284,163.2078],[-85.1811,14.328,167.8783],[-85.1795,14.322,165.0433],[-85.1803,14.3135,160.3459],[-85.1783,14.3059,186.9748],[-85.1764,14.3033,180.4665],[-85.1642,14.3009,197.9595],[-85.1602,14.2983,206.2594],[-85.1579,14.2935,158.0402],[-85.1836,14.2506,156.3591],[-85.1869,14.2476,175.7221],[-85.1921,14.2481,174.3609],[-85.1972,14.2571,176.0311],[-85.2104,14.2529,163.4233],[-85.2217,14.2566,170.7731],[-85.2286,14.2532,164.1789],[-85.2324,14.2532,158.5096],[-85.2467,14.2578,182.5835],[-85.2784,14.2574,189.0943],[-85.2859,14.2547,229.5747],[-85.2929,14.2492,186.5455],[-85.2967,14.2488,185.5544],[-85.3074,14.2545,175.8427],[-85.3174,14.2546,165.3082],[-85.3284,14.2473,234.7372],[-85.3387,14.2446,203.3696],[-85.3415,14.2323,173.3802],[-85.3492,14.2254,207.249],[-85.3521,14.218,257.0578],[-85.3574,14.2139,232.78],[-85.3644,14.2135,174.4525],[-85.3679,14.2154,185.0152],[-85.3706,14.2248,173.4043],[-85.3796,14.2229,188.2165],[-85.3818,14.2171,175.7421],[-85.3752,14.2113,171.5],[-85.3748,14.2088,178.2369],[-85.377,14.2029,210.4801],[-85.3759,14.195,195.6309],[-85.3811,14.1886,254.359],[-85.3777,14.1797,190.9494],[-85.3794,14.1755,204.9694],[-85.4,14.156,199.7867],[-85.3964,14.1412,199.1262],[-85.3969,14.1362,187.1052],[-85.4031,14.1323,199.6194],[-85.4052,14.1287,185.6331],[-85.4053,14.1248,195.8383],[-85.4147,14.1207,185.7007],[-85.4178,14.1155,210.0357],[-85.4249,14.1151,214.7969],[-85.4283,14.1061,204.0314],[-85.4365,14.1074,203.0544],[-85.4427,14.1042,243.9377],[-85.4506,14.113,205.5296],[-85.456,14.1121,196.0905],[-85.4584,14.1053,214.9514],[-85.4653,14.1035,301.0813],[-85.4674,14.1008,341.5549],[-85.4699,14.0918,263.2444],[-85.4786,14.0931,195.0838],[-85.4786,14.0859,204.7225],[-85.4815,14.0809,326.0077],[-85.4927,14.0934,236.9225],[-85.4949,14.078,225.5589],[-85.5006,14.079,277.1653],[-85.5052,14.0864,217.9656],[-85.509,14.0816,230.5392],[-85.5125,14.0621,237.8436],[-85.5196,14.0603,218.4367],[-85.523,14.0464,230.5607],[-85.5331,14.0483,219.874],[-85.5411,14.047,212.541],[-85.5564,14.0482,335.6945],[-85.5619,14.0521,209.2992],[-85.5625,14.0559,290.2263],[-85.56,14.0617,241.6593],[-85.5614,14.0652,211.838],[-85.5765,14.0624,267.496],[-85.5823,14.0457,360.2196],[-85.5879,14.0421,215.0353],[-85.5953,14.0429,314.5034],[-85.5973,14.0413,318.9169],[-85.5984,14.0369,239.9887],[-85.6079,14.0254,223.4699],[-85.6132,14.0226,248.4532],[-85.6218,14.0213,221.3813],[-85.6321,14.0112,227.3529],[-85.6534,14.0149,326.3074],[-85.6616,14.0127,239.2029],[-85.6637,14.0107,223.4314],[-85.665,13.9949,230.8937],[-85.6676,13.9902,241.7289],[-85.6742,13.9836,227.0889],[-85.6825,13.9784,313.5876],[-85.6994,13.9863,381.8621],[-85.7062,13.9884,299.0568],[-85.7125,13.988,234.7973],[-85.7196,13.9842,233.8916],[-85.7332,13.9696,234.4713],[-85.7412,13.9655,349.1606],[-85.7539,13.9649,249.9538],[-85.7591,13.9583,385.0542],[-85.7579,13.913,265.0264],[-85.7606,13.8954,264.9411],[-85.7652,13.8816,363.4992],[-85.7643,13.8793,396.3982],[-85.7502,13.8732,325.8441],[-85.7397,13.8621,355.0191],[-85.7388,13.8543,280.3872],[-85.7437,13.8398,254.665],[-85.7486,13.8351,337.6185],[-85.7555,13.8319,297.1585],[-85.7632,13.8421,339.6544],[-85.7709,13.8447,466.9554],[-85.7775,13.8443,399.516],[-85.7912,13.8393,427.8258],[-85.8112,13.8402,648.6923],[-85.8182,13.8432,457.8962],[-85.8223,13.8517,333.6087],[-85.8248,13.8527,407.1556],[-85.841,13.847,647.8884],[-85.8516,13.8341,847.9661],[-85.8635,13.8069,814.4219],[-85.8862,13.7842,755.5541],[-85.8923,13.7689,904.1435],[-85.8926,13.7541,880.1286],[-85.8884,13.7388,886.3431],[-85.888,13.7268,1119.6487],[-85.8901,13.7193,971.8085],[-85.9018,13.7065,971.3295],[-85.9112,13.6734,685.6635],[-85.9162,13.6458,507.422],[-85.9185,13.594,637.9949],[-85.9259,13.58,606.9745],[-85.9297,13.5639,532.5535],[-85.9284,13.5503,464.2357],[-85.9252,13.5414,424.426],[-85.9219,13.5335,384.9057],[-85.9138,13.5226,380.9229],[-85.9059,13.5165,350.5628],[-85.8812,13.5078,318.349],[-85.8789,13.5054,339.5579],[-85.8798,13.5007,361.6369],[-85.8854,13.4956,352.1745],[-85.8982,13.4886,406.778],[-85.9027,13.4839,341.8931],[-85.9039,13.4692,392.7039],[-85.9069,13.4643,319.5],[-85.91,13.4622,321.1066],[-85.9147,13.4675,321.125],[-85.9188,13.4693,344.7579],[-85.9275,13.4676,379.3079],[-85.9305,13.4695,363.3869],[-85.9349,13.4784,326.7824],[-85.9393,13.4832,327.1843],[-85.9586,13.4953,423.9189],[-85.975,13.5081,339.6278],[-85.9862,13.5101,344.589],[-85.999,13.5085,375.4418],[-86.0105,13.514099999999999,387.6312],[-86.0137,13.5136,387.5776],[-86.0164,13.5107,356.8326],[-86.0198,13.5002,400.4158],[-86.0218,13.4972,411.2457],[-86.0248,13.496,362.4645],[-86.0568,13.493,414.2219],[-86.0611,13.494,389.1628],[-86.0625,13.496,384.8474],[-86.0657,13.4925,402.5288],[-86.0717,13.4904,384.882],[-86.0751,13.4857,366.4808],[-86.0766,13.4735,453.1344],[-86.0818,13.4674,393.3299],[-86.0833,13.4578,695.7878],[-86.0926,13.4507,599.4222],[-86.11,13.4428,479.1334],[-86.1197,13.4346,527.2366],[-86.1337,13.435,514.4935],[-86.1442,13.4326,668.4267],[-86.1557,13.4349,550.6307],[-86.1798,13.4345,495.7345],[-86.1991,13.4193,737.3936],[-86.2197,13.3874,779.2875],[-86.2218,13.3759,769.1833],[-86.2331,13.363,713.696],[-86.2297,13.3546,779.479],[-86.2355,13.3499,763.0657],[-86.2316,13.3442,748.8482],[-86.2314,13.3402,792.0547],[-86.2384,13.3312,754.4637],[-86.2401,13.3261,833.2573],[-86.2387,13.3132,904.814],[-86.2322,13.2834,1035.8749],[-86.2338,13.2624,1141.6976],[-86.2288,13.2472,1369.191],[-86.2302,13.2448,1373.2079],[-86.2402,13.2435,1384.6415],[-86.2448,13.2406,1376.941],[-86.2425,13.2341,1394.2407],[-86.238,13.228,1394.1869],[-86.2387,13.2228,1417.067],[-86.2617,13.1853,1355.9081],[-86.2621,13.1797,1316.9792],[-86.2583,13.1725,1289.072],[-86.2507,13.1646,1229.197],[-86.2322,13.1531,1096.1091],[-86.2271,13.1384,1162.2629],[-86.2157,13.1231,884.8124],[-86.185,13.0937,850.1757],[-86.1795,13.0903,812.6132]]]]}
,"properties": {"GID_1": "NIC.9_1","GID_0": "NIC","country": "Nicaragua","province": "Jinotega","VARNAME_1": "NA","NL_NAME_1": "NA","TYPE_1": "Departamento","ENGTYPE_1": "Department","CC_1": "NA","HASC_1": "NI.JI","ISO_1": "NI-JI","name": "Jinotega.province","area_km2": 9896.71,"hist_schema_id": "Elevation0-9000","hist_area_km2": {"100": 0.308,"125": 8.475,"150": 45.39,"175": 143.753,"200": 274.358,"225": 366.993,"250": 409.021,"275": 419.813,"300": 396.232,"325": 376.389,"350": 379.918,"375": 391.286,"400": 399.32,"425": 398.549,"450": 378.983,"475": 354.701,"500": 333.764,"525": 306.825,"550": 282.996,"575": 254.563,"600": 232.496,"625": 210.075,"650": 197.685,"675": 185.863,"700": 180.116,"725": 174.071,"750": 170.547,"775": 165.244,"800": 154.976,"825": 152.644,"850": 137.526,"875": 134.138,"900": 128.539,"925": 120.013,"950": 181.63,"975": 163.828,"1000": 153.041,"1025": 145.989,"1050": 128.387,"1075": 112.629,"1100": 100.064,"1125": 84.857,"1150": 67.767,"1175": 55.657,"1200": 51.987,"1225": 51.43,"1250": 46.353,"1275": 41.216,"1300": 36.53,"1325": 32.114,"1350": 26.77,"1375": 23.075,"1400": 23.24,"1425": 22.374,"1450": 18.988,"1475": 17.38,"1500": 13.251,"1525": 10.278,"1550": 6.954,"1575": 6.087,"1600": 3.838,"1625": 2.847,"1650": 1.527,"1675": 0.722,"1700": 0.227,"1725": 0.103}}}