{"type": "Feature","id": "656","bbox": [-86.24786,12.99394,-84.83546,14.60254],"geometry": {"type": "Polygon","coordinates": [[[-85.06134,13.73552,1360.1968],[-85.05679,13.73753,1149.115],[-85.05175,13.74257,1024.9177],[-84.92481,13.94073,261.0346],[-84.86404,14.04028,568.0102],[-84.85484,14.0595,467.9454],[-84.85283,14.07131,311.5776],[-84.86208,14.10777,530.7562],[-84.85895,14.15425,415.6502],[-84.83712,14.26872,354.045],[-84.83546,14.2929,344.1595],[-84.83805,14.30678,404.8397],[-84.92742,14.31243,232.6963],[-84.93453,14.31427,250.1942],[-84.93967,14.3175,222.9869],[-84.95403,14.3344,271.5336],[-84.9708,14.34962,206.2441],[-84.98956,14.37344,324.8241],[-84.99243,14.38067,258.0349],[-84.99282,14.38737,187.5374],[-84.99088,14.3939,188.9767],[-84.98313,14.40752,188.7819],[-84.98199,14.41251,181.8142],[-84.98297,14.43434,152.5362],[-84.98158,14.4407,152.2505],[-84.97039,14.4594,208.223],[-84.96861,14.46914,167.0814],[-84.97023,14.47697,182.2204],[-84.97377,14.48315,168.3389],[-84.97827,14.4872,168.0471],[-84.99313,14.49508,194.3083],[-85.00649,14.50539,177.8107],[-85.00811,14.50777,181.803],[-85.00897,14.51072,162.2383],[-85.00829,14.52002,169.7299],[-85.00858,14.52867,178.2111],[-85.00806,14.53462,171.0053],[-85.00618,14.54485,202.5222],[-85.00581,14.54942,174.4645],[-85.00597,14.55537,151.0855],[-85.00444,14.56126,166.3858],[-84.99922,14.57565,166.4201],[-84.99948,14.58229,186.8143],[-85.00109,14.58854,142.9633],[-85.00318,14.59273,135.5017],[-85.00553,14.59642,124.6686],[-85.00873,14.59882,120.7013],[-85.01152,14.6003,135.0861],[-85.01886,14.602,137.8965],[-85.02366,14.60254,112.8709],[-85.02964,14.58896,128.6201],[-85.06524,14.55425,168.4919],[-85.08638,14.54454,143.2491],[-85.10335,14.55686,159.3912],[-85.11932,14.57397,152.6846],[-85.13754,14.57849,138.561],[-85.14547,14.56425,128.6182],[-85.14981,14.5365,156.6151],[-85.15183,14.48596,140.1207],[-85.15539,14.47948,148.0024],[-85.17849,14.4556,156.3903],[-85.17968,14.44925,159.4685],[-85.17735,14.43398,169.7836],[-85.17849,14.42765,165.0211],[-85.20583,14.40716,161.6563],[-85.18973,14.39685,195.2766],[-85.17188,14.38101,186.0814],[-85.15903,14.36106,258.9477],[-85.15803,14.33827,231.1105],[-85.16963,14.32176,181.6305],[-85.1902,14.30964,196.9462],[-85.21521,14.30158,227.2143],[-85.23996,14.29732,289.0641],[-85.27781,14.29732,258.1909],[-85.2882,14.29515,301.7773],[-85.31197,14.28365,240.3207],[-85.32135,14.28133,282.364],[-85.32683,14.27574,256.6389],[-85.33088,14.269,334.8877],[-85.33796,14.26068,214.9432],[-85.34081,14.25337,306.8015],[-85.34362,14.25011,191.5326],[-85.34781,14.24923,207.0681],[-85.35853,14.25089,239.0554],[-85.36287,14.25011,351.2341],[-85.37251,14.2411,352.1833],[-85.38401,14.22645,277.2985],[-85.39362,14.21076,415.52],[-85.40088,14.18518,455.2654],[-85.40912,14.16616,292.5681],[-85.42016,14.14686,353.6087],[-85.43173,14.13283,340.9407],[-85.45762,14.11304,232.1],[-85.47467,14.1034,292.7814],[-85.51064,14.09379,310.7544],[-85.5164,14.08054,345.219],[-85.51863,14.06459,264.3525],[-85.52795,14.0509,256.7085],[-85.54663,14.04491,236.4218],[-85.56315,14.04201,473.0698],[-85.5717,14.04051,400.6686],[-85.59361,14.03346,381.2641],[-85.60306,14.01953,317.3861],[-85.61281,14.00974,296.1653],[-85.64787,13.9993,572.9341],[-85.64461,13.98879,540.4149],[-85.64766,13.9878,383.2097],[-85.6504,13.98786,362.2141],[-85.65195,13.98669,342.4615],[-85.65149,13.98199,433.0825],[-85.65766,13.98199,304.4067],[-85.66619,13.98447,292.6315],[-85.6865,13.96734,343.5489],[-85.69923,13.9615,453.1876],[-85.71699,13.96269,399.7184],[-85.72735,13.96501,393.4316],[-85.7322,13.95954,314.4525],[-85.73339,13.93763,658.2953],[-85.74329,13.90755,383.1339],[-85.74745,13.88827,428.14],[-85.74368,13.87957,443.9909],[-85.72869,13.87502,411.8189],[-85.72301,13.86342,463.286],[-85.72512,13.84794,324.758],[-85.73339,13.83179,457.4898],[-85.74029,13.82564,454.5698],[-85.74246,13.82371,420.0676],[-85.74311,13.82396,373.0932],[-85.76714,13.80965,312.9032],[-85.77703,13.7982,306.1172],[-85.78308,13.7819,433.83],[-85.78455,13.73459,335.7843],[-85.7875,13.72138,276.8048],[-85.79181,13.70922,273.1135],[-85.82075,13.66079,389.163],[-85.82987,13.63775,429.0393],[-85.83297,13.61286,307.3242],[-85.83129,13.55338,398.5905],[-85.84222,13.54023,438.6481],[-85.86046,13.53134,348.3113],[-85.88284,13.5152,441.5045],[-85.89969,13.49186,318.588],[-85.90674,13.48685,321.8443],[-85.9201,13.48517,383.9294],[-85.9294,13.49011,352.6776],[-85.93785,13.49763,424.6255],[-85.94899,13.50393,417.484],[-85.96625,13.50509,358.5835],[-86.01852,13.50073,393.1823],[-86.02828,13.49628,348.5752],[-86.03885,13.50912,463.6259],[-86.05004,13.50478,353.6406],[-86.05968,13.49329,396.1482],[-86.06924,13.48197,538.6541],[-86.1081,13.45171,488.9643],[-86.11766,13.44099,433.2926],[-86.13001,13.4461,539.3624],[-86.14404,13.44554,490.6496],[-86.15998,13.44269,398.4575],[-86.17621,13.42877,714.7723],[-86.21295,13.39035,664.2741],[-86.22148,13.37526,843.7881],[-86.22726,13.3598,686.1927],[-86.23005,13.34304,781.3027],[-86.23039,13.32172,908.744],[-86.22124,13.27883,962.5055],[-86.23569,13.23725,1407.8926],[-86.2331,13.22477,1423.2992],[-86.23615,13.20813,1218.9302],[-86.24786,13.18914,1309.0677],[-86.24142,13.17511,1217.7407],[-86.23445,13.16457,1162.3875],[-86.15905,13.09101,855.2032],[-86.11518,13.06566,962.9617],[-86.09952,13.04701,561.1765],[-86.09446,13.04683,557.6768],[-86.08074,13.04716,606.6078],[-86.07169,13.04336,597.1151],[-86.05722,13.03499,738.2041],[-86.04175,13.01962,881.4816],[-86.00746,12.99394,922.6957],[-85.99438,13.00962,942.8606],[-85.98937,13.0121,977.3599],[-85.97736,13.01393,1023.5886],[-85.94108,13.01249,1003.0449],[-85.92842,13.01419,1236.176],[-85.91832,13.01753,1479.3734],[-85.89648,13.03262,1329.6462],[-85.83974,13.08499,1255.0082],[-85.79344,13.12398,749.5562],[-85.78254,13.13026,588.684],[-85.74502,13.16222,849.5849],[-85.67213,13.24586,1531.9545],[-85.65456,13.27511,1027.1222],[-85.63988,13.29816,1204.6628],[-85.62593,13.31386,817.4041],[-85.60498,13.32771,855.7565],[-85.58154,13.32779,814.5243],[-85.56208,13.33513,1032.0623],[-85.50638,13.37058,730.7231],[-85.50612,13.40608,828.9072],[-85.50043,13.41923,895.7089],[-85.46935,13.44623,1052.24],[-85.41504,13.48042,1000.856],[-85.40406,13.48933,622.2058],[-85.40065,13.49721,466.0337],[-85.39938,13.50649,423.9774],[-85.39979,13.5114,516.0011],[-85.39933,13.52948,505.8734],[-85.38881,13.56052,540.4785],[-85.39044,13.57008,328.549],[-85.39522,13.58343,344.049],[-85.40194,13.59462,600.4138],[-85.41,13.61157,349.533],[-85.41088,13.62056,454.3546],[-85.40912,13.62671,544.9489],[-85.39871,13.6333,651.3077],[-85.39158,13.64139,703.5],[-85.38377,13.65343,633.9286],[-85.37489,13.67741,580.9105],[-85.37011,13.68648,556.0466],[-85.36509,13.6919,609.8267],[-85.28466,13.70278,706.3244],[-85.28257,13.70332,651.7764],[-85.16061,13.77748,493.3267],[-85.15689,13.77854,499.2542],[-85.06134,13.73552,1360.1968]]]}
,"properties": {"ISO3166-1-Alpha-3": "NIC","country": "Nicaragua","fill": "#00F","name": "Jinotega","area_km2": 9489.532,"hist_schema_id": "Elevation0-9000","hist_area_km2": {"125": 5.808,"150": 38.473,"175": 144.218,"200": 288.075,"225": 382.119,"250": 418.775,"275": 424.548,"300": 395.187,"325": 374.474,"350": 369.849,"375": 374.112,"400": 377.941,"425": 372.641,"450": 351.076,"475": 328.547,"500": 311.336,"525": 286.642,"550": 262.249,"575": 235.997,"600": 214.529,"625": 194.993,"650": 183.613,"675": 172.224,"700": 168.866,"725": 162.221,"750": 157.995,"775": 154.239,"800": 145.248,"825": 142.894,"850": 128.413,"875": 124.755,"900": 119.483,"925": 112.856,"950": 172.944,"975": 156.853,"1000": 147.717,"1025": 141.717,"1050": 123.31,"1075": 107.387,"1100": 96.081,"1125": 81.824,"1150": 64.115,"1175": 53.325,"1200": 49.82,"1225": 48.438,"1250": 44.145,"1275": 38.944,"1300": 34.651,"1325": 30.875,"1350": 25.324,"1375": 22.517,"1400": 22.208,"1425": 21.548,"1450": 18.679,"1475": 17.07,"1500": 12.982,"1525": 10.112,"1550": 6.995,"1575": 6.149,"1600": 3.879,"1625": 2.909,"1650": 1.547,"1675": 0.722,"1700": 0.227,"1725": 0.103}}}