{"type": "Feature","bbox": [-86.2855,11.5549,-86.1514,11.8997],"geometry": {"type": "MultiPolygon","coordinates": [[[[-86.193,11.6221,182.6945],[-86.2008,11.6273,156.4806],[-86.2035,11.6403,270.2593],[-86.204,11.6602,294.0453],[-86.1996,11.6864,172.9851],[-86.2015,11.6963,202.6765],[-86.2058,11.6982,180.2422],[-86.2106,11.6973,177.7852],[-86.2158,11.693,159.2633],[-86.22,11.6918,146.5927],[-86.2233,11.6949,131.0838],[-86.2233,11.7007,162.9012],[-86.2141,11.7188,126.219],[-86.1945,11.7899,366.4742],[-86.1837,11.821,472.035],[-86.1774,11.8328,493.513],[-86.1749,11.8471,505.2036],[-86.1687,11.8572,512.4738],[-86.1666,11.8583,513.3822],[-86.1514,11.8564,490.3889],[-86.1557,11.8679,500.8241],[-86.1569,11.8817,486.8374],[-86.169,11.8888,479.9847],[-86.1858,11.8955,509.4636],[-86.1902,11.8997,534.4843],[-86.198,11.8953,555.297],[-86.2195,11.8878,655.8043],[-86.2227,11.8734,622.2838],[-86.2299,11.8573,580.4733],[-86.2121,11.8501,571.725],[-86.2116,11.8453,553.356],[-86.215,11.8319,512.9042],[-86.2175,11.8033,415.3083],[-86.2206,11.793,363.2489],[-86.2311,11.7773,301.5173],[-86.2372,11.7611,242.6834],[-86.2382,11.7539,215.5245],[-86.2369,11.7416,163.4496],[-86.2395,11.7244,119.0281],[-86.2563,11.6967,92.0742],[-86.2627,11.694,97.0494],[-86.2688,11.6987,119.7955],[-86.2705,11.6939,140.4942],[-86.2767,11.6883,86.5491],[-86.2787,11.6828,79.608],[-86.2793,11.674,153.4742],[-86.2855,11.6533,63.4801],[-86.285,11.6485,39.1281],[-86.2799,11.6436,38.1441],[-86.2687,11.6389,33.5206],[-86.2682,11.636,33.1081],[-86.2705,11.6315,25.0673],[-86.2765,11.6294,24.5733],[-86.2792,11.6235,19.7542],[-86.2792,11.6127,19.1527],[-86.277,11.6017,4.5644],[-86.2773,11.5992,5.243],[-86.2821,11.596,3.5089],[-86.2643,11.5882,1.6631],[-86.254,11.5818,0.0],[-86.2532,11.5782,0.0],[-86.2499,11.5754,0.0],[-86.2507,11.5735,0.0],[-86.2312,11.5643,7.8998],[-86.2189,11.5549,0.0],[-86.2112,11.5736,59.8775],[-86.205,11.5808,182.932],[-86.201,11.5887,276.5628],[-86.1968,11.6069,309.3659],[-86.1932,11.6153,260.2069],[-86.193,11.6221,182.6945]]]]}
,"properties": {"GID_2": "NIC.4.4_1","GID_0": "NIC","country": "Nicaragua","GID_1": "NIC.4_1","province": "Carazo","NL_NAME_1": "NA","county": "Jinotepe","VARNAME_2": "NA","NL_NAME_2": "NA","TYPE_2": "Municipio","ENGTYPE_2": "Municipality","CC_2": "NA","HASC_2": "NI.CA.JI","name": "Jinotepe.county","area_km2": 205.1991,"hist_schema_id": "Elevation0-9000","hist_area_km2": {"0": 2.9909,"25": 14.1025,"50": 12.9173,"75": 10.9024,"100": 19.4567,"125": 21.719,"150": 18.2718,"175": 12.064,"200": 8.2225,"225": 6.9557,"250": 5.4189,"275": 4.2974,"300": 4.0068,"325": 3.9027,"350": 2.9894,"375": 2.5739,"400": 2.2,"425": 2.7811,"450": 2.6356,"475": 3.9221,"500": 10.1881,"525": 9.4619,"550": 6.4115,"575": 6.8058,"600": 5.6645,"625": 3.216,"650": 1.1204}}}