{"type": "Feature","bbox": [-86.4596,11.889,-86.1273,12.1703],"geometry": {"type": "MultiPolygon","coordinates": [[[[-86.284,11.9511,828.6245],[-86.2512,11.9987,631.6158],[-86.2087,12.0375,247.8427],[-86.1991,12.041,236.2666],[-86.1841,12.0589,175.7036],[-86.1675,12.0845,126.0323],[-86.1438,12.0911,101.1223],[-86.1367,12.0951,97.0747],[-86.1273,12.1113,79.9107],[-86.1451,12.1176,77.0456],[-86.1532,12.1243,69.3451],[-86.1558,12.1305,65.3],[-86.1569,12.1617,46.8071],[-86.1757,12.1642,46.4291],[-86.1866,12.1572,57.0535],[-86.1934,12.1551,63.6815],[-86.2262,12.1558,62.825],[-86.2526,12.1505,66.9078],[-86.2926,12.1591,55.3479],[-86.3091,12.1593,51.3496],[-86.3133,12.1568,56.0005],[-86.3206,12.1567,64.9863],[-86.3253,12.1597,40.0],[-86.3331,12.1703,40.6248],[-86.3496,12.163,100.4318],[-86.353,12.1685,91.1159],[-86.3644,12.1662,93.0414],[-86.3632,12.1558,106.7415],[-86.379,12.1488,126.3358],[-86.4005,12.1418,268.2082],[-86.4015,12.1341,297.3585],[-86.3992,12.1202,423.5146],[-86.3957,12.1077,414.3368],[-86.3904,12.0977,456.4803],[-86.3789,12.0814,478.8442],[-86.3554,12.0598,454.8809],[-86.4596,12.0044,187.4649],[-86.432,11.9697,295.0975],[-86.4316,11.9612,312.9686],[-86.4337,11.9543,300.8186],[-86.4305,11.9455,293.1433],[-86.4148,11.9311,336.2141],[-86.3844,11.9108,322.201],[-86.3471,11.8953,445.149],[-86.3282,11.889,502.5997],[-86.284,11.9511,828.6245]]]]}
,"properties": {"GID_2": "NIC.13.2_1","GID_0": "NIC","country": "Nicaragua","GID_1": "NIC.13_1","province": "Managua","NL_NAME_1": "NA","county": "Managua","VARNAME_2": "NA","NL_NAME_2": "NA","TYPE_2": "Municipio","ENGTYPE_2": "Municipality","CC_2": "NA","HASC_2": "NI.MN.MN","name": "Managua.county","area_km2": 584.609,"hist_schema_id": "Elevation0-9000","hist_area_km2": {"50": 14.1982,"75": 33.6005,"100": 30.4923,"125": 24.7298,"150": 23.7976,"175": 22.2854,"200": 23.0328,"225": 26.4964,"250": 22.4541,"275": 18.8267,"300": 20.8807,"325": 22.1471,"350": 21.2354,"375": 21.0905,"400": 20.3441,"425": 19.2241,"450": 19.5149,"475": 17.6699,"500": 17.4208,"525": 16.5706,"550": 15.0979,"575": 14.0403,"600": 14.1647,"625": 13.0655,"650": 12.4019,"675": 11.7589,"700": 10.1414,"725": 10.1,"750": 9.4365,"775": 6.8233,"800": 7.1553,"825": 7.2799,"850": 6.5747,"875": 4.708,"900": 3.7332,"925": 2.1154}}}