{"type": "Feature","bbox": [-85.5135,13.1184,-85.1018,13.5998],"geometry": {"type": "MultiPolygon","coordinates": [[[[-85.3861,13.551,446.1151],[-85.3933,13.5311,483.9665],[-85.3998,13.5187,569.5029],[-85.4002,13.5122,609.5167],[-85.3978,13.4987,486.0639],[-85.3987,13.4934,630.3554],[-85.4093,13.4751,1067.7599],[-85.4243,13.4676,1025.2762],[-85.4405,13.4634,852.6743],[-85.4713,13.4367,978.222],[-85.4972,13.4199,866.0759],[-85.5061,13.4108,874.5219],[-85.5126,13.3998,886.7061],[-85.5135,13.3901,800.5767],[-85.5113,13.3791,787.5073],[-85.5007,13.3589,769.3199],[-85.4978,13.3412,628.3311],[-85.4882,13.3183,566.3911],[-85.4582,13.2813,410.3688],[-85.4435,13.2712,349.9498],[-85.4326,13.249,476.0545],[-85.4291,13.245,436.4422],[-85.405,13.2331,236.0143],[-85.3978,13.2161,266.9079],[-85.3832,13.1973,289.0572],[-85.3673,13.1851,238.4822],[-85.3599,13.1818,235.4871],[-85.3452,13.1834,222.5936],[-85.3396,13.1888,277.7012],[-85.3363,13.1901,257.9273],[-85.332,13.1882,204.3154],[-85.3257,13.1793,185.4487],[-85.3148,13.1729,162.8587],[-85.3071,13.162,220.3214],[-85.3016,13.1599,142.8714],[-85.2948,13.1608,145.7604],[-85.2913,13.1588,172.5282],[-85.287,13.1464,152.1237],[-85.283,13.1401,228.4394],[-85.2711,13.1373,299.2319],[-85.2656,13.1275,340.7065],[-85.2571,13.1266,260.093],[-85.2497,13.1204,176.2833],[-85.2422,13.1184,196.0888],[-85.2401,13.1195,163.0546],[-85.2336,13.1322,210.2196],[-85.2297,13.1344,216.4078],[-85.2236,13.1352,229.0092],[-85.2115,13.1346,318.9961],[-85.2012,13.1486,436.2593],[-85.1961,13.1494,225.695],[-85.1905,13.1458,134.1537],[-85.1886,13.1468,148.1744],[-85.1705,13.1654,223.7394],[-85.1539,13.1867,121.1537],[-85.1498,13.1948,162.5922],[-85.1466,13.2071,219.4699],[-85.1469,13.2294,168.2074],[-85.1409,13.2474,386.7171],[-85.1252,13.2704,185.5516],[-85.1018,13.2906,148.8504],[-85.1102,13.2989,124.9833],[-85.1229,13.3012,163.062],[-85.1295,13.3046,189.3865],[-85.1365,13.3111,144.0031],[-85.1518,13.3213,159.1132],[-85.1619,13.3357,122.5519],[-85.1664,13.3451,140.7215],[-85.1633,13.3549,173.8969],[-85.1654,13.3603,164.8182],[-85.1591,13.3698,191.3679],[-85.1588,13.3728,175.5172],[-85.1614,13.3793,196.2559],[-85.1574,13.3887,289.1886],[-85.1593,13.398,149.9959],[-85.1586,13.3999,177.8069],[-85.1497,13.4046,206.7907],[-85.1448,13.4125,205.8355],[-85.1444,13.418,198.7249],[-85.1472,13.4267,202.5506],[-85.1409,13.454,237.9437],[-85.1416,13.4576,231.3279],[-85.1494,13.4616,296.3401],[-85.1568,13.4705,651.0848],[-85.161,13.4815,829.2523],[-85.16,13.4908,483.0173],[-85.1505,13.5015,423.2865],[-85.1443,13.5265,836.339],[-85.1453,13.5316,927.0872],[-85.1502,13.5404,978.6356],[-85.1526,13.5574,649.6909],[-85.1582,13.5668,334.2162],[-85.1591,13.5865,277.2756],[-85.17,13.5984,267.3234],[-85.1759,13.5998,287.9123],[-85.2041,13.5962,266.4153],[-85.2551,13.5962,485.9846],[-85.2739,13.5947,291.1004],[-85.2794,13.5924,262.6001],[-85.2818,13.5824,259.1439],[-85.2816,13.5686,253.0362],[-85.2884,13.5563,263.9405],[-85.2879,13.5437,466.5591],[-85.2931,13.5402,357.5273],[-85.307,13.5392,605.8],[-85.3453,13.5509,566.8977],[-85.3581,13.5573,568.9871],[-85.3653,13.5589,325.4814],[-85.3787,13.552,468.404],[-85.3861,13.551,446.1151]]]]}
,"properties": {"GID_2": "NIC.1.6_1","GID_0": "NIC","country": "Nicaragua","GID_1": "NIC.1_1","province": "AtlánticoNorte","NL_NAME_1": "NA","county": "Waslala","VARNAME_2": "NA","NL_NAME_2": "NA","TYPE_2": "Municipio","ENGTYPE_2": "Municipality","CC_2": "NA","HASC_2": "NI.AN.WL","name": "Waslala.county","area_km2": 1467.93,"hist_schema_id": "Elevation0-9000","hist_area_km2": {"100": 0.413,"125": 12.385,"150": 44.35,"175": 83.654,"200": 104.128,"225": 139.153,"250": 145.33,"275": 117.323,"300": 94.927,"325": 76.303,"350": 65.617,"375": 59.429,"400": 52.706,"425": 42.781,"450": 38.986,"475": 36.778,"500": 32.302,"525": 27.887,"550": 25.392,"575": 23.122,"600": 20.317,"625": 19.533,"650": 19.265,"675": 20.317,"700": 19.698,"725": 18.811,"750": 16.006,"775": 14.809,"800": 14.149,"825": 13.427,"850": 12.622,"875": 10.147,"900": 8.538,"925": 7.733,"950": 7.053,"975": 6.62,"1000": 6.125,"1025": 4.0,"1050": 2.474,"1075": 1.381,"1100": 0.742,"1125": 0.454,"1150": 0.268,"1175": 0.165,"1200": 0.165,"1225": 0.103,"1250": 0.021,"1275": 0.021}}}