{"type":"Feature","properties":{"GID_2":"NIC.9.3_1","GID_0":"NIC","country":"Nicaragua","GID_1":"NIC.9_1","province":"Jinotega","NL_NAME_1":"NA","county":"LaConcordia","VARNAME_2":"NA","NL_NAME_2":"NA","TYPE_2":"Municipio","ENGTYPE_2":"Municipality","CC_2":"NA","HASC_2":"NI.JI.LC","name":"La_Concordia.county"},
"geometry":{"type": "MultiPolygon","coordinates": [[[[-86.1632,13.0817,816.9824],[-86.1493,13.0933,953.3787],[-86.1411,13.1041,781.6824],[-86.1285,13.1254,760.0966],[-86.1241,13.1383,808.2437],[-86.1208,13.1602,896.1996],[-86.1217,13.2059,1059.7074],[-86.1206,13.2254,1115.1836],[-86.1785,13.2273,1041.074],[-86.2056,13.2239,1220.6787],[-86.2387,13.2231,1417.067],[-86.2617,13.1853,1355.9081],[-86.2611,13.1766,1352.666],[-86.2507,13.1646,1229.197],[-86.2322,13.1531,1096.1091],[-86.2299,13.1439,1137.6743],[-86.2194,13.1272,978.6186],[-86.1991,13.1069,901.6479],[-86.185,13.0937,850.1757],[-86.1632,13.0817,816.9824]]]]}}