{"type":"Feature","properties":{"GID_2":"NIC.5.6_1","GID_0":"NIC","country":"Nicaragua","GID_1":"NIC.5_1","province":"Chinandega","NL_NAME_1":"NA","county":"ElViejo","VARNAME_2":"NA","NL_NAME_2":"NA","TYPE_2":"Municipio","ENGTYPE_2":"Municipality","CC_2":"NA","HASC_2":"NI.CI.EV","name":"El_Viejo.county"},
"geometry":{"type": "MultiPolygon","coordinates": [[[[-87.4675,12.7701,0.0],[-87.4696,12.7704,0.0],[-87.471,12.7682,0.0],[-87.4674,12.7682,0.0],[-87.4675,12.7701,0.0]]],
[[[-87.5192,12.8165,2.8574],[-87.5221,12.8157,2.2867],[-87.5218,12.8124,2.8699],[-87.5196,12.8132,0.0],[-87.5192,12.8165,2.8574]]],
[[[-87.1227,12.7412,65.2865],[-87.1441,12.7528,35.1521],[-87.1443,12.7622,27.7308],[-87.1461,12.7653,23.5512],[-87.1651,12.7904,8.8913],[-87.1905,12.8171,47.1997],[-87.1927,12.8177,70.7701],[-87.2158,12.8104,112.2177],[-87.2281,12.8161,181.8131],[-87.2415,12.8263,103.915],[-87.2821,12.8417,238.8373],[-87.2848,12.8466,161.3125],[-87.2874,12.8665,9.6092],[-87.2892,12.8705,1.0],[-87.3037,12.8745,1.0],[-87.3064,12.8769,1.0553],[-87.3119,12.8761,1.5945],[-87.3148,12.8777,1.0],[-87.32,12.8909,1.0],[-87.3193,12.8973,1.0],[-87.3219,12.8999,1.4541],[-87.3396,12.9067,1.0],[-87.3402,12.9139,1.2182],[-87.3434,12.9168,2.0839],[-87.3477,12.9184,0.0],[-87.3695,12.9173,0.0],[-87.3701,12.9152,0.0],[-87.362799999999993,12.9007,0.0],[-87.362,12.8953,2.0],[-87.3619,12.8893,2.7444],[-87.362799999999993,12.8859,5.3098],[-87.3648,12.8851,7.3833],[-87.3692,12.8995,9.8081],[-87.3747,12.9075,7.8685],[-87.3763,12.9132,1.1942],[-87.384,12.9118,4.4109],[-87.384,12.9138,0.0],[-87.386,12.914,0.0],[-87.3863,12.9129,0.0],[-87.3946,12.9124,0.0],[-87.4201,12.9171,0.0],[-87.4257,12.9199,0.0],[-87.4307,12.9199,2.823],[-87.4351,12.9229,1.1486],[-87.4371,12.9226,2.4634],[-87.4393,12.9262,0.0],[-87.4449,12.9268,3.4271],[-87.4638,12.9365,1.694],[-87.464,12.9391,0.0],[-87.4654,12.9391,0.0],[-87.4662,12.9365,2.222],[-87.4735,12.9396,0.0],[-87.4729,12.9477,0.0],[-87.4757,12.9507,2.206],[-87.4765,12.9615,2.9338],[-87.4671,12.961,0.0],[-87.4662,12.9632,0.0],[-87.4721,12.9704,15.8838],[-87.4784,12.9832,7.8056],[-87.4835,12.9885,1.5867],[-87.4879,12.9977,0.0],[-87.4962,13.0018,1.9682],[-87.5038,13.009,0.0],[-87.5043,13.0115,0.0],[-87.5124,13.0193,0.0],[-87.5146,13.0243,0.0],[-87.5371,13.0365,1.1513],[-87.5501,13.0499,1.4063],[-87.5596,13.0504,15.9084],[-87.5738,13.0541,0.0],[-87.5813,13.0526,3.129],[-87.5882,13.054,1.983],[-87.5868,13.056,0.0],[-87.5843,13.056,0.0],[-87.5837,13.0577,0.0],[-87.5868,13.0596,1.5026],[-87.5807,13.0654,0.0],[-87.5815,13.0718,0.7609],[-87.5785,13.0799,0.0],[-87.5826,13.0743,2.359],[-87.5832,13.076,2.1143],[-87.5829,13.0818,2.7306],[-87.5804,13.0865,0.8859],[-87.5757,13.0832,0.0],[-87.5762,13.0749,2.4072],[-87.5746,13.076,1.1971],[-87.5743,13.0821,0.0],[-87.5768,13.0874,1.8793],[-87.5813,13.0871,0.0],[-87.5843,13.0813,2.7306],[-87.5862,13.0749,0.0],[-87.5851,13.074,0.0],[-87.5868,13.0735,0.0],[-87.589,13.0557,0.9731],[-87.5946,13.0426,3.2517],[-87.6007,13.0315,16.6434],[-87.6054,13.0273,2.1199],[-87.6068,13.0277,2.1199],[-87.6099,13.0193,0.0],[-87.6115,13.019,0.0],[-87.6162,13.0107,3.0067],[-87.6246,13.0068,5.3537],[-87.6276,13.0032,54.3018],[-87.6329,13.0021,0.0],[-87.6365,12.9985,21.3146],[-87.6485,12.996,13.8346],[-87.6518,12.9968,0.0],[-87.6551,12.9926,0.0],[-87.6554,12.9896,20.2147],[-87.659,12.9904,19.0573],[-87.661,12.9893,0.0],[-87.6624,12.9765,112.7951],[-87.664,12.9765,0.0],[-87.6671,12.9721,0.0],[-87.6707,12.971,28.7173],[-87.6718,12.966,7.7467],[-87.6748,12.9649,41.9009],[-87.6754,12.9543,14.9442],[-87.6793,12.9496,97.4598],[-87.6821,12.949,0.0],[-87.6868,12.9351,29.8919],[-87.6854,12.9276,71.5371],[-87.6888,12.924,37.0686],[-87.6874,12.9179,63.0225],[-87.691,12.9124,4.9609],[-87.6901,12.9096,0.0],[-87.681,12.9004,0.0],[-87.6774,12.8995,10.3176],[-87.6732,12.8951,0.0],[-87.6715,12.8957,38.3886],[-87.6543,12.8793,39.0397],[-87.6421,12.8729,48.947],[-87.6393,12.8693,0.0],[-87.6354,12.8682,38.7574],[-87.634,12.8651,7.5155],[-87.6188,12.8574,26.072],[-87.6032,12.8451,0.0],[-87.5862,12.8374,5.1244],[-87.5576,12.8188,7.3282],[-87.5249,12.801,6.5054],[-87.5037,12.7852,4.1781],[-87.4981,12.7796,4.4607],[-87.4954,12.7735,1.3547],[-87.4876,12.7668,0.0],[-87.4843,12.7662,0.0],[-87.4829,12.7676,2.7694],[-87.4824,12.7731,4.1003],[-87.4865,12.7779,0.0],[-87.4871,12.7813,0.0],[-87.4971,12.7901,12.875],[-87.5057,12.8015,2.5423],[-87.5165,12.8046,1.4398],[-87.5229,12.809,0.0],[-87.5243,12.8168,1.2526],[-87.521,12.8174,0.0],[-87.5215,12.8212,0.0],[-87.5252,12.8251,5.6824],[-87.5343,12.8271,0.0],[-87.5362,12.8299,4.1982],[-87.5368,12.8351,0.0],[-87.5415,12.8385,2.3537],[-87.5426,12.8413,0.0],[-87.5365,12.8365,2.1955],[-87.5335,12.8276,0.0],[-87.5271,12.8271,6.839],[-87.5215,12.8232,1.3156],[-87.5182,12.8176,6.1596],[-87.5165,12.8074,3.05],[-87.5082,12.8057,2.6022],[-87.5068,12.8093,1.7958],[-87.5113,12.8237,2.5458],[-87.5135,12.8257,0.0],[-87.5171,12.8251,2.5859],[-87.5165,12.8296,0.0],[-87.5263,12.8365,0.0],[-87.524,12.8393,0.0],[-87.5251,12.8396,3.5822],[-87.5243,12.8432,0.0],[-87.5265,12.8446,0.0],[-87.5229,12.8477,2.4207],[-87.5174,12.846,1.3933],[-87.5126,12.8529,2.1172],[-87.5096,12.8482,0.0],[-87.5046,12.8499,2.3398],[-87.5029,12.8418,0.0],[-87.5054,12.8376,0.0],[-87.504,12.8335,5.4255],[-87.506,12.8282,0.0],[-87.5099,12.8282,5.5945],[-87.5049,12.8085,0.0],[-87.4868,12.7913,0.0],[-87.4804,12.7988,6.4127],[-87.4788,12.8031,0.0],[-87.4776,12.801,3.422],[-87.4796,12.8004,0.0],[-87.4818,12.7954,4.3831],[-87.4826,12.7849,0.0],[-87.4785,12.7782,0.0],[-87.4749,12.7796,0.0],[-87.4774,12.7774,0.0],[-87.4762,12.774,0.0],[-87.469,12.7749,0.0],[-87.471,12.7729,0.0],[-87.4749,12.7724,0.0],[-87.4751,12.771,0.0],[-87.4563,12.7776,0.0],[-87.449,12.7863,1.9942],[-87.4424,12.7863,2.3004],[-87.449,12.7846,0.0],[-87.4546,12.7771,0.0],[-87.4629,12.7729,0.0],[-87.4646,12.7699,0.0],[-87.4615,12.769,0.0],[-87.4524,12.751,3.692],[-87.4463,12.7493,3.5203],[-87.4413,12.7518,1.6035],[-87.4368,12.751,2.5285],[-87.4388,12.7504,0.8939],[-87.4385,12.7485,1.2492],[-87.4404,12.7496,0.8939],[-87.4474,12.7476,1.3894],[-87.4529,12.7488,0.0],[-87.4574,12.7521,0.0],[-87.459,12.7557,0.0],[-87.4582,12.7588,0.0],[-87.4638,12.761,1.7915],[-87.4651,12.7646,0.0],[-87.4743,12.7654,5.055],[-87.4746,12.7607,3.7881],[-87.4454,12.7369,0.0],[-87.4315,12.7176,1.5644],[-87.4185,12.7101,0.0],[-87.4118,12.7024,0.9767],[-87.3962,12.6915,0.0],[-87.3926,12.6843,1.9087],[-87.3938,12.6804,0.0],[-87.3921,12.6771,0.0],[-87.3926,12.6743,0.0],[-87.3887,12.6715,0.0],[-87.3868,12.674,3.6408],[-87.3857,12.6707,0.0],[-87.3871,12.6679,0.0],[-87.3849,12.6651,0.0],[-87.3829,12.6659,9.2406],[-87.3804,12.6638,18.3156],[-87.3807,12.6601,0.0],[-87.3774,12.6596,1.1801],[-87.3726,12.6518,3.8234],[-87.364,12.6432,7.2971],[-87.3635,12.6415,7.2625],[-87.366,12.6388,0.0],[-87.3629,12.6379,5.6401],[-87.3624,12.6346,16.1008],[-87.3665,12.6318,0.0],[-87.3618,12.6321,12.4471],[-87.3562,12.629,14.5107],[-87.3524,12.624,1.0081],[-87.3424,12.6165,2.0019],[-87.3401,12.6191,5.4011],[-87.3399,12.6215,4.8783],[-87.3421,12.6232,6.0936],[-87.3407,12.6285,1.1297],[-87.3276,12.6379,2.9843],[-87.3229,12.6363,0.0],[-87.3165,12.6399,0.0],[-87.3166,12.6443,0.0],[-87.3213,12.6532,3.6641],[-87.3201,12.6538,4.4944],[-87.3154,12.6465,0.0],[-87.3143,12.6435,0.8557],[-87.3176,12.6374,0.0],[-87.3176,12.6335,4.2399],[-87.3236,12.6349,0.0],[-87.3282,12.6332,1.1682],[-87.3343,12.6274,0.0],[-87.3357,12.624,0.0],[-87.3335,12.6224,0.0],[-87.3299,12.6235,0.0],[-87.3229,12.6188,6.1938],[-87.3199,12.6143,2.4729],[-87.3149,12.6129,3.3817],[-87.3207,12.6138,2.4729],[-87.3279,12.6201,0.0],[-87.3304,12.6204,1.7896],[-87.3421,12.6101,2.6542],[-87.3479,12.6115,4.5874],[-87.3499,12.6074,0.0],[-87.3468,12.6035,0.0],[-87.344,12.6049,0.5135],[-87.3423,12.6087,3.2586],[-87.3387,12.6085,0.0],[-87.3301,12.6057,3.7568],[-87.3165,12.5982,0.0],[-87.3125,12.6021,0.0],[-87.3029,12.5961,0.9698],[-87.2959,12.5949,4.4131],[-87.2937,12.5973,4.3302],[-87.2885,12.5883,6.2677],[-87.2852,12.5853,4.4576],[-87.281,12.5845,9.3793],[-87.2577,12.5854,7.4215],[-87.2507,12.5887,8.8615],[-87.2448,12.5973,6.3854],[-87.2397,12.6137,14.5494],[-87.2311,12.6239,16.1178],[-87.2251,12.6271,16.6582],[-87.2141,12.6259,17.8605],[-87.2073,12.6279,20.7978],[-87.2007,12.6348,24.1914],[-87.1658,12.652,47.7796],[-87.1525,12.6615,62.7264],[-87.1452,12.6728,71.9923],[-87.1414,12.689,74.5377],[-87.1289,12.7159,82.9377],[-87.1227,12.7412,65.2865]]],
[[[-87.6793,13.0782,0.0],[-87.6782,13.0785,0.0],[-87.6779,13.0799,0.0],[-87.6813,13.0788,0.0],[-87.6793,13.0782,0.0]]]]}}