{"type":"Feature","properties":{"GID_2":"NIC.16.9_1","GID_0":"NIC","country":"Nicaragua","GID_1":"NIC.16_1","province":"NuevaSegovia","NL_NAME_1":"NA","county":"Quilalí","VARNAME_2":"NA","NL_NAME_2":"NA","TYPE_2":"Municipio","ENGTYPE_2":"Municipality","CC_2":"NA","HASC_2":"NI.NS.QU","name":"Quilalí.county"},
"geometry":{"type": "MultiPolygon","coordinates": [[[[-86.0218,13.4972,411.2457],[-86.0164,13.5107,356.8326],[-86.0137,13.5136,387.5776],[-86.008,13.5138,404.3301],[-85.999,13.5085,375.4418],[-85.9899,13.5101,345.9796],[-85.9791,13.5095,340.5306],[-85.972,13.5062,347.6163],[-85.9586,13.4953,423.9189],[-85.9393,13.4832,327.1843],[-85.9349,13.4784,326.7824],[-85.9305,13.4695,363.3869],[-85.9275,13.4676,379.3079],[-85.9188,13.4693,344.7579],[-85.9147,13.4675,321.125],[-85.91,13.4622,321.1066],[-85.9069,13.4643,319.5],[-85.9039,13.4692,392.7039],[-85.9027,13.4839,341.8931],[-85.8982,13.4886,406.778],[-85.8854,13.4956,352.1745],[-85.8798,13.5007,361.6369],[-85.8789,13.5054,339.5579],[-85.8812,13.5078,318.349],[-85.9059,13.5165,350.5628],[-85.9115,13.52,398.3401],[-85.9219,13.5335,384.9057],[-85.9284,13.5503,464.2357],[-85.9297,13.5639,532.5535],[-85.928,13.573,612.4818],[-85.9185,13.594,637.9949],[-85.9168,13.6357,507.2884],[-85.9489,13.6451,720.1813],[-85.9828,13.6469,560.2834],[-86.0102,13.6399,560.7308],[-86.0088,13.6317,440.3978],[-86.0095,13.628,477.8139],[-86.0135,13.6228,503.1144],[-86.016,13.6232,420.9542],[-86.0235,13.632,467.7164],[-86.0381,13.6353,434.3533],[-86.0404,13.6376,473.2632],[-86.0451,13.65,509.5722],[-86.0516,13.6534,579.0489],[-86.0568,13.6538,461.1694],[-86.0658,13.6491,481.6509],[-86.0743,13.6524,628.2574],[-86.0862,13.6517,512.437],[-86.0952,13.6578,485.7965],[-86.11,13.6484,533.2655],[-86.1184,13.6466,552.6584],[-86.1338,13.6498,510.9584],[-86.1419,13.656,521.7542],[-86.1558,13.6409,538.0874],[-86.1711,13.618,689.6216],[-86.1777,13.6123,724.5884],[-86.1717,13.6093,827.9276],[-86.1488,13.587,762.6533],[-86.1135,13.5616,879.6362],[-86.1041,13.549,730.1839],[-86.1013,13.5273,951.7101],[-86.0935,13.5201,1072.4771],[-86.073,13.5068,518.8287],[-86.0611,13.494,389.1628],[-86.0499,13.4935,462.7197],[-86.0218,13.4972,411.2457]]]]}}