{"type":"Feature","properties":{"GID_2":"NIC.8.2_1","GID_0":"NIC","country":"Nicaragua","GID_1":"NIC.8_1","province":"Granada","NL_NAME_1":"NA","county":"Diriomo","VARNAME_2":"NA","NL_NAME_2":"NA","TYPE_2":"Municipio","ENGTYPE_2":"Municipality","CC_2":"NA","HASC_2":"NI.GR.DO","name":"Diriomo.county"},
"geometry":{"type": "MultiPolygon","coordinates": [[[[-86.0581,11.8238,240.9332],[-86.0596,11.8158,252.8335],[-86.0544,11.8064,202.6548],[-86.0479,11.802,205.6583],[-86.0435,11.8011,181.4431],[-86.0345,11.8035,188.7308],[-86.0247,11.8094,220.8088],[-86.0144,11.8196,278.9213],[-86.0093,11.8455,371.3189],[-85.9936,11.8669,296.168],[-85.9874,11.8781,240.3658],[-85.9994,11.8832,279.5545],[-86.0245,11.8854,355.3191],[-86.0235,11.8801,320.8986],[-86.0342,11.8713,319.6281],[-86.0552,11.866,326.7189],[-86.0588,11.8633,310.6719],[-86.0583,11.8472,290.4042],[-86.0556,11.8343,267.8931],[-86.0581,11.8238,240.9332]]]]}}