{"type":"Feature","properties":{"featurecla":"River","scalerank":8,"rivernum":808,"dissolve":"808River","name":"Mico1","name_alt":null,"note":null,"min_zoom":7.0,"strokeweig":0.2,"name_en":"Mico","min_label":8.0},
"geometry":{"type": "LineString","coordinates": [[-84.594091796874991,12.094989324994117,146.2424],[-84.567724609374991,12.08112213749412,141.3954],[-84.554443359375,12.077899481244117,76.1936],[-84.538134765624989,12.07953522343162,114.9529],[-84.526538085937489,12.08380768436912,76.1935],[-84.517260742187489,12.089862371869117,70.1063],[-84.500659179687489,12.105975653119117,95.8604],[-84.478271484375,12.12152741093162,140.553],[-84.426025390625,12.14032623905662,43.8244],[-84.370166015624989,12.17487213749412,33.6712],[-84.333666992187489,12.185809637494117,21.483],[-84.295166015625,12.18964264530662,22.1056],[-84.257421874999991,12.18817780155662,14.5873],[-84.2392578125,12.18366119999412,16.9752],[-84.185229492187489,12.16046784061912,12.2486],[-84.1484375,12.158319403119108,4.8301],[-84.137451171875,12.15289948124412,12.6274],[-84.132861328124989,12.14569733280662,20.1786],[-84.127197265625,12.12726471561912,18.7476],[-84.123388671874991,12.12140534061912,8.7566],[-84.114428710937489,12.117694403119117,17.9252],[-84.085375976562489,12.111835028119117,9.5359],[-84.072314453124989,12.111200262494108,24.9408],[-84.064550781249991,12.109881903119117,1.0],[-84.060473632812489,12.10590241093162,4.9374],[-84.057299804687489,12.10126373905662,4.0202],[-84.052197265625,12.09772369999412,4.288],[-84.043310546874991,12.09528229374412,6.6225],[-84.012255859374989,12.09186432499412,2.4768],[-83.996508789062489,12.091913153119108,0.5],[-83.988940429687489,12.090936590619108,0.5],[-83.981738281249989,12.087762762494108,2.6827],[-83.966967773437489,12.077655340619117,1.4698],[-83.962207031249989,12.07538483280662,8.2375],[-83.945361328124989,12.076044012494108,14.8658],[-83.938159179687489,12.08026764530662,7.716],[-83.932666015624989,12.08795807499412,10.5529],[-83.920825195312489,12.09882233280662,5.5619],[-83.9140625,12.101092840619117,2.2977],[-83.896582031249991,12.10138580936912,0.7901],[-83.888916015625,12.103045965619117,1.9197],[-83.88525390625,12.10797760624412,7.7717],[-83.885498046875,12.114520574994117,12.3378],[-83.884204101562489,12.12042877811912,12.0446],[-83.876025390624989,12.12335846561912,1.2307],[-83.858642578125,12.12677643436912,1.0448],[-83.826416015625,12.13934967655662,1.2079],[-83.806640625,12.14288971561912,0.6861],[-83.771411132812489,12.13886139530662,1.3568],[-83.75546875,12.123651434369108,8.3819],[-83.734228515624991,12.07172272343162,0.0]]}}