{"type":"Feature","properties":{"featurecla":"River","scalerank":7,"rivernum":523,"dissolve":"523River","name":"Ro1","name_alt":null,"note":null,"min_zoom":6.0,"strokeweig":0.2,"name_en":"Ro Grande de Matagalpa","min_label":7.0},
"geometry":{"type": "LineString","coordinates": [[-86.026293945312489,12.66193268436912,417.2734],[-86.018310546875,12.65607330936912,443.825],[-86.009765625,12.651141668744117,442.2527],[-86.000732421875,12.647723699994117,406.3463],[-85.991137695312489,12.64642975468162,399.5417],[-85.959765624999989,12.64728424686912,401.2388],[-85.948339843749991,12.645282293744117,390.6923],[-85.933447265624991,12.63898346561912,396.0646],[-85.903076171875,12.63129303593162,411.0743],[-85.87255859375,12.636102606244108,357.7226],[-85.845019531249989,12.65106842655662,370.0266],[-85.823583984374991,12.67377350468162,332.2965],[-85.80927734375,12.68060944218162,355.7302],[-85.809375,12.68537018436912,359.8784],[-85.811083984374989,12.69135162968162,371.0863],[-85.813574218749991,12.69513580936912,351.8676],[-85.816162109375,12.693622137494117,344.4881],[-85.79541015625,12.74127838749412,313.3635],[-85.776708984374991,12.751092840619108,304.1916],[-85.672705078124991,12.78668854374412,291.0225],[-85.670336914062489,12.796502996869108,308.0127],[-85.664355468749989,12.796747137494108,295.6425],[-85.656591796874991,12.79291412968162,284.1212],[-85.648876953125,12.79047272343162,266.7451],[-85.642260742187489,12.795038153119108,281.2241],[-85.6181640625,12.824579168744108,279.4837],[-85.594335937499991,12.835565496869108,267.7544],[-85.572802734374989,12.83405182499412,246.756],[-85.48779296875,12.79047272343162,253.0309],[-85.479418945312489,12.78168366093162,252.7541],[-85.473242187499991,12.77252838749412,233.068],[-85.464697265624991,12.76544830936912,273.8095],[-85.449316406249991,12.76251862186912,318.8576],[-85.439550781249991,12.75934479374412,327.9379],[-85.417285156249989,12.74518463749412,304.0104],[-85.401782226562489,12.74201080936912,356.757],[-85.39306640625,12.73895905155662,276.9546],[-85.382910156249991,12.73114655155662,230.8758],[-85.374560546874989,12.72125885624412,271.9478],[-85.37109375,12.71161530155662,245.1818],[-85.3642578125,12.70807526249412,222.1293],[-85.331225585937489,12.69696686405662,228.4042],[-85.312304687499989,12.68695709843162,230.4652],[-85.29638671875,12.686053778119117,276.2929],[-85.289160156249991,12.68060944218162,204.6729],[-85.29052734375,12.67780182499412,247.4704],[-85.295996093749991,12.65265534061912,242.1428],[-85.289160156249991,12.65265534061912,211.2377],[-85.272143554687489,12.663446356244108,217.7716],[-85.2609375,12.661737371869108,221.1083],[-85.229589843749991,12.627460028119117,279.5433],[-85.22314453125,12.62579987186912,245.2314],[-85.220263671874989,12.63556549686912,193.3068],[-85.216162109374991,12.639276434369108,190.2485],[-85.207128906249991,12.63580963749412,188.1841],[-85.197851562499991,12.629657293744117,249.4281],[-85.192919921874989,12.625360418744108,176.4426],[-85.186132812499991,12.625360418744108,224.1233],[-85.182226562499991,12.63165924686912,174.8605],[-85.179614257812489,12.63971588749412,201.622],[-85.178515624999989,12.649286199994108,207.6247],[-85.179296874999991,12.66010162968162,176.0858],[-85.162402343749989,12.654901434369108,219.461],[-85.154394531249991,12.66266510624412,188.5168],[-85.155444335937489,12.677508856244117,147.8841],[-85.165625,12.693622137494117,191.4356],[-85.152270507812489,12.706073309369117,152.8061],[-85.148876953125,12.707879949994108,142.8961],[-85.149340820312489,12.71088287968162,163.9967],[-85.142138671874989,12.716913153119108,299.2063],[-85.1337890625,12.721942449994117,170.8071],[-85.130859375,12.721551824994108,180.585],[-85.1265625,12.73627350468162,143.4972],[-85.123046875,12.76422760624412,251.3759],[-85.117846679687489,12.77619049686912,193.2045],[-85.098681640624989,12.79315827030662,180.2349],[-85.080004882812489,12.793573309369108,123.9367],[-85.0615234375,12.78375885624412,162.7306],[-85.032080078124991,12.761981512494117,137.7051],[-85.027197265624991,12.760028387494117,154.2879],[-85.023046874999991,12.76459381718162,137.2869],[-84.996508789062489,12.80267975468162,125.0396],[-84.987475585937489,12.810907293744108,136.2875],[-84.968505859375,12.81732819218162,147.6759],[-84.962988281249991,12.82086823124412,197.9825],[-84.959887695312489,12.82819244999412,138.5641],[-84.96142578125,12.844745184369117,151.9777],[-84.959570312499991,12.85187409061912,99.5],[-84.942138671875,12.86310455936912,253.6272],[-84.935961914062489,12.868670965619117,138.8127],[-84.92578125,12.883807684369117,284.1082],[-84.918627929687489,12.900262762494108,102.1159],[-84.898486328124989,12.89655182499412,192.353],[-84.875781249999989,12.911737371869108,105.5717],[-84.854833984374991,12.93146393436912,89.5115],[-84.840087890625,12.941278387494108,66.9351],[-84.828222656249991,12.942499090619108,93.4787],[-84.809423828124991,12.94757721561912,82.2256],[-84.795703124999989,12.94806549686912,93.2494],[-84.782885742187489,12.94489166874412,123.5295],[-84.776904296874989,12.940692449994117,96.6116],[-84.771582031249991,12.940057684369108,70.1181],[-84.760986328125,12.94806549686912,81.1003],[-84.755419921874989,12.95026276249412,56.6979],[-84.751147460937489,12.949335028119108,59.0879],[-84.748291015625,12.95026276249412,60.1708],[-84.746337890625,12.96527741093162,106.0639],[-84.742041015624991,12.97516510624412,101.2614],[-84.741064453124991,12.978534246869117,85.4751],[-84.739916992187489,12.99298737186912,54.0756],[-84.733642578125,13.02631256718162,84.1704],[-84.729418945312489,13.03473541874412,78.4804],[-84.708349609374991,13.057489324994108,63.9601],[-84.700122070312489,13.06415436405662,54.8479],[-84.690234374999989,13.06610748905662,52.8572],[-84.666601562499991,13.06537506718162,45.8722],[-84.657958984375,13.07099030155662,58.7617],[-84.651708984374991,13.07099030155662,71.6245],[-84.645068359374989,13.06061432499412,49.4637],[-84.633154296874991,13.04657623905662,36.8924],[-84.620043945312489,13.03436920780662,23.5],[-84.609472656249991,13.029413153119108,53.0494],[-84.59765625,13.032977606244117,50.0536],[-84.592822265624989,13.039667059369108,64.8702],[-84.589648437499989,13.046649481244117,29.9506],[-84.582812499999989,13.051141668744108,29.4704],[-84.574072265624991,13.050897528119108,54.4152],[-84.566259765624991,13.04730866093162,98.9485],[-84.559863281249989,13.04205963749412,55.5037],[-84.555517578124991,13.036883856244117,55.8202],[-84.539721679687489,13.043719793744117,16.25],[-84.511962890625,13.05072662968162,45.6872],[-84.485400390624989,13.05341217655662,47.2194],[-84.473559570312489,13.04743073124412,43.5694],[-84.471484374999989,13.04047272343162,47.3328],[-84.465991210937489,13.03571198124412,18.9875],[-84.457934570312489,13.032733465619117,44.821],[-84.4482421875,13.03095123905662,41.3103]]}}