{"type":"Feature","properties":{"featurecla":"River","scalerank":8,"rivernum":808,"dissolve":"808River","name":"Mico","name_alt":null,"note":null,"min_zoom":7.0,"strokeweig":0.15,"name_en":"Mico","min_label":8.0},
"geometry":{"type": "LineString","coordinates": [[-85.109228515624991,12.20392487186912,522.5186],[-85.120947265624991,12.18402741093162,425.062],[-85.122900390624991,12.163690496869108,380.5685],[-85.116381835937489,12.14398834843162,339.2535],[-85.1025390625,12.12567780155662,358.7717],[-85.084643554687489,12.11286041874412,395.5613],[-84.973925781249989,12.07050202030662,263.0374],[-84.949462890625,12.052752996869117,267.5478],[-84.93701171875,12.047870184369117,241.4601],[-84.922900390624989,12.05353424686912,252.1963],[-84.913671874999991,12.063836981244108,265.6801],[-84.895117187499991,12.10065338749412,290.7542],[-84.886816406249991,12.111835028119117,324.9386],[-84.877001953124989,12.119989324994108,252.1833],[-84.833251953125,12.14154694218162,213.7964],[-84.816943359374989,12.145282293744117,170.9625],[-84.775634765625,12.14484284061912,259.3156],[-84.746826171875,12.14765045780662,291.7598],[-84.733251953124991,12.14704010624412,130.5729],[-84.719775390624989,12.140741278119108,132.3303],[-84.697607421874991,12.11810944218162,137.3228],[-84.688891601562489,12.11163971561912,159.4548],[-84.665869140624991,12.10394928593162,166.0671],[-84.618212890624989,12.10175202030662,119.7479],[-84.594091796874991,12.094989324994117,146.2424]]}}