{"type":"Feature","properties":{"GID_1":"NIC.4_1","GID_0":"NIC","country":"Nicaragua","province":"Carazo","VARNAME_1":"NA","NL_NAME_1":"NA","TYPE_1":"Departamento","ENGTYPE_1":"Department","CC_1":"NA","HASC_1":"NI.CA","ISO_1":"NI-CA","name":"Carazo.province"},
"geometry":{"type": "MultiPolygon","coordinates": [[[[-86.1049,11.8014,305.0301],[-86.0937,11.814,274.5332],[-86.0854,11.8288,272.1503],[-86.0912,11.8348,299.2216],[-86.1012,11.8399,328.2971],[-86.137,11.8473,456.9509],[-86.1486,11.8539,479.7331],[-86.1538,11.8605,485.4159],[-86.1569,11.8817,486.8374],[-86.1597,11.8843,478.5104],[-86.1876,11.8966,516.843],[-86.1919,11.9032,531.0438],[-86.1945,11.9142,525.7196],[-86.1974,11.9185,516.726],[-86.2067,11.923,532.7261],[-86.2503,11.9341,670.4594],[-86.2599,11.9382,734.7579],[-86.2757,11.9482,812.5763],[-86.284,11.9511,828.6245],[-86.3659,11.8372,245.6349],[-86.3711,11.8246,205.7464],[-86.3739,11.813,158.5091],[-86.376,11.8124,143.7307],[-86.3941,11.7904,99.2893],[-86.4101,11.786,75.1562],[-86.4179,11.782,72.3051],[-86.4357,11.7671,44.8117],[-86.4405,11.7575,37.6589],[-86.436,11.7512,61.5316],[-86.4358,11.7421,26.2463],[-86.4311,11.7366,21.706],[-86.4284,11.729,20.127],[-86.4302,11.7235,11.2497],[-86.4385,11.7182,2.3619],[-86.4051,11.6979,3.9595],[-86.3896,11.6815,0.0],[-86.384,11.6799,2.1998],[-86.3849,11.6776,1.2356],[-86.3815,11.6765,6.9731],[-86.381,11.6738,0.0],[-86.3662,11.6563,0.0],[-86.3621,11.6485,0.0],[-86.3601,11.6482,3.1071],[-86.3599,11.6449,0.0],[-86.3504,11.6321,0.0],[-86.3485,11.6357,5.3499],[-86.3463,11.6313,0.0],[-86.3415,11.6288,7.4913],[-86.3418,11.6257,0.0],[-86.3293,11.6165,0.0],[-86.3279,11.6165,0.0],[-86.3279,11.6182,0.0],[-86.3232,11.6135,0.0],[-86.3221,11.6149,0.0],[-86.3154,11.6124,2.987],[-86.3079,11.6065,0.0],[-86.301,11.6049,0.0],[-86.2946,11.601,0.0],[-86.2901,11.6013,6.7672],[-86.2887,11.6004,0.0],[-86.2904,11.6001,0.0],[-86.2899,11.5988,0.0],[-86.2704,11.5913,1.0469],[-86.254,11.5818,0.0],[-86.2532,11.5782,0.0],[-86.2499,11.5754,0.0],[-86.251,11.5737,0.0],[-86.2468,11.5707,0.0],[-86.2312,11.5643,7.8998],[-86.2213,11.5579,2.6252],[-86.2193,11.5549,0.0],[-86.2129,11.5537,0.0],[-86.2057,11.5501,8.1187],[-86.201,11.5438,2.5757],[-86.2015,11.5396,0.0],[-86.1982,11.5399,0.41],[-86.1876,11.5346,6.0866],[-86.1843,11.5299,0.0],[-86.1776,11.5262,6.379],[-86.1771,11.5201,0.0],[-86.174,11.5187,0.0],[-86.1665,11.5231,5.6968],[-86.1621,11.5279,16.8423],[-86.1619,11.5355,10.6784],[-86.157,11.5392,12.6752],[-86.1559,11.5423,14.0163],[-86.1575,11.5503,21.29],[-86.1506,11.5557,21.9377],[-86.1466,11.5712,29.1895],[-86.1178,11.5985,61.6359],[-86.1135,11.6048,66.1713],[-86.1226,11.6246,127.7956],[-86.13,11.6326,133.1217],[-86.1348,11.6405,290.3766],[-86.1349,11.6451,305.0175],[-86.1291,11.6613,276.3202],[-86.1289,11.6676,374.59],[-86.1338,11.6982,204.7359],[-86.1317,11.7043,181.8831],[-86.1267,11.7069,165.9461],[-86.1064,11.7079,142.1421],[-86.1031,11.7093,135.5369],[-86.0978,11.7183,126.7402],[-86.0973,11.7305,139.9993],[-86.1089,11.7618,215.1752],[-86.112,11.7809,285.6616],[-86.111,11.7933,305.8839],[-86.1049,11.8014,305.0301]]]]}}