{"type":"Feature","properties":{"ISO3166-1-Alpha-3":"NIC","country":"Nicaragua","fill":"#F0F","id":"654","name":"Carazo"},
"geometry":{"type": "Polygon","coordinates": [[[-86.07247,11.85618,315.5006],[-86.08112,11.8585,320.7434],[-86.1343,11.87403,486.8447],[-86.1366,11.87648,489.8122],[-86.14975,11.89436,465.5833],[-86.17908,11.90798,471.3748],[-86.27052,11.94423,767.4567],[-86.28142,11.957,788.9849],[-86.29328,11.93925,830.0045],[-86.35586,11.88925,403.1476],[-86.37521,11.85817,220.4908],[-86.3825,11.85119,200.373],[-86.40955,11.8314,171.7168],[-86.41994,11.81638,116.0542],[-86.43242,11.80463,86.668],[-86.43632,11.80272,81.7688],[-86.44177,11.80068,76.9519],[-86.45319,11.79791,62.3571],[-86.45929,11.79711,57.2291],[-86.4672,11.7968,49.3708],[-86.47717,11.79081,39.6695],[-86.50226,11.76685,1.4183],[-86.50234,11.76678,1.4183],[-86.49637,11.75943,0.0],[-86.37662,11.66946,4.1037],[-86.36539,11.63797,0.0],[-86.35208,11.62263,0.0],[-86.33646,11.61135,0.0],[-86.24437,11.5716,2.0636],[-86.20714,11.53604,0.0],[-86.17614,11.52241,32.6278],[-86.1752,11.51947,0.0],[-86.17512,11.51961,0.0],[-86.14626,11.57183,42.0971],[-86.13972,11.58405,32.3654],[-86.13662,11.58792,89.9116],[-86.10169,11.61082,58.5562],[-86.11944,11.6328,97.6541],[-86.122,11.64185,176.9443],[-86.12321,11.65629,196.3204],[-86.1191,11.68719,252.8461],[-86.10983,11.70559,149.5638],[-86.09787,11.72184,127.2042],[-86.09551,11.73068,139.0832],[-86.09567,11.74241,159.508],[-86.09998,11.75931,192.0856],[-86.10347,11.78391,270.834],[-86.09781,11.80902,290.7299],[-86.07735,11.84553,294.0883],[-86.07247,11.85618,315.5006]]]}}