{"type": "Feature","bbox": [-86.7472,12.8476,-86.1091,13.4316],"geometry": {"type": "MultiPolygon","coordinates": [[[[-86.2635,12.9022,1117.908],[-86.2535,12.9098,1137.0461],[-86.2403,12.9156,1066.6199],[-86.2166,12.9294,539.7083],[-86.2031,12.9338,487.8441],[-86.1792,12.9363,499.563],[-86.1666,12.9413,504.5653],[-86.1576,12.9521,503.382],[-86.1538,12.9658,724.6349],[-86.1395,12.9956,512.3859],[-86.1402,12.9991,516.5431],[-86.145,13.0044,584.2181],[-86.1449,13.0075,576.9919],[-86.1375,13.0093,504.3593],[-86.1335,13.0124,538.9929],[-86.1267,13.0236,545.6809],[-86.1144,13.0262,647.1611],[-86.1106,13.0306,698.4575],[-86.1091,13.0439,566.8035],[-86.1105,13.0546,761.0917],[-86.1149,13.062,882.4105],[-86.1209,13.0656,958.2355],[-86.1494,13.0754,903.8687],[-86.185,13.0937,850.1757],[-86.2194,13.1272,978.6186],[-86.2299,13.1439,1137.6743],[-86.2322,13.1531,1096.1091],[-86.2507,13.1646,1229.197],[-86.2611,13.1766,1352.666],[-86.2617,13.1853,1355.9081],[-86.2387,13.2228,1417.067],[-86.238,13.228,1394.1869],[-86.2425,13.2341,1394.2407],[-86.2448,13.2406,1376.941],[-86.2402,13.2435,1384.6415],[-86.2302,13.2448,1373.2079],[-86.2288,13.2472,1369.191],[-86.2338,13.2624,1141.6976],[-86.2322,13.2834,1035.8749],[-86.2387,13.3132,904.814],[-86.2401,13.3261,833.2573],[-86.2384,13.3312,754.4637],[-86.2314,13.3402,792.0547],[-86.2316,13.3442,748.8482],[-86.2355,13.3499,763.0657],[-86.2297,13.3546,779.479],[-86.2331,13.363,713.696],[-86.2218,13.3759,769.1833],[-86.221,13.385,704.7806],[-86.2371,13.4185,1363.1963],[-86.2434,13.4242,1324.0281],[-86.253,13.4276,1210.248],[-86.2838,13.4315,1039.9917],[-86.2969,13.4316,1137.1602],[-86.334,13.425,885.1537],[-86.3717,13.4147,559.5806],[-86.3967,13.4108,537.1899],[-86.418,13.4038,561.4178],[-86.435,13.4017,608.3358],[-86.4455,13.403,623.0576],[-86.4691,13.4135,664.0659],[-86.5186,13.429,819.9189],[-86.5317,13.4296,871.5],[-86.5469,13.4254,990.2043],[-86.5602,13.4104,1077.427],[-86.5688,13.3931,1129.1348],[-86.5972,13.3477,1541.0728],[-86.6162,13.3015,1580.9292],[-86.6236,13.289,1437.6677],[-86.6486,13.2658,978.8771],[-86.7057,13.2082,320.4328],[-86.7162,13.201599999999999,286.9436],[-86.7305,13.1877,261.6258],[-86.7421,13.1667,252.9636],[-86.7472,13.1497,198.4324],[-86.7464,13.1215,204.3413],[-86.7401,13.0995,176.0993],[-86.7377,13.0955,167.4102],[-86.7331,13.0946,157.9446],[-86.7116,13.0998,170.5473],[-86.6926,13.0982,156.3884],[-86.6819,13.0942,160.0865],[-86.6618,13.0788,231.0898],[-86.6576,13.077,240.8188],[-86.6468,13.0764,335.6487],[-86.6372,13.0781,426.2034],[-86.627,13.0825,404.2444],[-86.5938,13.1035,660.1992],[-86.5545,13.1144,655.9863],[-86.5407,13.1158,780.9191],[-86.51,13.1114,1042.5334],[-86.4854,13.1107,1209.4495],[-86.4764,13.108,1037.0139],[-86.4635,13.0957,792.4167],[-86.4583,13.0865,901.2015],[-86.4512,13.066,811.4725],[-86.4459,13.0564,1171.3114],[-86.4224,13.0301,859.3936],[-86.4089,13.0112,1078.4722],[-86.4084,13.0052,1211.6958],[-86.4109,12.9885,1181.1981],[-86.4153,12.9686,729.2368],[-86.4202,12.9572,657.1935],[-86.4322,12.9377,853.7202],[-86.4373,12.9233,988.7469],[-86.4367,12.9139,1006.8627],[-86.4334,12.9047,999.563],[-86.4221,12.8917,644.9622],[-86.3525,12.861,571.6882],[-86.292,12.8481,1033.5974],[-86.2752,12.8476,899.1945],[-86.2721,12.8491,902.9393],[-86.2663,12.8951,854.4154],[-86.2635,12.9022,1117.908]]]]}
,"properties": {"GID_1": "NIC.7_1","GID_0": "NIC","country": "Nicaragua","province": "Estelí","VARNAME_1": "Estel¡","NL_NAME_1": "NA","TYPE_1": "Departamento","ENGTYPE_1": "Department","CC_1": "NA","HASC_1": "NI.ES","ISO_1": "NA","name": "Estelí.province","area_km2": 2360.645,"hist_schema_id": "Elevation0-9000","hist_area_km2": {"100": 0.392,"125": 2.127,"150": 6.03,"175": 5.782,"200": 6.711,"225": 9.313,"250": 11.81,"275": 23.144,"300": 38.854,"325": 32.742,"350": 28.923,"375": 25.6,"400": 21.285,"425": 19.469,"450": 19.862,"475": 19.656,"500": 22.425,"525": 29.857,"550": 47.418,"575": 57.303,"600": 62.631,"625": 62.056,"650": 62.175,"675": 65.042,"700": 67.664,"725": 66.939,"750": 65.205,"775": 63.784,"800": 84.265,"825": 94.591,"850": 91.205,"875": 83.859,"900": 78.554,"925": 81.671,"950": 82.5,"975": 73.356,"1000": 70.608,"1025": 70.031,"1050": 68.566,"1075": 66.934,"1100": 58.366,"1125": 54.404,"1150": 49.862,"1175": 44.471,"1200": 42.138,"1225": 39.184,"1250": 37.204,"1275": 31.814,"1300": 27.229,"1325": 19.428,"1350": 17.095,"1375": 17.322,"1400": 10.962,"1425": 6.173,"1450": 3.84,"1475": 2.952,"1500": 2.622,"1525": 1.755,"1550": 1.114,"1575": 0.949,"1600": 0.351,"1625": 0.351,"1650": 0.371,"1675": 0.309,"1700": 0.041}}}