{"type": "Feature","id": "664","bbox": [-86.73222,12.84852,-86.09952,13.43812],"geometry": {"type": "Polygon","coordinates": [[[-86.21295,13.39035,664.2741],[-86.22101,13.40376,918.8204],[-86.23091,13.42572,1283.3347],[-86.23494,13.4322,1198.9694],[-86.25375,13.43812,1000.8779],[-86.30938,13.43546,926.3662],[-86.38612,13.41133,538.054],[-86.42839,13.40438,584.3091],[-86.47123,13.42425,690.06],[-86.4858,13.43122,737.3062],[-86.49629,13.43445,730.0923],[-86.52283,13.43045,877.7515],[-86.56277,13.39681,911.6721],[-86.60388,13.3264,1680.2716],[-86.61228,13.30883,1506.5317],[-86.63096,13.28296,1369.4846],[-86.71493,13.20036,325.6474],[-86.72548,13.19116,280.9004],[-86.72641,13.18997,269.8866],[-86.72894,13.18085,283.328],[-86.73222,13.14966,500.3961],[-86.7207,13.09023,188.8458],[-86.70336,13.09703,202.6323],[-86.69377,13.09783,161.2241],[-86.68054,13.09757,192.2186],[-86.66465,13.09233,241.0676],[-86.64525,13.08303,347.8254],[-86.63341,13.08388,383.649],[-86.61305,13.0883,666.8815],[-86.54709,13.10995,798.2823],[-86.49118,13.12152,1078.1066],[-86.47906,13.11824,1288.7621],[-86.47149,13.11452,1198.5015],[-86.45337,13.09667,1103.4867],[-86.42707,13.05396,1188.3351],[-86.41692,13.04042,1144.6069],[-86.41172,13.03181,1135.2365],[-86.40472,13.00691,1238.3599],[-86.40684,12.97551,788.4022],[-86.42885,12.9373,853.5444],[-86.43022,12.92575,813.2321],[-86.42994,12.9173,857.9233],[-86.41996,12.89976,891.988],[-86.38635,12.8833,325.6422],[-86.2639,12.84852,939.95],[-86.25832,12.88449,704.5524],[-86.24243,12.91683,1074.2339],[-86.23889,12.92097,1062.8398],[-86.23117,12.92826,661.0351],[-86.20894,12.94061,564.1102],[-86.19719,12.94464,666.061],[-86.17158,12.95011,602.7237],[-86.1589,12.95446,538.0658],[-86.15058,12.96019,560.0798],[-86.14613,12.96554,627.4592],[-86.1437,12.97099,656.8249],[-86.13722,12.99673,498.2847],[-86.09952,13.04701,561.1765],[-86.11518,13.06566,962.9617],[-86.15905,13.09101,855.2032],[-86.23445,13.16457,1162.3875],[-86.24142,13.17511,1217.7407],[-86.24786,13.18914,1309.0677],[-86.23615,13.20813,1218.9302],[-86.2331,13.22477,1423.2992],[-86.23569,13.23725,1407.8926],[-86.22124,13.27883,962.5055],[-86.23039,13.32172,908.744],[-86.23005,13.34304,781.3027],[-86.22726,13.3598,686.1927],[-86.22148,13.37526,843.7881],[-86.21295,13.39035,664.2741]]]}
,"properties": {"ISO3166-1-Alpha-3": "NIC","country": "Nicaragua","fill": "#F0F","name": "Estelí","area_km2": 2367.78,"hist_schema_id": "Elevation0-9000","hist_area_km2": {"100": 0.083,"125": 1.652,"150": 4.708,"175": 4.749,"200": 5.472,"225": 7.371,"250": 9.663,"275": 20.233,"300": 36.335,"325": 30.698,"350": 27.23,"375": 24.237,"400": 20.046,"425": 18.085,"450": 18.705,"475": 18.374,"500": 20.42,"525": 28.08,"550": 46.529,"575": 58.231,"600": 62.629,"625": 63.024,"650": 64.03,"675": 67.268,"700": 69.893,"725": 70.489,"750": 68.879,"775": 66.095,"800": 85.585,"825": 96.902,"850": 92.257,"875": 84.746,"900": 79.689,"925": 81.485,"950": 83.284,"975": 73.974,"1000": 70.525,"1025": 70.257,"1050": 69.37,"1075": 67.821,"1100": 59.088,"1125": 53.99,"1150": 49.118,"1175": 44.326,"1200": 42.756,"1225": 40.463,"1250": 38.483,"1275": 33.32,"1300": 28.488,"1325": 20.521,"1350": 17.941,"1375": 17.796,"1400": 11.973,"1425": 6.957,"1450": 3.86,"1475": 2.931,"1500": 2.395,"1525": 1.734,"1550": 0.97,"1575": 0.846,"1600": 0.268,"1625": 0.186,"1650": 0.124,"1675": 0.124,"1700": 0.021}}}