{"type":"Feature","properties":{"featurecla":"River","scalerank":10,"rivernum":22175,"dissolve":"22175River","name":"null19","name_alt":null,"note":"ID is link back to CEC data","name_full":null,"min_zoom":6.0,"strokeweig":0.15,"uident":2060701,"min_label":7.0},
"geometry":{"type": "LineString","coordinates": [[-86.302967902728724,13.182440496869035,1205.688],[-86.290598111062067,13.143622137494035,1162.4725],[-86.246774868874567,13.097967840619035,985.3245],[-86.228993293353724,13.087266343223206,1232.8528],[-86.138661262103724,13.086004949994035,1001.7164],[-86.1124568350204,13.055690822389877,663.7273],[-86.113270637103724,13.029160874473206,661.1237]]}}