{"type":"Feature","properties":{"featurecla":"River","scalerank":10,"rivernum":22175,"dissolve":"22175River","name":"null972","name_alt":null,"note":"ID is link back to CEC data","name_full":null,"min_zoom":6.0,"strokeweig":0.2,"uident":2060701,"min_label":7.0},
"geometry":{"type": "LineString","coordinates": [[-86.113270637103724,13.029160874473206,661.1237],[-86.114084439187067,13.003485418744035,560.7717],[-86.1607966787704,12.949571030723206,485.5141],[-86.194691535541224,12.871039129681535,453.1803],[-86.2101130850204,12.805487371869035,444.8358],[-86.261545376687067,12.742254949994035,442.8312],[-86.278675910541224,12.724636134889877,264.0322],[-86.288807746478724,12.636501369264877,163.1901],[-86.328358527728724,12.612616278119035,91.1444],[-86.342600064187067,12.599229233848206,74.3845],[-86.3509822256454,12.588161525514877,65.6575],[-86.353749152728724,12.582342840619035,64.1545],[-86.354847785541224,12.577337957806535,62.5023],[-86.354603644916224,12.573797918744035,61.8786],[-86.356312629291224,12.563544012494035,56.9981],[-86.356312629291224,12.559881903119035,57.785],[-86.355824348041224,12.556992905723206,57.6769],[-86.356068488666224,12.552435614056535,56.1576],[-86.357411262103724,12.546087957806535,55.4508],[-86.3634333975204,12.528509832806535,51.1368],[-86.3644099600204,12.523789780723206,52.1262],[-86.3639216787704,12.521022853639877,50.7517],[-86.362172004291224,12.515936590619035,49.0978],[-86.361073371478724,12.513495184369035,48.021],[-86.3514705068954,12.500108140098206,45.2312],[-86.351185676166224,12.499823309369035,45.2312],[-86.345326301166224,12.494696356244035,47.0544],[-86.342640754291224,12.480536199994035,42.0076]]}}