{"type":"Feature","properties":{"GID_2":"NIC.16.1_1","GID_0":"NIC","country":"Nicaragua","GID_1":"NIC.16_1","province":"NuevaSegovia","NL_NAME_1":"NA","county":"CiudadAntigua","VARNAME_2":"NA","NL_NAME_2":"NA","TYPE_2":"Municipio","ENGTYPE_2":"Municipality","CC_2":"NA","HASC_2":"NI.NS.CA","name":"Ciudad_Antigua.county"},
"geometry":{"type": "MultiPolygon","coordinates": [[[[-86.1894,13.6074,878.2723],[-86.2001,13.6279,682.8077],[-86.2276,13.6551,729.0783],[-86.2315,13.6768,670.2108],[-86.2307,13.6867,696.7142],[-86.27,13.6728,784.606],[-86.3072,13.6538,645.4676],[-86.362,13.6414,638.7959],[-86.3801,13.6348,625.0074],[-86.3899,13.6286,602.1323],[-86.3939,13.6198,561.0237],[-86.3937,13.6175,592.2077],[-86.3904,13.6158,569.0873],[-86.3785,13.6132,562.8771],[-86.3584,13.6041,509.8224],[-86.3494,13.5944,569.5604],[-86.3397,13.5899,585.2963],[-86.3317,13.589,600.5757],[-86.3221,13.5925,575.9974],[-86.3048,13.5888,725.5451],[-86.2852,13.5768,758.2966],[-86.2699,13.5612,649.1606],[-86.2523,13.5472,705.1243],[-86.2415,13.5418,812.2954],[-86.2362,13.5412,937.6354],[-86.229,13.55,899.54],[-86.225,13.5607,852.1397],[-86.2184,13.6008,850.8216],[-86.2093,13.6067,796.948],[-86.2038,13.6071,736.5958],[-86.194,13.6046,840.003],[-86.191,13.605,911.015],[-86.1894,13.6074,878.2723]]]]}}