{"type": "Feature","bbox": [-85.5133,13.0268,-81.9999,15.0259],"geometry": {"type": "MultiPolygon","coordinates": [[[[-83.3785,13.031,0.0],[-83.3782,13.0329,0.0],[-83.3796,13.0329,0.0],[-83.3793,13.0268,0.0],[-83.3785,13.0271,0.0],[-83.3785,13.031,0.0]]],
[[[-83.3587,13.0321,0.0],[-83.3601,13.0312,1.7735],[-83.3593,13.0296,0.9681],[-83.3582,13.0299,0.9681],[-83.3587,13.0321,0.0]]],
[[[-83.5607,13.6607,0.5],[-83.566,13.6607,0.5],[-83.5629,13.6524,2.1642],[-83.5607,13.656,10.5344],[-83.5546,13.6579,2.5821],[-83.5549,13.6593,0.5],[-83.559,13.6582,9.3596],[-83.5607,13.6607,0.5]]],
[[[-83.5388,13.6732,0.5],[-83.5418,13.6732,0.5],[-83.5432,13.6688,6.8067],[-83.5335,13.6671,5.1155],[-83.5332,13.6682,5.1155],[-83.5362,13.6696,7.7446],[-83.5388,13.6732,0.5]]],
[[[-85.1134,13.2815,173.3802],[-85.1049,13.2889,149.5412],[-85.0953,13.2924,172.0979],[-85.0603,13.2852,169.9451],[-85.0024,13.2839,105.8232],[-84.9804,13.2795,110.9814],[-84.9672,13.2811,102.5104],[-84.9329,13.3139,108.6241],[-84.9081,13.3412,145.8015],[-84.8781,13.3685,101.925],[-84.8692,13.3741,91.7774],[-84.7437,13.2201,82.6505],[-84.6079,13.2406,58.7125],[-84.5812,13.2417,54.7849],[-84.5326,13.2498,82.0996],[-84.3356,13.256,58.3261],[-84.3211,13.2553,55.958],[-84.3103,13.2645,31.7486],[-84.3002,13.2771,29.795],[-84.2907,13.2821,34.144],[-84.2847,13.282,28.037],[-84.2797,13.2776,19.4341],[-84.2769,13.2771,30.8051],[-84.2717,13.28,30.9649],[-84.2638,13.2788,18.497],[-84.2599,13.2825,29.0248],[-84.2552,13.2835,16.1434],[-84.2499,13.2801,17.5112],[-84.2471,13.2706,15.6153],[-84.2431,13.2662,16.9364],[-84.2338,13.2645,23.241],[-84.2257,13.2667,34.7814],[-84.2138,13.2772,30.7306],[-84.1984,13.2868,24.9837],[-84.1924,13.2882,17.1425],[-84.1772,13.2878,28.1716],[-84.1646,13.2927,10.1193],[-84.147,13.2937,21.1305],[-84.144,13.2923,24.5666],[-84.1412,13.2851,8.575],[-84.1208,13.2097,19.1772],[-84.115,13.1944,4.2472],[-84.1132,13.1934,2.725],[-84.0996,13.197,18.154],[-84.0696,13.201,14.6434],[-84.0716,13.2132,7.155],[-84.0684,13.2194,4.7975],[-84.0612,13.2182,19.1049],[-84.0566,13.2146,9.9964],[-84.051,13.2054,9.6401],[-84.0344,13.2106,7.1306],[-84.0224,13.2212,19.2976],[-84.0176,13.2224,9.4119],[-84.0098,13.2186,23.597],[-84.0042,13.2236,15.7543],[-83.9848,13.224,4.2027],[-83.9828,13.2258,4.1481],[-83.9827,13.229,15.9677],[-83.9876,13.242,15.6809],[-83.9861,13.2449,6.3972],[-83.9889,13.2484,13.0263],[-83.9884,13.251,13.4796],[-83.9855,13.252,15.9068],[-83.9704,13.2537,4.6381],[-83.9396,13.254,20.1549],[-83.9251,13.2575,23.1665],[-83.9078,13.259,16.8622],[-83.8582,13.2588,13.17],[-83.8471,13.2522,10.578],[-83.8332,13.24,14.8758],[-83.8193,13.2409,18.4129],[-83.8107,13.2397,16.6004],[-83.8027,13.2359,12.64],[-83.7996,13.2325,13.1532],[-83.7988,13.2275,13.1847],[-83.8013,13.221,18.7931],[-83.8199,13.1912,19.8749],[-83.8306,13.1665,24.5141],[-83.8312,13.1607,23.0657],[-83.8297,13.1574,24.3684],[-83.822,13.1504,22.4985],[-83.7313,13.0933,35.9954],[-83.6924,13.0652,48.0071],[-83.6618,13.0467,51.4119],[-83.6469,13.036,37.5316],[-83.6438,13.0348,47.823],[-83.5883,13.0379,14.9996],[-83.5645,13.0353,1.9914],[-83.5464,13.0315,4.4489],[-83.5404,13.0324,0.0],[-83.5521,13.0957,2.0523],[-83.561,13.1554,3.0384],[-83.5663,13.1985,2.1045],[-83.5715,13.2649,0.9661],[-83.5726,13.2985,3.1306],[-83.5713,13.3404,3.7304],[-83.566,13.3832,2.7399],[-83.5599,13.4076,1.4148],[-83.5621,13.411,0.0],[-83.5657,13.4093,1.3688],[-83.5668,13.4035,1.1328],[-83.5682,13.4065,2.3956],[-83.5729,13.4085,2.179],[-83.5707,13.4104,2.2231],[-83.5587,13.4137,0.2225],[-83.5579,13.441,3.6974],[-83.5557,13.4574,4.8787],[-83.5529,13.4657,1.4551],[-83.5529,13.4707,0.0],[-83.5554,13.4696,1.1164],[-83.5571,13.4707,0.2973],[-83.559,13.4763,5.5026],[-83.5679,13.4779,4.9299],[-83.5607,13.4782,0.0],[-83.5582,13.4763,5.5026],[-83.5568,13.4718,0.2973],[-83.5504,13.4729,2.084],[-83.5482,13.471,0.0],[-83.5418,13.5035,5.9996],[-83.5338,13.5249,4.2603],[-83.5257,13.5379,6.1228],[-83.5251,13.5429,5.1929],[-83.526,13.5471,0.7048],[-83.531,13.5515,1.4417],[-83.5321,13.5579,0.0],[-83.5421,13.5593,1.1674],[-83.546,13.5615,3.531],[-83.5501,13.5821,8.1689],[-83.5501,13.5915,8.6576],[-83.5521,13.5926,0.5],[-83.5557,13.5918,0.5],[-83.5568,13.5865,4.4001],[-83.5574,13.5879,2.8617],[-83.5568,13.5913,0.5],[-83.5629,13.5932,3.9772],[-83.5687,13.5893,0.5],[-83.5779,13.5879,0.5],[-83.5815,13.5913,0.5],[-83.5815,13.5943,4.0562],[-83.5749,13.5971,1.922],[-83.5746,13.5999,1.8959],[-83.5799,13.5982,8.496],[-83.5826,13.5999,7.1668],[-83.5832,13.6024,0.5],[-83.5879,13.601,2.3365],[-83.5879,13.6029,0.5],[-83.5901,13.6024,0.5],[-83.5926,13.6054,0.5],[-83.5957,13.606,4.2932],[-83.594,13.6093,5.6706],[-83.5946,13.6171,11.5912],[-83.5904,13.6213,0.5],[-83.5896,13.6249,0.5],[-83.5862,13.6246,0.5],[-83.5862,13.6276,3.0239],[-83.5835,13.6299,0.5],[-83.581,13.639099999999999,8.4461],[-83.5701,13.6443,4.3],[-83.5704,13.6485,5.886],[-83.5671,13.6562,0.5],[-83.5771,13.6532,0.5],[-83.5879,13.641,2.4688],[-83.5915,13.6393,2.5696],[-83.5954,13.6338,0.5],[-83.5943,13.631,3.1219],[-83.5957,13.631,4.3227],[-83.5985,13.6332,1.9078],[-83.6001,13.6376,0.5],[-83.6046,13.6399,3.1295],[-83.604,13.641,8.0438],[-83.601,13.6393,3.9703],[-83.5976,13.6401,0.5],[-83.594,13.6451,6.1472],[-83.5993,13.6451,4.9842],[-83.6029,13.6429,10.0172],[-83.6107,13.6474,0.5],[-83.6146,13.6443,1.5674],[-83.6135,13.6474,0.5],[-83.621,13.651,0.5],[-83.6199,13.6515,0.5],[-83.6154,13.649,5.4417],[-83.6132,13.6496,0.5],[-83.6168,13.661,0.5],[-83.6176,13.6729,4.3763],[-83.6082,13.6815,1.9064],[-83.5979,13.6874,3.7281],[-83.5782,13.6827,5.4572],[-83.569,13.6751,0.5],[-83.5599,13.6818,3.4599],[-83.5501,13.6826,4.116],[-83.549,13.6841,0.5],[-83.5497,13.6893,6.0666],[-83.5535,13.6924,0.5],[-83.5601,13.694,2.9454],[-83.5632,13.7004,1.7999],[-83.5693,13.7074,3.2454],[-83.5515,13.714,6.0684],[-83.541,13.714,6.934],[-83.5301,13.7113,0.5],[-83.5299,13.7138,3.1016],[-83.5251,13.7179,4.9026],[-83.5307,13.7193,0.5],[-83.536,13.7185,2.9309],[-83.5368,13.7229,0.5],[-83.5304,13.7268,0.9229],[-83.5243,13.7218,0.5],[-83.5215,13.7174,3.5468],[-83.5224,13.7129,1.9288],[-83.5212,13.7101,1.0435],[-83.5146,13.6993,0.5],[-83.5132,13.6899,4.3211],[-83.5165,13.6871,0.5],[-83.5193,13.6796,3.2184],[-83.5296,13.6738,0.5],[-83.5304,13.6693,4.0701],[-83.529,13.6651,1.893],[-83.5385,13.6604,6.087],[-83.5374,13.6546,4.3943],[-83.5413,13.6568,0.5],[-83.5407,13.6512,7.2387],[-83.5371,13.6493,12.1565],[-83.5362,13.6451,0.5],[-83.5343,13.6463,2.8518],[-83.534,13.6426,1.0653],[-83.5426,13.6382,0.5],[-83.5401,13.6332,7.5681],[-83.5421,13.6196,0.5],[-83.5399,13.616,10.6385],[-83.544,13.614,2.0523],[-83.551,13.6143,0.5],[-83.5496,13.6088,0.5],[-83.5462,13.6076,3.3088],[-83.5451,13.6054,1.064],[-83.5549,13.6065,5.9295],[-83.5574,13.6054,9.1303],[-83.5585,13.6026,0.5],[-83.5621,13.6029,0.5],[-83.5618,13.6007,8.4078],[-83.5654,13.6001,13.8148],[-83.5651,13.5974,6.3345],[-83.5621,13.5974,8.7479],[-83.5599,13.5946,0.5],[-83.5515,13.596,2.051],[-83.5493,13.5935,9.9332],[-83.5465,13.5707,4.0859],[-83.5432,13.564,8.7895],[-83.5315,13.5627,2.6272],[-83.5268,13.5604,0.0],[-83.5251,13.5661,4.4296],[-83.5229,13.6157,6.1981],[-83.5074,13.7171,2.5659],[-83.4979,13.7643,0.0],[-83.4882,13.8026,3.5755],[-83.4762,13.8379,1.447],[-83.4671,13.8554,0.0],[-83.4565,13.8691,0.3765],[-83.4554,13.8765,2.4919],[-83.4565,13.8788,0.0],[-83.4615,13.879,0.9488],[-83.4682,13.8863,0.6523],[-83.4649,13.9065,0.0],[-83.4568,13.9182,0.0],[-83.4569,13.9218,0.0],[-83.4637,13.9271,0.0],[-83.4732,13.9251,11.2642],[-83.4804,13.9279,0.0],[-83.4826,13.9241,1.7228],[-83.4887,13.919,0.0],[-83.4971,13.9174,2.5252],[-83.5018,13.9182,4.3492],[-83.5085,13.9279,7.0809],[-83.5101,13.9382,0.0],[-83.5071,13.9443,9.022],[-83.4957,13.9451,0.0],[-83.4976,13.9476,0.0],[-83.4974,13.9512,0.0],[-83.5001,13.9546,1.5635],[-83.4999,13.9571,0.0],[-83.5038,13.9596,1.5465],[-83.5051,13.9635,0.0],[-83.509,13.9638,0.0],[-83.5121,13.9599,6.745],[-83.5168,13.9574,0.0],[-83.5276,13.9538,0.0],[-83.5315,13.9543,1.4195],[-83.5349,13.9599,3.0836],[-83.536,13.9654,4.1818],[-83.534,13.9807,5.61],[-83.5268,13.9888,4.2056],[-83.5212,13.9912,0.0],[-83.5196,13.9943,1.6078],[-83.5185,13.991,1.899],[-83.5149,13.9896,0.0],[-83.5088,13.9896,2.9925],[-83.4904,13.9855,6.9334],[-83.4801,13.9746,0.0],[-83.4804,13.9712,2.0158],[-83.4873,13.9707,0.0],[-83.4887,13.9646,0.0],[-83.4868,13.9607,2.6606],[-83.4788,13.9596,11.8482],[-83.4763,13.9513,4.4894],[-83.4776,13.9482,0.0],[-83.4751,13.9426,2.8024],[-83.4718,13.9421,3.5608],[-83.4701,13.9368,1.5831],[-83.4643,13.9313,0.0],[-83.4587,13.9285,4.8986],[-83.4546,13.9215,6.1151],[-83.4551,13.9176,0.0],[-83.4585,13.9115,9.6589],[-83.4624,13.9082,11.064],[-83.4635,13.9046,0.0],[-83.464,13.8843,0.0],[-83.4626,13.884,0.0],[-83.4588,13.8921,0.0],[-83.4538,13.9118,3.0475],[-83.4449,13.9368,11.3925],[-83.4176,13.9929,0.0],[-83.4124,14.0013,6.4748],[-83.399,14.0165,0.4851],[-83.3915,14.0204,0.5725],[-83.384,14.0199,0.6904],[-83.3754,14.0327,18.6543],[-83.3712,14.0343,0.0],[-83.3685,14.0377,6.8314],[-83.3646,14.0382,0.0],[-83.3568,14.0485,5.5845],[-83.354,14.049,0.0],[-83.3335,14.0907,4.6585],[-83.3321,14.0915,2.0386],[-83.3313,14.0901,0.0],[-83.3201,14.104,1.2258],[-83.2974,14.1263,0.0],[-83.291,14.1393,2.655],[-83.2871,14.1438,2.3523],[-83.2846,14.1515,0.6707],[-83.2921,14.1504,3.2226],[-83.2954,14.1474,0.7471],[-83.2965,14.1415,2.4301],[-83.2946,14.1354,0.8159],[-83.2954,14.1326,0.0],[-83.2965,14.1326,5.2356],[-83.2979,14.1415,2.4301],[-83.2974,14.1463,3.2994],[-83.2935,14.1513,0.5296],[-83.2876,14.1532,0.9472],[-83.2835,14.1587,0.0],[-83.2846,14.164,1.1347],[-83.2829,14.1643,2.0529],[-83.2812,14.159,1.5865],[-83.2796,14.1596,0.6633],[-83.2654,14.1815,0.0],[-83.2543,14.2018,0.0],[-83.2262,14.2649,2.3176],[-83.2118,14.2907,0.2484],[-83.2026,14.311,0.6192],[-83.1993,14.3279,0.0],[-83.2004,14.3557,0.8997],[-83.2071,14.384,0.0],[-83.2154,14.406,0.4684],[-83.2174,14.4218,1.6464],[-83.2165,14.4432,1.7427],[-83.2196,14.4499,0.0],[-83.2268,14.4543,2.8291],[-83.2301,14.4607,0.3608],[-83.2304,14.4721,0.6076],[-83.2343,14.4757,1.2408],[-83.2312,14.4752,0.2998],[-83.2293,14.4732,0.6076],[-83.2285,14.4621,3.444],[-83.2224,14.4557,1.7036],[-83.2218,14.4579,0.0],[-83.239,14.5001,1.9611],[-83.251,14.5399,0.0],[-83.2737,14.6015,0.0],[-83.2868,14.6529,3.4613],[-83.2993,14.7151,4.4354],[-83.3012,14.7449,1.1638],[-83.2991,14.7679,0.0],[-83.3035,14.7682,3.4637],[-83.3051,14.7621,3.8458],[-83.3057,14.7671,0.0],[-83.3112,14.7696,1.9001],[-83.314,14.7807,4.7645],[-83.3107,14.7857,1.5582],[-83.3063,14.7815,2.4825],[-83.3029,14.784,2.3781],[-83.2965,14.8137,4.2257],[-83.2821,14.8438,1.1799],[-83.266,14.8932,2.2574],[-83.259,14.9079,0.0],[-83.251,14.9204,0.0],[-83.2332,14.9396,1.7782],[-83.2185,14.9521,2.3085],[-83.1985,14.9571,0.0],[-83.1765,14.9665,0.0],[-83.169,14.9712,0.0],[-83.1543,14.9871,2.8672],[-83.1507,14.9874,0.0],[-83.1513,14.9893,5.6265],[-83.1474,14.9913,4.1521],[-83.1489,14.9952,3.7437],[-83.1684,14.9897,3.2948],[-83.1962,14.9933,0.4726],[-83.2092,14.993,1.5638],[-83.2255,14.9843,1.8432],[-83.2369,14.9805,2.8818],[-83.2533,14.9845,2.6591],[-83.2742,14.9838,3.3336],[-83.2769,14.9822,4.123],[-83.2805,14.9741,5.5772],[-83.2837,14.9742,6.3293],[-83.2917,14.9778,8.4065],[-83.2926,14.9802,10.2588],[-83.291,14.9829,2.9829],[-83.2794,14.9914,0.0],[-83.2785,14.9971,4.1048],[-83.2809,14.999,3.8236],[-83.3032,14.9947,7.8224],[-83.3307,15.0076,3.3023],[-83.3448,15.0108,6.4119],[-83.3476,15.01,1.5068],[-83.3497,14.9975,5.6997],[-83.3556,14.9961,9.3936],[-83.36,15.0,5.2923],[-83.3624,15.0065,5.2589],[-83.3665,15.0105,5.4633],[-83.3773,15.0149,0.0],[-83.3892,15.0151,5.1143],[-83.3973,15.0246,5.2088],[-83.4048,15.0259,6.5383],[-83.4073,15.0213,1.2828],[-83.4063,15.0072,2.6251],[-83.4085,15.0034,4.9559],[-83.4204,14.9942,4.1854],[-83.4249,14.9888,6.2148],[-83.4277,14.9873,7.2631],[-83.4398,14.9883,4.1472],[-83.4556,14.9776,5.9019],[-83.4681,14.9751,5.2148],[-83.4839,14.9871,5.7249],[-83.4822,14.9933,7.0008],[-83.4837,15.0,8.3787],[-83.4921,15.004,5.4595],[-83.4981,15.0029,5.3668],[-83.5066,14.9988,8.976],[-83.5136,14.9907,7.3549],[-83.5178,14.9802,9.2352],[-83.5289,14.9898,6.7778],[-83.5317,14.9863,6.4652],[-83.5303,14.9758,8.5149],[-83.5257,14.9671,7.6506],[-83.5297,14.966,7.6844],[-83.5348,14.9715,8.6339],[-83.5416,14.974,5.7045],[-83.5453,14.9674,8.0891],[-83.545,14.962,10.9162],[-83.5416,14.9522,3.2345],[-83.5353,14.9442,7.8802],[-83.5378,14.9423,2.0],[-83.5501,14.9488,8.1321],[-83.5525,14.9473,7.9184],[-83.5514,14.9422,8.2151],[-83.5451,14.935,8.3426],[-83.5472,14.9312,7.6873],[-83.5588,14.9337,9.6793],[-83.5628,14.9314,9.2001],[-83.5649,14.926,9.2923],[-83.5636,14.91,8.1991],[-83.5653,14.9053,9.9132],[-83.5689,14.905,10.5849],[-83.5749,14.909,9.9458],[-83.5785,14.9087,11.2426],[-83.5838,14.9041,13.1875],[-83.5874,14.9045,10.5278],[-83.5922,14.9089,11.638],[-83.5977,14.9102,9.7592],[-83.6018,14.9083,8.6946],[-83.6027,14.9048,9.4505],[-83.598,14.8989,10.0814],[-83.5988,14.8961,11.1373],[-83.6194,14.8903,10.391],[-83.6195,14.886,9.4265],[-83.6147,14.8804,3.0],[-83.6168,14.8758,12.8231],[-83.6246,14.8673,8.7718],[-83.6216,14.8567,10.2702],[-83.6252,14.8548,11.3252],[-83.6308,14.86,9.7121],[-83.6302,14.8694,12.507],[-83.6337,14.8729,11.2094],[-83.6473,14.8751,17.5786],[-83.6542,14.8752,14.232],[-83.6595,14.8706,11.7529],[-83.6715,14.8712,15.2086],[-83.6897,14.8606,13.4665],[-83.6973,14.867,13.1873],[-83.7009,14.8662,14.76],[-83.7014,14.8592,14.496],[-83.6999,14.8533,9.6038],[-83.706,14.8488,16.4399],[-83.714,14.8481,12.5461],[-83.7177,14.8435,16.6899],[-83.7138,14.8411,17.6939],[-83.7062,14.8402,14.3951],[-83.7034,14.8378,16.4991],[-83.7063,14.8308,6.6723],[-83.7052,14.8257,4.5],[-83.7112,14.8258,13.6353],[-83.7148,14.8302,14.4452],[-83.7203,14.8322,14.0031],[-83.7284,14.83,15.0818],[-83.7388,14.8314,19.234],[-83.742,14.8298,16.0551],[-83.7405,14.8255,16.2595],[-83.7366,14.8227,16.6936],[-83.735,14.8184,14.1471],[-83.7359,14.8157,27.8859],[-83.7399,14.8154,17.0383],[-83.7522,14.8226,8.9343],[-83.757,14.8235,16.9385],[-83.7628,14.8161,18.7998],[-83.7613,14.8071,17.8586],[-83.7634,14.8021,19.3871],[-83.7742,14.8038,17.7169],[-83.7852,14.8145,15.7494],[-83.7881,14.8119,24.2971],[-83.7883,14.8021,19.5618],[-83.7952,14.7979,18.7444],[-83.8151,14.8061,16.2345],[-83.8195,14.8038,19.1671],[-83.8184,14.8006,24.0949],[-83.8013,14.7918,20.2649],[-83.7962,14.787,21.8147],[-83.7994,14.7851,21.386],[-83.8169,14.787,24.3663],[-83.8355,14.7837,11.5],[-83.8515,14.7668,33.4913],[-83.8635,14.7678,31.2039],[-83.8772,14.7618,31.8086],[-83.8792,14.7626,34.0741],[-83.8818,14.7778,23.16],[-83.8857,14.7806,24.1117],[-83.889,14.7799,20.828],[-83.8924,14.7671,16.8354],[-83.8897,14.7624,26.4702],[-83.8989,14.759,33.8247],[-83.918,14.7722,17.9923],[-83.9237,14.7676,25.5918],[-83.9365,14.7682,19.5296],[-83.9385,14.7655,28.6353],[-83.9304,14.7466,36.5792],[-83.9321,14.7427,32.3203],[-83.9401,14.7433,38.6297],[-83.95,14.7504,20.3022],[-83.9548,14.7505,23.439],[-83.9803,14.74,34.9743],[-83.9887,14.7421,34.5673],[-84.0034,14.7493,29.3381],[-84.0074,14.749,27.1357],[-84.0273,14.7384,32.9733],[-84.0436,14.7425,35.446],[-84.0471,14.7531,22.007],[-84.0458,14.7597,28.5242],[-84.0485,14.7644,29.7858],[-84.0521,14.7649,31.0002],[-84.0647,14.7573,29.4411],[-84.0776,14.7524,39.8161],[-84.0824,14.7533,39.9755],[-84.0847,14.756,32.66],[-84.0862,14.767,32.0908],[-84.0848,14.7783,35.1891],[-84.0871,14.7818,34.1117],[-84.0991,14.7851,44.433],[-84.1136,14.7838,30.9701],[-84.1177,14.7784,25.9952],[-84.1182,14.7702,42.7904],[-84.1152,14.7604,30.0471],[-84.1066,14.7431,36.8619],[-84.0992,14.7376,31.5617],[-84.1003,14.7344,34.1164],[-84.0985,14.7223,43.1282],[-84.1021,14.7212,37.3204],[-84.1241,14.7262,40.3435],[-84.1289,14.7259,45.5374],[-84.1398,14.7213,38.922],[-84.1464,14.7136,47.1763],[-84.1802,14.7079,43.5263],[-84.1902,14.7092,38.4497],[-84.2061,14.7157,40.3305],[-84.2188,14.7268,46.8921],[-84.2287,14.7312,37.7782],[-84.2233,14.7425,46.5496],[-84.2225,14.7483,30.3062],[-84.2292,14.7535,41.4283],[-84.2336,14.7551,40.8684],[-84.2388,14.7544,40.6633],[-84.2635,14.7376,46.9452],[-84.2676,14.7322,44.0018],[-84.269,14.7189,45.5908],[-84.2593,14.6977,57.007],[-84.2594,14.693,47.6229],[-84.2631,14.6853,38.6762],[-84.2624,14.6818,42.5183],[-84.2545,14.6746,45.4806],[-84.2573,14.6704,50.8787],[-84.2788,14.6551,47.7265],[-84.2964,14.6604,51.9502],[-84.3004,14.6644,36.4361],[-84.3034,14.6769,41.3214],[-84.3093,14.6817,46.929],[-84.317,14.679,54.106],[-84.3207,14.6728,52.5458],[-84.3267,14.671,62.7753],[-84.3411,14.6724,55.5432],[-84.3483,14.676,55.0424],[-84.3511,14.6791,46.0807],[-84.351,14.6858,43.6739],[-84.3431,14.7017,45.8911],[-84.3539,14.7042,46.926],[-84.3646,14.7117,43.413],[-84.3683,14.7087,43.1792],[-84.3676,14.702,47.388],[-84.3708,14.6966,48.8026],[-84.3773,14.6908,43.6309],[-84.3832,14.6773,51.1759],[-84.4084,14.6538,63.2268],[-84.41,14.6433,51.2118],[-84.4331,14.6319,50.1233],[-84.4577,14.6302,57.0832],[-84.4624,14.6253,51.019],[-84.4661,14.6155,61.0003],[-84.4691,14.6145,60.6441],[-84.498,14.621,44.0],[-84.5058,14.6267,48.2438],[-84.507,14.6334,56.6915],[-84.511,14.6344,55.8359],[-84.5212,14.6301,61.2191],[-84.5271,14.6311,52.0766],[-84.5344,14.6287,59.39],[-84.5376,14.6367,58.7703],[-84.5369,14.6415,53.0844],[-84.5279,14.6443,55.5183],[-84.5232,14.6503,52.2314],[-84.5245,14.6538,49.9888],[-84.5354,14.654,55.4734],[-84.542,14.6512,55.0262],[-84.5538,14.6507,62.6583],[-84.5605,14.6463,64.8],[-84.5693,14.6535,55.8329],[-84.5818,14.6501,63.5753],[-84.5903,14.6576,54.3459],[-84.5985,14.6545,62.2633],[-84.6054,14.6556,65.5249],[-84.6152,14.6611,56.1729],[-84.6284,14.6604,76.7279],[-84.6326,14.662,67.8118],[-84.6339,14.6678,53.244],[-84.6374,14.6723,56.0302],[-84.6427,14.6727,52.0],[-84.6539,14.6684,66.258],[-84.6595,14.6678,66.68],[-84.6706,14.6737,64.7592],[-84.6765,14.6799,62.4173],[-84.6754,14.6853,61.7147],[-84.681,14.687,62.0642],[-84.6888,14.6708,65.3061],[-84.6958,14.6609,68.5586],[-84.705,14.6617,72.1547],[-84.7059,14.671,64.0845],[-84.7122,14.6887,61.6832],[-84.7227,14.691,83.7182],[-84.7468,14.7115,71.2458],[-84.7506,14.7257,68.6674],[-84.7458,14.7375,63.6946],[-84.749,14.7445,71.4196],[-84.7609,14.7389,70.5129],[-84.7665,14.7403,75.826],[-84.7713,14.7471,71.9008],[-84.769,14.7512,68.5479],[-84.7653,14.7531,72.0972],[-84.7565,14.7514,66.3147],[-84.7521,14.7574,70.2055],[-84.7546,14.7664,71.2667],[-84.775,14.779,80.7329],[-84.7756,14.7777,78.1876],[-84.7823,14.7837,82.8916],[-84.7895,14.7937,90.2646],[-84.7929,14.8095,83.5626],[-84.7984,14.8108,92.0324],[-84.803,14.8176,93.0986],[-84.8102,14.8177,84.9445],[-84.8197,14.8233,90.9903],[-84.8385,14.8197,129.7507],[-84.8601,14.807,115.1861],[-84.8682,14.8071,150.1866],[-84.8807,14.8102,109.2006],[-84.8874,14.8082,109.4795],[-84.899,14.8094,108.0344],[-84.9034,14.8077,104.1437],[-84.9122,14.7972,101.0027],[-84.9165,14.7858,139.7852],[-84.9264,14.7719,102.8125],[-84.9279,14.7679,92.5921],[-84.9271,14.7605,94.4684],[-84.9289,14.7579,92.9429],[-84.9399,14.7543,102.6992],[-84.9615,14.7513,103.7087],[-84.9772,14.7372,116.1638],[-84.9879,14.7346,92.778],[-84.9979,14.7223,116.6474],[-85.0117,14.7141,106.0127],[-85.0174,14.7069,173.5319],[-85.0281,14.698,97.1908],[-85.0298,14.6925,118.1783],[-85.0287,14.6888,120.7064],[-85.0242,14.6869,125.0394],[-85.0233,14.6844,117.0567],[-85.0319,14.6691,136.0429],[-85.0433,14.6702,124.7207],[-85.05,14.6654,127.3652],[-85.0519,14.6599,126.1114],[-85.0494,14.6523,142.2359],[-85.0459,14.6484,125.1394],[-85.0309,14.6402,135.6437],[-85.0279,14.6365,124.1763],[-85.0263,14.6309,111.833],[-85.0287,14.6243,100.875],[-85.0423,14.6109,106.9502],[-85.0405,14.6074,118.0263],[-85.0278,14.606,157.8334],[-85.0149,14.6067,138.1167],[-85.0096,14.5994,120.7013],[-84.9935,14.5922,143.5652],[-84.9904,14.5849,132.9656],[-84.9901,14.5798,145.706],[-84.9987,14.5671,143.8858],[-85.0001,14.5563,143.2167],[-85.0064,14.5457,183.6822],[-85.007,14.5369,179.815],[-84.9994,14.5306,142.4231],[-85.0007,14.5253,139.8066],[-85.0054,14.5207,158.6558],[-85.0058,14.5171,170.3095],[-84.9997,14.5118,159.578],[-84.9918,14.5006,184.7528],[-84.9765,14.4988,177.7322],[-84.9664,14.4825,159.5765],[-84.9672,14.4725,184.9936],[-84.9689,14.4696,167.0814],[-84.9751,14.4665,169.0187],[-84.9777,14.4614,172.1357],[-84.982,14.4602,156.1877],[-84.9824,14.4526,175.3837],[-84.9858,14.4459,149.7527],[-84.98,14.4382,178.009],[-84.981,14.4215,161.4819],[-84.9795,14.4112,211.5053],[-84.981,14.4086,185.7729],[-84.9869,14.405,187.493],[-84.9939,14.4047,194.6908],[-84.9969,14.3995,192.779],[-84.997,14.3947,195.8808],[-84.9947,14.3905,197.2473],[-84.984,14.3847,244.0792],[-84.9814,14.3807,186.7157],[-84.9786,14.3685,184.5096],[-84.9758,14.3651,210.8711],[-84.9681,14.3635,211.8596],[-84.9657,14.3613,192.7756],[-84.9617,14.3491,204.1012],[-84.9585,14.3449,217.2542],[-84.956,14.343,212.375],[-84.951,14.3449,214.3074],[-84.948,14.343,205.1922],[-84.9429,14.3308,249.0065],[-84.9394,14.3294,233.3556],[-84.9023,14.3295,345.3619],[-84.8246,14.324,415.715],[-84.8635,14.1291,678.8593],[-84.8507,14.0707,304.5639],[-85.0575,13.7431,1184.234],[-85.1557,13.7908,529.0583],[-85.2931,13.7034,644.6985],[-85.37,13.7017,633.6048],[-85.3819,13.6469,618.7847],[-85.3885,13.6394,697.4283],[-85.4126,13.6253,565.4425],[-85.4155,13.6208,486.5905],[-85.4179,13.6118,406.8231],[-85.4165,13.6056,328.5334],[-85.4066,13.5929,482.9009],[-85.3887,13.5791,329.079],[-85.3838,13.5674,327.2907],[-85.385,13.5545,442.3729],[-85.3882,13.5443,475.2971],[-85.3998,13.5187,569.5029],[-85.4002,13.5122,609.5167],[-85.3978,13.4987,486.0639],[-85.4003,13.4897,677.1254],[-85.4114,13.473,1117.4446],[-85.4243,13.4676,1025.2762],[-85.4405,13.4634,852.6743],[-85.4713,13.4367,978.222],[-85.4934,13.4232,895.8397],[-85.5083,13.4079,837.4019],[-85.5126,13.3998,886.7061],[-85.5133,13.3945,851.1648],[-85.512,13.3813,783.8875],[-85.5007,13.3589,769.3199],[-85.4978,13.3412,628.3311],[-85.4882,13.3183,566.3911],[-85.4582,13.2813,410.3688],[-85.4435,13.2712,349.9498],[-85.4326,13.249,476.0545],[-85.4291,13.245,436.4422],[-85.405,13.2331,236.0143],[-85.3978,13.2161,266.9079],[-85.3864,13.2005,297.535],[-85.37,13.1869,244.9359],[-85.3599,13.1818,235.4871],[-85.3452,13.1834,222.5936],[-85.3396,13.1888,277.7012],[-85.3363,13.1901,257.9273],[-85.332,13.1882,204.3154],[-85.3257,13.1793,185.4487],[-85.3148,13.1729,162.8587],[-85.3071,13.162,220.3214],[-85.3016,13.1599,142.8714],[-85.2948,13.1608,145.7604],[-85.2913,13.1588,172.5282],[-85.287,13.1464,152.1237],[-85.283,13.1401,228.4394],[-85.2711,13.1373,299.2319],[-85.2656,13.1275,340.7065],[-85.2571,13.1266,260.093],[-85.2468,13.1189,161.6472],[-85.2401,13.1195,163.0546],[-85.2336,13.1322,210.2196],[-85.2297,13.1344,216.4078],[-85.2115,13.1346,318.9961],[-85.2012,13.1486,436.2593],[-85.1961,13.1494,225.695],[-85.1905,13.1458,134.1537],[-85.1886,13.1468,148.1744],[-85.1705,13.1654,223.7394],[-85.1539,13.1867,121.1537],[-85.1498,13.1948,162.5922],[-85.1466,13.2071,219.4699],[-85.1469,13.2294,168.2074],[-85.1409,13.2474,386.7171],[-85.1297,13.2651,201.8956],[-85.1134,13.2815,173.3802]],
[[-84.9268,14.7527,112.407],[-84.9239,14.7521,107.7818],[-84.9299,14.7516,109.4719],[-84.9296,14.7522,110.4282],[-84.9268,14.7527,112.407]]],
[[[-82.8926,14.4649,0.0],[-82.8935,14.4657,0.0],[-82.8946,14.4637,0.0],[-82.894,14.4596,0.0],[-82.8924,14.4599,0.0],[-82.8915,14.4623,0.0],[-82.8926,14.4649,0.0]]],
[[[-82.8887,14.4715,0.0],[-82.8913,14.471,0.0],[-82.891,14.4663,1.1811],[-82.8885,14.4679,0.0],[-82.8887,14.4715,0.0]]],
[[[-82.0001,13.9999,0.0],[-81.9999,13.9999,0.0],[-81.9999,14.0001,0.0],[-82.0001,14.0001,0.0],[-82.0001,13.9999,0.0]]],
[[[-82.8115,14.3732,2.3745],[-82.814,14.3732,0.0],[-82.8174,14.3657,0.0],[-82.8104,14.3704,0.0],[-82.8115,14.3732,2.3745]]],
[[[-82.7685,14.4196,1.3461],[-82.7721,14.4199,0.0],[-82.7732,14.4185,2.0373],[-82.7724,14.4151,4.1625],[-82.7754,14.4138,2.0959],[-82.7832,14.4132,1.3347],[-82.7799,14.4085,2.2563],[-82.7815,14.4057,1.892],[-82.7857,14.4071,0.0],[-82.7871,14.4004,2.3978],[-82.7901,14.3968,2.5089],[-82.7899,14.3954,1.0129],[-82.7885,14.3957,2.5089],[-82.7821,14.399,2.7081],[-82.7824,14.4018,4.5314],[-82.781,14.4013,4.2607],[-82.7804,14.3993,2.1425],[-82.784,14.3946,3.2757],[-82.7843,14.3913,1.0546],[-82.7871,14.391,0.0],[-82.7913,14.3868,1.2441],[-82.7937,14.3779,5.1268],[-82.7976,14.3763,0.0],[-82.7979,14.3688,0.0],[-82.8087,14.3685,1.6043],[-82.8101,14.3649,1.7957],[-82.8093,14.3607,0.0],[-82.8118,14.3599,1.5996],[-82.8129,14.3574,0.0],[-82.8174,14.3562,0.0],[-82.8165,14.3526,0.712],[-82.8074,14.3532,0.0],[-82.7985,14.3574,4.0134],[-82.786,14.3585,0.8842],[-82.7829,14.3571,2.1685],[-82.7787,14.359,5.2249],[-82.7779,14.3571,0.0],[-82.7796,14.3565,0.0],[-82.7793,14.3549,0.0],[-82.776,14.3532,2.4495],[-82.7774,14.3485,0.0],[-82.7751,14.3479,0.0],[-82.7696,14.349,0.0],[-82.7688,14.3504,0.0],[-82.7707,14.351,3.0985],[-82.7707,14.3526,4.2513],[-82.769,14.3512,0.0],[-82.761,14.3549,0.0],[-82.7532,14.3601,1.0917],[-82.754,14.3621,5.2747],[-82.7518,14.3635,1.8503],[-82.749,14.3601,4.1431],[-82.7499,14.3624,4.9237],[-82.7485,14.3638,7.1563],[-82.7462,14.3626,5.5169],[-82.7485,14.361,1.173],[-82.7482,14.3593,4.1431],[-82.7499,14.3593,1.3448],[-82.7504,14.3562,6.5411],[-82.7512,14.3576,0.9864],[-82.754,14.3571,0.0],[-82.7526,14.3554,6.8536],[-82.7565,14.3526,2.516],[-82.7668,14.3504,0.0],[-82.7576,14.3488,2.3327],[-82.7471,14.3535,0.0],[-82.744,14.3624,3.9859],[-82.746,14.3685,5.456],[-82.7429,14.3715,5.0737],[-82.7409,14.3713,2.9859],[-82.7444,14.3646,1.2382],[-82.7438,14.3635,3.9859],[-82.7415,14.3643,0.0],[-82.7346,14.3768,0.0],[-82.7346,14.3829,0.0],[-82.7371,14.386,3.5769],[-82.7385,14.3943,0.0],[-82.741,14.3976,1.8744],[-82.7404,14.3999,0.0],[-82.7379,14.3996,0.0],[-82.7371,14.4068,3.0713],[-82.7399,14.4101,1.9473],[-82.7382,14.4093,0.0],[-82.7376,14.4107,0.0],[-82.741,14.4132,3.7814],[-82.7404,14.4163,0.0],[-82.7421,14.4174,0.0],[-82.7582,14.4174,0.0],[-82.764,14.4151,2.4521],[-82.769,14.4154,4.0187],[-82.7674,14.4188,0.0],[-82.7685,14.4196,1.3461]]],
[[[-82.8024,14.3929,0.5447],[-82.8051,14.3938,0.0],[-82.8051,14.3901,0.0],[-82.7979,14.3871,4.8268],[-82.7962,14.3843,0.0],[-82.7907,14.3879,1.4131],[-82.7921,14.3907,0.0],[-82.7949,14.3885,3.1665],[-82.7965,14.3929,1.4778],[-82.8004,14.3918,4.5673],[-82.8024,14.3929,0.5447]]],
[[[-82.8877,14.4657,0.0],[-82.889,14.4663,1.1811],[-82.8901,14.4637,1.0361],[-82.891,14.4554,0.0],[-82.8868,14.4556,2.3221],[-82.8849,14.4526,0.0],[-82.8832,14.454,3.8551],[-82.8793,14.4513,0.0],[-82.8749,14.4529,1.704],[-82.8751,14.4563,0.0],[-82.8785,14.4549,1.5544],[-82.8812,14.4599,1.879],[-82.8829,14.4587,4.1984],[-82.8829,14.4626,0.0],[-82.8865,14.461,1.1219],[-82.8871,14.4576,2.3466],[-82.889,14.4646,0.9528],[-82.8877,14.4657,0.0]]],
[[[-82.7474,14.4643,6.3256],[-82.7471,14.4676,1.9704],[-82.7526,14.4671,0.0],[-82.754,14.4654,0.0],[-82.7526,14.4629,1.2472],[-82.7474,14.4643,6.3256]]]]}
,"properties": {"GID_1": "NIC.1_1","GID_0": "NIC","country": "Nicaragua","province": "AtlánticoNorte","VARNAME_1": "RegiónAutónomadelAtlánticoNo","NL_NAME_1": "NA","TYPE_1": "RegiónAutónoma","ENGTYPE_1": "AutonomousRegion","CC_1": "NA","HASC_1": "NI.AN","ISO_1": "NA","name": "Atlántico_Norte.province","area_km2": 32133.01,"hist_schema_id": "Elevation0-9000","hist_area_km2": {"0": 6068.32,"25": 5742.67,"50": 4671.52,"75": 3166.17,"100": 2392.74,"125": 2050.23,"150": 1266.35,"175": 891.38,"200": 698.27,"225": 595.33,"250": 538.61,"275": 490.34,"300": 441.6,"325": 401.19,"350": 371.14,"375": 339.22,"400": 307.66,"425": 247.19,"450": 203.27,"475": 175.34,"500": 147.33,"525": 125.64,"550": 106.43,"575": 89.98,"600": 75.24,"625": 65.63,"650": 57.85,"675": 51.08,"700": 45.62,"725": 39.01,"750": 32.77,"775": 27.99,"800": 25.25,"825": 21.62,"850": 19.61,"875": 16.55,"900": 15.17,"925": 13.6,"950": 12.31,"975": 11.91,"1000": 11.52,"1025": 9.05,"1050": 7.17,"1075": 6.2,"1100": 5.17,"1125": 4.84,"1150": 3.46,"1175": 3.4,"1200": 2.97,"1225": 2.97,"1250": 2.16,"1275": 2.49,"1300": 2.02,"1325": 1.63,"1350": 1.48,"1375": 1.73,"1400": 1.24,"1425": 1.11,"1450": 0.72,"1475": 0.66,"1500": 0.74,"1525": 0.31}}}