{"type":"Feature","properties":{"ISO3166-1-Alpha-3":"NIC","country":"Nicaragua","fill":"#FF0","id":"657","name":"Atlántico Norte"},
"geometry":{"type": "MultiPolygon","coordinates": [[[[-82.74824,14.13841,0.0],[-82.74877,14.13943,0.0],[-82.75068,14.13732,0.0],[-82.74824,14.13841,0.0]]],
[[[-82.77628,14.14496,0.0],[-82.77823,14.14411,0.0],[-82.77717,14.1426,0.0],[-82.77709,14.14265,0.0],[-82.77668,14.14208,0.0],[-82.77542,14.14269,0.0],[-82.77575,14.14448,0.0],[-82.77615,14.14427,0.0],[-82.77628,14.14496,0.0]]],
[[[-82.7637,14.14728,0.0],[-82.76517,14.14602,0.0],[-82.76374,14.14549,0.0],[-82.7637,14.14728,0.0]]],
[[[-82.79739,14.15664,0.0],[-82.79865,14.15815,0.0],[-82.80032,14.15628,0.0],[-82.79739,14.15542,0.0],[-82.79739,14.15664,0.0]]],
[[[-82.74124,14.15941,0.0],[-82.74454,14.16116,0.0],[-82.74466,14.15908,0.0],[-82.74193,14.1579,0.0],[-82.74124,14.15941,0.0]]],
[[[-82.74226,14.16478,0.0],[-82.74547,14.16356,0.0],[-82.74258,14.16287,0.0],[-82.74226,14.16478,0.0]]],
[[[-82.80431,14.16616,0.0],[-82.8063,14.16527,0.0],[-82.80525,14.1638,0.0],[-82.80517,14.16385,0.0],[-82.80476,14.16328,0.0],[-82.8035,14.16389,0.0],[-82.80378,14.16564,0.0],[-82.80423,14.16543,0.0],[-82.80431,14.16616,0.0]]],
[[[-82.80427,14.16966,0.0],[-82.80549,14.16983,0.0],[-82.80427,14.16844,0.0],[-82.80427,14.16966,0.0]]],
[[[-82.80805,14.17113,0.0],[-82.81001,14.17023,0.0],[-82.80899,14.16877,0.0],[-82.80887,14.16881,0.0],[-82.80846,14.16824,0.0],[-82.8072,14.16885,0.0],[-82.80753,14.1706,0.0],[-82.80793,14.1704,0.0],[-82.80805,14.17113,0.0]]],
[[[-82.82291,14.18126,0.0],[-82.82462,14.18277,0.0],[-82.82356,14.18032,0.0],[-82.82291,14.18126,0.0]]],
[[[-82.82173,14.18797,0.0],[-82.82372,14.18708,0.0],[-82.82266,14.18561,0.0],[-82.82258,14.18566,0.0],[-82.82217,14.18509,0.0],[-82.82091,14.1857,0.0],[-82.8212,14.18745,0.0],[-82.82164,14.18724,0.0],[-82.82173,14.18797,0.0]]],
[[[-82.55879,14.2366,0.0],[-82.56359,14.23794,0.0],[-82.56257,14.2333,0.0],[-82.55879,14.2366,0.0]]],
[[[-82.99747,14.24287,0.0],[-82.99885,14.24425,0.0],[-82.99918,14.24258,0.0],[-82.99747,14.24287,0.0]]],
[[[-82.99885,14.25243,0.0],[-83.00048,14.24921,0.0],[-82.99857,14.24881,0.0],[-82.99885,14.25243,0.0]]],
[[[-82.9475,14.2591,0.0],[-82.94994,14.2591,0.0],[-82.9475,14.25816,0.0],[-82.9475,14.2591,0.0]]],
[[[-82.94066,14.26309,0.0],[-82.94079,14.26586,0.0],[-82.94233,14.26297,0.0],[-82.94066,14.26309,0.0]]],
[[[-82.91291,14.27814,0.0],[-82.91426,14.28197,0.0],[-82.91637,14.27814,0.0],[-82.91291,14.27814,0.0]]],
[[[-82.97183,14.28331,0.0],[-82.97383,14.28246,0.0],[-82.97281,14.28095,0.0],[-82.97269,14.28099,0.0],[-82.97228,14.28042,0.0],[-82.97102,14.28103,0.0],[-82.97134,14.28278,0.0],[-82.97175,14.28258,0.0],[-82.97183,14.28331,0.0]]],
[[[-82.56196,14.28372,0.0],[-82.56281,14.28547,0.0],[-82.56351,14.28372,0.0],[-82.56196,14.28372,0.0]]],
[[[-82.56847,14.28559,0.0],[-82.56753,14.28653,0.0],[-82.56847,14.28746,0.0],[-82.56941,14.28653,0.0],[-82.56941,14.28559,0.0],[-82.56847,14.28559,0.0]]],
[[[-82.86657,14.2875,0.0],[-82.86665,14.28901,0.0],[-82.86779,14.28746,0.0],[-82.86657,14.2875,0.0]]],
[[[-82.97676,14.28929,0.0],[-82.9772,14.29096,0.0],[-82.97867,14.29055,0.0],[-82.97773,14.28929,0.0],[-82.97676,14.28929,0.0]]],
[[[-82.86832,14.29055,0.0],[-82.86966,14.29116,0.0],[-82.8697,14.28982,0.0],[-82.86844,14.28929,0.0],[-82.86832,14.29055,0.0]]],
[[[-82.85725,14.29271,0.0],[-82.86018,14.29263,0.0],[-82.85969,14.29177,0.0],[-82.85725,14.29271,0.0]]],
[[[-82.94384,14.3017,0.0],[-82.94587,14.30044,0.0],[-82.94441,14.29922,0.0],[-82.94384,14.3017,0.0]]],
[[[-82.94941,14.30003,0.0],[-82.95136,14.30256,0.0],[-82.95185,14.29922,0.0],[-82.94941,14.30003,0.0]]],
[[[-82.94315,14.30386,0.0],[-82.94559,14.30386,0.0],[-82.94315,14.30296,0.0],[-82.94315,14.30386,0.0]]],
[[[-82.94941,14.30834,0.0],[-82.95031,14.30976,0.0],[-82.95141,14.30781,0.0],[-82.94998,14.30728,0.0],[-82.94941,14.30834,0.0]]],
[[[-82.95206,14.31277,0.0],[-82.95434,14.31204,0.0],[-82.95434,14.3111,0.0],[-82.95246,14.31106,0.0],[-82.95206,14.31277,0.0]]],
[[[-83.05154,14.31444,0.0],[-83.0535,14.31354,0.0],[-83.05248,14.31204,0.0],[-83.05236,14.31208,0.0],[-83.05195,14.31151,0.0],[-83.05069,14.31216,0.0],[-83.05101,14.31391,0.0],[-83.05142,14.31371,0.0],[-83.05154,14.31444,0.0]]],
[[[-83.0349,14.31802,0.0],[-83.03812,14.31578,0.0],[-83.03718,14.31485,0.0],[-83.0349,14.31802,0.0]]],
[[[-83.0441,14.32001,0.0],[-83.04605,14.31912,0.0],[-83.04503,14.31761,0.0],[-83.04495,14.31769,0.0],[-83.0445,14.31712,0.0],[-83.04328,14.31774,0.0],[-83.04357,14.31948,0.0],[-83.04402,14.31928,0.0],[-83.0441,14.32001,0.0]]],
[[[-83.05146,14.32083,0.0],[-83.0537,14.31961,0.0],[-83.05272,14.31855,0.0],[-83.05146,14.32083,0.0]]],
[[[-83.03995,14.31826,0.0],[-83.04011,14.32087,0.0],[-83.0432,14.32022,0.0],[-83.04088,14.31794,0.0],[-83.03995,14.31826,0.0]]],
[[[-82.96931,14.31855,0.0],[-82.96736,14.32103,0.0],[-82.97086,14.31855,0.0],[-82.96931,14.31855,0.0]]],
[[[-83.04743,14.31855,0.0],[-83.04874,14.32229,0.0],[-83.04841,14.31855,0.0],[-83.04743,14.31855,0.0]]],
[[[-83.03563,14.32054,0.0],[-83.03588,14.32286,0.0],[-83.03751,14.32176,0.0],[-83.03653,14.32054,0.0],[-83.03563,14.32054,0.0]]],
[[[-83.03095,14.3227,0.0],[-83.03311,14.32392,0.0],[-83.03372,14.32115,0.0],[-83.03156,14.32054,0.0],[-83.03095,14.3227,0.0]]],
[[[-83.03938,14.32351,0.0],[-83.03995,14.32673,0.0],[-83.04121,14.32392,0.0],[-83.04088,14.32298,0.0],[-83.03938,14.32351,0.0]]],
[[[-82.58934,14.32774,0.0],[-82.59683,14.32673,0.0],[-82.60208,14.32022,0.0],[-82.59931,14.31297,0.0],[-82.58934,14.32774,0.0]]],
[[[-83.06078,14.32705,0.0],[-83.0622,14.32941,0.0],[-83.06269,14.32673,0.0],[-83.06078,14.32705,0.0]]],
[[[-83.06452,14.32774,0.0],[-83.06334,14.33015,0.0],[-83.06399,14.33214,0.0],[-83.0668,14.33015,0.0],[-83.06717,14.32823,0.0],[-83.06648,14.32673,0.0],[-83.06452,14.32774,0.0]]],
[[[-82.60359,14.33727,0.0],[-82.60985,14.32982,0.0],[-82.60058,14.32734,0.0],[-82.60359,14.33727,0.0]]],
[[[-83.01358,14.33857,0.0],[-83.01435,14.33995,0.0],[-83.0148,14.33853,0.0],[-83.01358,14.33857,0.0]]],
[[[-83.00882,14.33898,0.0],[-83.01069,14.34077,0.0],[-83.01041,14.33853,0.0],[-83.00882,14.33898,0.0]]],
[[[-83.0133,14.34317,0.0],[-83.01598,14.34451,0.0],[-83.01602,14.34223,0.0],[-83.0133,14.34317,0.0]]],
[[[-83.03751,14.38491,0.0],[-83.03869,14.38719,0.0],[-83.03905,14.38398,0.0],[-83.03751,14.38491,0.0]]],
[[[-82.89826,14.39049,0.0],[-82.90058,14.39338,0.0],[-82.90014,14.38894,0.0],[-82.89826,14.39049,0.0]]],
[[[-82.89338,14.39598,0.0],[-82.89533,14.39509,0.0],[-82.89432,14.39358,0.0],[-82.8942,14.39362,0.0],[-82.89379,14.39305,0.0],[-82.89257,14.3937,0.0],[-82.89289,14.39545,0.0],[-82.8933,14.39525,0.0],[-82.89338,14.39598,0.0]]],
[[[-82.89774,14.39834,0.0],[-82.90014,14.39989,0.0],[-82.89953,14.39639,0.0],[-82.89774,14.39834,0.0]]],
[[[-83.04902,14.41262,0.0],[-83.05012,14.41446,0.0],[-83.05057,14.41262,0.0],[-83.04902,14.41262,0.0]]],
[[[-83.05215,14.41779,0.0],[-83.05411,14.4169,0.0],[-83.05309,14.41539,0.0],[-83.05297,14.41543,0.0],[-83.05256,14.41486,0.0],[-83.05134,14.41551,0.0],[-83.05167,14.41726,0.0],[-83.05207,14.41706,0.0],[-83.05215,14.41779,0.0]]],
[[[-82.73253,14.36957,0.0],[-82.7257,14.39741,0.0],[-82.72899,14.41376,0.0],[-82.73778,14.42194,0.0],[-82.75105,14.42202,0.0],[-82.76732,14.41413,4.214],[-82.77465,14.40469,4.4814],[-82.77823,14.39322,5.0527],[-82.78478,14.38198,4.4366],[-82.80085,14.37324,0.0],[-82.80045,14.36929,0.0],[-82.80163,14.36685,4.4014],[-82.8037,14.36632,4.6122],[-82.80435,14.36636,4.6122],[-82.80826,14.36636,5.0313],[-82.80394,14.36595,4.6122],[-82.75084,14.36148,5.3479],[-82.73253,14.36957,0.0]]],
[[[-82.86217,14.42015,0.0],[-82.87275,14.42788,0.0],[-82.87275,14.41633,0.0],[-82.86217,14.42015,0.0]]],
[[[-83.02782,14.43016,0.0],[-83.02864,14.43155,0.0],[-83.02904,14.43008,0.0],[-83.02782,14.43016,0.0]]],
[[[-82.70828,14.44074,0.0],[-82.70999,14.44143,0.0],[-82.70954,14.43936,0.0],[-82.70828,14.44074,0.0]]],
[[[-82.72004,14.44082,0.0],[-82.71972,14.4429,0.0],[-82.72134,14.44217,0.0],[-82.72134,14.44062,0.0],[-82.72004,14.44082,0.0]]],
[[[-82.69083,14.44632,0.0],[-82.69148,14.44807,0.0],[-82.69237,14.4468,0.0],[-82.69209,14.44619,0.0],[-82.69083,14.44632,0.0]]],
[[[-82.7034,14.45075,0.0],[-82.70621,14.45091,0.0],[-82.70458,14.44929,0.0],[-82.7034,14.45075,0.0]]],
[[[-82.69148,14.45128,0.0],[-82.69148,14.4525,0.0],[-82.6927,14.45128,0.0],[-82.69148,14.45128,0.0]]],
[[[-82.69294,14.45323,0.0],[-82.69457,14.45262,0.0],[-82.69335,14.45128,0.0],[-82.69294,14.45323,0.0]]],
[[[-82.71048,14.45405,0.0],[-82.71142,14.45437,0.0],[-82.71076,14.45311,0.0],[-82.71048,14.45405,0.0]]],
[[[-82.70645,14.4558,0.0],[-82.70844,14.45494,0.0],[-82.70739,14.45344,0.0],[-82.70731,14.45348,0.0],[-82.7069,14.45291,0.0],[-82.70564,14.45352,0.0],[-82.70596,14.45531,0.0],[-82.70637,14.45506,0.0],[-82.70645,14.4558,0.0]]],
[[[-82.87588,14.45478,3.0163],[-82.87536,14.4558,0.0],[-82.87824,14.45637,0.0],[-82.87711,14.45437,1.5544],[-82.87588,14.45478,3.0163]]],
[[[-82.71353,14.45592,0.0],[-82.71329,14.45808,0.0],[-82.7154,14.4584,0.0],[-82.71565,14.45572,0.0],[-82.71451,14.45498,0.0],[-82.71353,14.45592,0.0]]],
[[[-82.87837,14.45901,0.0],[-82.88048,14.45901,0.0],[-82.87837,14.45685,0.0],[-82.87837,14.45901,0.0]]],
[[[-82.88968,14.46454,0.9528],[-82.89163,14.46365,0.0],[-82.89061,14.46214,1.0361],[-82.89049,14.46223,1.0361],[-82.89009,14.46166,2.4153],[-82.88882,14.46227,0.9657],[-82.88915,14.46402,0.9528],[-82.88956,14.46381,0.9528],[-82.88968,14.46454,0.9528]]],
[[[-82.86502,14.46853,0.0],[-82.86832,14.46792,0.0],[-82.86779,14.46682,0.0],[-82.86502,14.46853,0.0]]],
[[[-82.90209,14.46792,0.0],[-82.90498,14.46935,0.0],[-82.90453,14.46621,0.0],[-82.90209,14.46792,0.0]]],
[[[-82.88524,14.47289,0.0],[-82.8872,14.4737,0.0],[-82.88801,14.4724,0.0],[-82.88768,14.47179,0.0],[-82.88524,14.47289,0.0]]],
[[[-82.82291,14.48424,0.0],[-82.82164,14.4864,0.0],[-82.82429,14.48672,0.0],[-82.82356,14.48424,0.0],[-82.82291,14.48424,0.0]]],
[[[-82.82612,14.48753,0.0],[-82.82811,14.48664,0.0],[-82.82706,14.48517,0.0],[-82.82698,14.48522,0.0],[-82.82653,14.48465,0.0],[-82.82535,14.48526,0.0],[-82.82559,14.48701,0.0],[-82.82604,14.4868,0.0],[-82.82612,14.48753,0.0]]],
[[[-82.83296,14.49189,0.0],[-82.83491,14.49099,0.0],[-82.83389,14.48949,0.0],[-82.83377,14.48957,0.0],[-82.83336,14.489,0.0],[-82.8321,14.48961,0.0],[-82.83243,14.49136,0.0],[-82.83283,14.49116,0.0],[-82.83296,14.49189,0.0]]],
[[[-82.81981,14.49042,0.0],[-82.82059,14.4927,0.0],[-82.82107,14.49042,0.0],[-82.81981,14.49042,0.0]]],
[[[-82.82384,14.49323,0.0],[-82.82608,14.49539,0.0],[-82.82486,14.4923,0.0],[-82.82384,14.49323,0.0]]],
[[[-83.02107,14.50308,0.0],[-83.02302,14.50222,0.0],[-83.022,14.50072,0.0],[-83.02188,14.50076,0.0],[-83.02147,14.50019,0.0],[-83.02025,14.5008,0.0],[-83.02054,14.50259,0.0],[-83.02094,14.50239,0.0],[-83.02107,14.50308,0.0]]],
[[[-82.58076,14.55174,0.0],[-82.5817,14.55419,0.0],[-82.5821,14.55394,0.0],[-82.58308,14.55158,0.0],[-82.58076,14.55174,0.0]]],
[[[-82.96251,14.55427,0.0],[-82.96447,14.55337,0.0],[-82.96345,14.55187,0.0],[-82.96337,14.55191,0.0],[-82.96292,14.55138,0.0],[-82.96166,14.55199,0.0],[-82.96198,14.55374,0.0],[-82.96239,14.55353,0.0],[-82.96251,14.55427,0.0]]],
[[[-82.58251,14.55675,0.0],[-82.5845,14.55585,0.0],[-82.58344,14.55435,0.0],[-82.58336,14.55443,0.0],[-82.58292,14.55386,0.0],[-82.58226,14.55419,0.0],[-82.58174,14.55463,0.0],[-82.58202,14.55622,0.0],[-82.58243,14.55602,0.0],[-82.58251,14.55675,0.0]]],
[[[-82.57624,14.55557,0.0],[-82.57942,14.5574,0.0],[-82.57689,14.55467,0.0],[-82.57624,14.55557,0.0]]],
[[[-82.56957,14.55541,0.0],[-82.57278,14.55801,0.0],[-82.57254,14.55467,0.0],[-82.56957,14.55541,0.0]]],
[[[-82.65347,14.56212,0.0],[-82.6575,14.55419,0.0],[-82.6516,14.54588,0.0],[-82.64786,14.54279,0.0],[-82.65347,14.56212,0.0]]],
[[[-82.73266,14.56354,0.0],[-82.73465,14.56269,0.0],[-82.73359,14.56118,0.0],[-82.73351,14.56122,0.0],[-82.73306,14.56066,0.0],[-82.73184,14.56127,0.0],[-82.73217,14.56306,0.0],[-82.73257,14.56281,0.0],[-82.73266,14.56354,0.0]]],
[[[-82.56139,14.5679,0.0],[-82.56334,14.567,0.0],[-82.56233,14.5655,0.0],[-82.5622,14.56558,0.0],[-82.5618,14.56501,0.0],[-82.56058,14.56562,0.0],[-82.56086,14.56737,0.0],[-82.56127,14.56717,0.0],[-82.56139,14.5679,0.0]]],
[[[-82.965,14.56977,0.0],[-82.96695,14.56887,0.0],[-82.96589,14.56737,0.0],[-82.96581,14.56745,0.0],[-82.9654,14.56688,0.0],[-82.96414,14.56749,0.0],[-82.96447,14.56924,0.0],[-82.96487,14.56904,0.0],[-82.965,14.56977,0.0]]],
[[[-82.5782,14.56977,0.0],[-82.58015,14.56887,0.0],[-82.57909,14.56737,0.0],[-82.57901,14.56745,0.0],[-82.5786,14.56688,0.0],[-82.57738,14.56749,0.0],[-82.57767,14.56924,0.0],[-82.57807,14.56904,0.0],[-82.5782,14.56977,0.0]]],
[[[-82.5633,14.57042,0.0],[-82.56513,14.57323,0.0],[-82.56505,14.57018,0.0],[-82.5633,14.57042,0.0]]],
[[[-82.69188,14.58605,0.0],[-82.69437,14.586,0.0],[-82.69457,14.58397,0.0],[-82.69302,14.58393,0.0],[-82.69188,14.58605,0.0]]],
[[[-82.66686,14.59951,0.0],[-82.66592,14.60139,0.0],[-82.66755,14.60175,0.0],[-82.6678,14.59951,0.0],[-82.66686,14.59951,0.0]]],
[[[-82.77375,14.62507,0.0],[-82.77994,14.61974,0.0],[-82.7731,14.61319,0.0],[-82.77375,14.62507,0.0]]],
[[[-82.63728,14.62649,0.0],[-82.63927,14.62564,0.0],[-82.63825,14.62413,0.0],[-82.63813,14.62417,0.0],[-82.63773,14.6236,0.0],[-82.63646,14.62421,0.0],[-82.63679,14.62596,0.0],[-82.6372,14.62576,0.0],[-82.63728,14.62649,0.0]]],
[[[-82.6691,14.63955,0.0],[-82.67105,14.6387,0.0],[-82.66999,14.63719,0.0],[-82.66991,14.63723,0.0],[-82.6695,14.63666,0.0],[-82.66824,14.63732,0.0],[-82.66857,14.63906,0.0],[-82.66898,14.63886,0.0],[-82.6691,14.63955,0.0]]],
[[[-82.67121,14.64712,0.0],[-82.67357,14.65013,0.0],[-82.67715,14.64944,0.0],[-82.67219,14.64619,0.0],[-82.67121,14.64712,0.0]]],
[[[-82.6927,14.80691,0.0],[-82.69367,14.80874,0.0],[-82.69473,14.80618,0.0],[-82.6927,14.80504,0.0],[-82.6927,14.80691,0.0]]],
[[[-83.35455,15.01007,5.0735],[-83.36498,15.01635,2.2567],[-83.37783,15.02125,6.2559],[-83.39031,15.03097,3.7584],[-83.39989,15.01363,8.2319],[-83.41547,14.99694,6.3641],[-83.43573,14.98518,5.1238],[-83.45919,14.9825,7.9388],[-83.46839,14.98741,7.8863],[-83.48056,15.00555,6.6479],[-83.48586,15.01048,8.0712],[-83.49901,15.01265,6.4784],[-83.50908,15.01154,8.1274],[-83.51247,15.0065,7.0943],[-83.50573,14.99681,8.3662],[-83.511,14.99017,8.6723],[-83.51262,14.98402,7.5394],[-83.51322,14.96885,7.553],[-83.52304,14.97769,7.4494],[-83.52862,14.9734,4.2001],[-83.52991,14.96178,6.3287],[-83.52686,14.94837,7.901],[-83.53249,14.95103,14.411],[-83.54735,14.95521,10.4038],[-83.54513,14.95216,7.4761],[-83.54244,14.94508,2.0],[-83.54048,14.94157,9.446],[-83.55487,14.93741,8.1423],[-83.57978,14.91811,9.5844],[-83.60427,14.90919,8.814],[-83.60918,14.89837,11.4832],[-83.6113,14.88491,10.3597],[-83.61561,14.87269,10.7856],[-83.62306,14.87269,8.7679],[-83.63156,14.8832,6.5],[-83.64995,14.8885,9.0921],[-83.67215,14.88963,14.3785],[-83.69197,14.88697,11.3986],[-83.71062,14.87834,14.6349],[-83.7145,14.86723,13.0435],[-83.70502,14.83853,13.7637],[-83.71243,14.83853,18.7501],[-83.7162,14.84705,13.2772],[-83.72362,14.85158,7.4537],[-83.73393,14.85297,16.8941],[-83.74656,14.8522,20.7794],[-83.74452,14.83667,14.1103],[-83.7653,14.82879,19.0742],[-83.82105,14.82548,33.1031],[-83.81392,14.81377,19.7368],[-83.80899,14.80889,21.4348],[-83.80121,14.80377,13.0344],[-83.81966,14.80362,25.7548],[-83.8395,14.79742,20.5017],[-83.85731,14.78778,24.2402],[-83.86948,14.77711,21.2508],[-83.87526,14.78427,18.2791],[-83.87875,14.78675,20.3842],[-83.88268,14.78783,20.1985],[-83.88994,14.79073,27.3137],[-83.885,14.78135,24.1117],[-83.88376,14.77711,28.9224],[-83.89655,14.78044,24.4854],[-83.91265,14.79719,22.0437],[-83.92472,14.80377,28.9149],[-83.92965,14.78088,26.5862],[-83.92986,14.77166,25.2619],[-83.92472,14.76344,22.5959],[-84.02357,14.75833,31.0609],[-84.04076,14.76034,29.7125],[-84.04267,14.76807,28.7796],[-84.04781,14.7708,30.2439],[-84.06468,14.77026,30.7251],[-84.0752,14.77163,32.6163],[-84.07897,14.77517,35.6914],[-84.08156,14.7798,24.7076],[-84.10445,14.79393,45.7639],[-84.11176,14.79341,35.1781],[-84.12272,14.78453,40.6202],[-84.11111,14.76104,26.8651],[-84.10419,14.75187,25.9258],[-84.09543,14.7436,33.9131],[-84.09543,14.7361,29.7735],[-84.10228,14.73187,36.7935],[-84.10652,14.73233,35.282],[-84.11122,14.73471,38.0288],[-84.11962,14.7361,49.5879],[-84.12874,14.73419,39.0111],[-84.13385,14.73003,28.4238],[-84.13788,14.72523,37.5226],[-84.1438,14.72187,35.1577],[-84.16819,14.71497,26.75],[-84.18289,14.71386,38.2438],[-84.19501,14.71872,40.7584],[-84.21868,14.74344,43.3376],[-84.22638,14.74977,37.3842],[-84.2354,14.75473,39.9739],[-84.24922,14.75941,50.0325],[-84.2618,14.75853,42.0795],[-84.26733,14.74667,49.0717],[-84.26216,14.69975,31.25],[-84.26728,14.67774,55.6534],[-84.2878,14.66722,62.4415],[-84.29888,14.66799,43.7817],[-84.32317,14.67332,58.6531],[-84.33839,14.67469,43.7834],[-84.34604,14.67998,41.6379],[-84.35319,14.70598,39.7806],[-84.36293,14.71561,43.1543],[-84.37614,14.69673,47.937],[-84.39001,14.67148,49.7362],[-84.40843,14.64942,60.5442],[-84.44572,14.63668,64.9095],[-84.47161,14.62262,59.0117],[-84.48269,14.61947,52.1979],[-84.49802,14.62391,57.132],[-84.50848,14.63262,56.9821],[-84.519049999999993,14.63828,57.5186],[-84.53422,14.63373,53.678],[-84.53122,14.65332,53.8631],[-84.52742,14.6604,49.9079],[-84.60044,14.66252,56.6979],[-84.62297,14.66722,57.8986],[-84.6617,14.68345,62.6999],[-84.68085,14.68546,62.0642],[-84.69932,14.67469,68.1681],[-84.71441,14.70892,68.2532],[-84.72485,14.72564,68.9226],[-84.74529,14.7391,66.1395],[-84.74428,14.75241,68.1166],[-84.74704,14.76447,76.0457],[-84.76694,14.7669,71.8546],[-84.7664,14.76887,71.212],[-84.75857,14.77866,70.514],[-84.75547,14.78148,79.8034],[-84.77017,14.80514,110.7169],[-84.79213,14.82106,101.0611],[-84.8181,14.82866,86.1526],[-84.84443,14.82755,103.6882],[-84.90422,14.81698,108.064],[-84.92063,14.8077,136.2634],[-84.96646,14.76463,119.2117],[-84.98437,14.75223,130.7504],[-84.99995,14.74202,162.118],[-85.00199,14.74068,151.3866],[-85.01566,14.72817,136.7149],[-85.02455,14.71254,109.1392],[-85.02979,14.67554,131.2362],[-85.03305,14.66957,136.0429],[-85.03822,14.66722,142.3853],[-85.05393,14.66306,146.9935],[-85.04852,14.65332,142.2359],[-85.02021,14.63373,146.6191],[-85.04222,14.61348,106.0919],[-85.04816,14.60578,144.2323],[-85.02222,14.6058,118.7987],[-85.02366,14.60254,112.8709],[-85.01886,14.602,137.8965],[-85.01152,14.6003,135.0861],[-85.00873,14.59882,120.7013],[-85.00553,14.59642,124.6686],[-85.00318,14.59273,135.5017],[-85.00109,14.58854,142.9633],[-84.99948,14.58229,186.8143],[-84.99922,14.57565,166.4201],[-85.00444,14.56126,166.3858],[-85.00597,14.55537,151.0855],[-85.00581,14.54942,174.4645],[-85.00618,14.54485,202.5222],[-85.00806,14.53462,171.0053],[-85.00858,14.52867,178.2111],[-85.00829,14.52002,169.7299],[-85.00897,14.51072,162.2383],[-85.00811,14.50777,181.803],[-85.00649,14.50539,177.8107],[-84.99313,14.49508,194.3083],[-84.97827,14.4872,168.0471],[-84.97377,14.48315,168.3389],[-84.97023,14.47697,182.2204],[-84.96861,14.46914,167.0814],[-84.97039,14.4594,208.223],[-84.98158,14.4407,152.2505],[-84.98297,14.43434,152.5362],[-84.98199,14.41251,181.8142],[-84.98313,14.40752,188.7819],[-84.99088,14.3939,188.9767],[-84.99282,14.38737,187.5374],[-84.99243,14.38067,258.0349],[-84.98956,14.37344,324.8241],[-84.9708,14.34962,206.2441],[-84.95403,14.3344,271.5336],[-84.93967,14.3175,222.9869],[-84.93453,14.31427,250.1942],[-84.92742,14.31243,232.6963],[-84.83805,14.30678,404.8397],[-84.83546,14.2929,344.1595],[-84.83712,14.26872,354.045],[-84.85895,14.15425,415.6502],[-84.86208,14.10777,530.7562],[-84.85283,14.07131,311.5776],[-84.85484,14.0595,467.9454],[-84.86404,14.04028,568.0102],[-84.92481,13.94073,261.0346],[-85.05175,13.74257,1024.9177],[-85.05679,13.73753,1149.115],[-85.06134,13.73552,1360.1968],[-85.15689,13.77854,499.2542],[-85.16061,13.77748,493.3267],[-85.28257,13.70332,651.7764],[-85.28466,13.70278,706.3244],[-85.36509,13.6919,609.8267],[-85.37011,13.68648,556.0466],[-85.37489,13.67741,580.9105],[-85.38377,13.65343,633.9286],[-85.39158,13.64139,703.5],[-85.39871,13.6333,651.3077],[-85.40912,13.62671,544.9489],[-85.41088,13.62056,454.3546],[-85.41,13.61157,349.533],[-85.40194,13.59462,600.4138],[-85.39522,13.58343,344.049],[-85.39044,13.57008,328.549],[-85.38881,13.56052,540.4785],[-85.39933,13.52948,505.8734],[-85.39979,13.5114,516.0011],[-85.39938,13.50649,423.9774],[-85.40065,13.49721,466.0337],[-85.40406,13.48933,622.2058],[-85.41504,13.48042,1000.856],[-85.46935,13.44623,1052.24],[-85.50043,13.41923,895.7089],[-85.50612,13.40608,828.9072],[-85.50638,13.37058,730.7231],[-85.48537,13.32505,416.0356],[-85.43444,13.258,242.5808],[-85.41457,13.23896,406.656],[-85.40111,13.23369,197.5867],[-85.39636,13.23105,213.9411],[-85.39083,13.22682,265.894],[-85.3622,13.20095,169.9789],[-85.35993,13.1995,208.9388],[-85.35745,13.19847,254.5004],[-85.3545,13.19808,274.1266],[-85.35143,13.19793,259.3881],[-85.3453,13.19865,315.2913],[-85.33982,13.20018,291.323],[-85.33649,13.20012,239.0441],[-85.33246,13.19894,168.418],[-85.32489,13.19387,163.9203],[-85.31083,13.18705,177.8325],[-85.30737,13.18473,240.9385],[-85.30541,13.18144,263.0353],[-85.30417,13.17248,217.2186],[-85.30231,13.17054,249.6501],[-85.2904,13.16909,208.7269],[-85.28326,13.15925,135.7654],[-85.25244,13.14659,155.2748],[-85.24185,13.14519,131.0567],[-85.21572,13.15137,203.8161],[-85.18709,13.16442,153.9471],[-85.17733,13.17173,137.2286],[-85.16867,13.18147,161.0838],[-85.15627,13.20674,273.4515],[-85.14449,13.24144,324.7958],[-85.13632,13.25945,202.2205],[-85.12335,13.27748,221.0564],[-85.09795,13.29216,174.1345],[-85.06462,13.29513,191.365],[-84.99824,13.29374,110.4499],[-84.98284,13.29521,105.7114],[-84.97377,13.29878,117.4199],[-84.88311,13.38153,137.6156],[-84.87892,13.3804,106.8764],[-84.87551,13.37675,120.8327],[-84.86962,13.36663,127.5524],[-84.76976,13.24268,109.0096],[-84.75144,13.21573,92.0812],[-84.49292,13.24653,45.1127],[-84.35348,13.24715,54.8122],[-84.33368,13.24971,49.5858],[-84.32123,13.2541,52.6608],[-84.30898,13.26712,35.3709],[-84.29844,13.27392,29.1705],[-84.29097,13.2763,22.2788],[-84.28449,13.27663,26.7488],[-84.27689,13.27588,26.4807],[-84.27152,13.27454,18.61],[-84.26521,13.27152,19.2488],[-84.25834,13.26712,21.3697],[-84.24664,13.26384,17.1243],[-84.23689,13.2642,30.8482],[-84.17661,13.28064,28.2335],[-84.1631,13.28234,28.2778],[-84.15519,13.28033,26.2848],[-84.15261,13.27539,27.7914],[-84.13333,13.21614,16.2165],[-84.12928,13.20899,24.1016],[-84.12362,13.20268,20.9309],[-84.11719,13.20142,11.0091],[-84.10861,13.19731,15.1369],[-84.08445,13.20444,16.4701],[-84.06876,13.20142,14.6434],[-84.07184,13.20586,8.0857],[-84.07727,13.21589,19.9034],[-84.08243,13.22126,10.4294],[-84.06349,13.21782,13.7485],[-84.04807,13.21209,11.1069],[-84.03611,13.21452,9.1224],[-84.02781,13.23555,13.9554],[-84.02102,13.23098,15.6614],[-84.01639,13.23054,20.164],[-84.00732,13.23555,2.1162],[-84.0005,13.23555,15.5524],[-83.99146,13.23012,2.7471],[-83.98761,13.23446,10.3401],[-83.98869,13.24444,22.8895],[-83.99427,13.25604,14.517],[-83.98381,13.25426,8.0229],[-83.97975,13.25157,5.917],[-83.96456,13.2503,9.2122],[-83.88353,13.24715,15.5496],[-83.86431,13.2442,13.225],[-83.85413,13.24004,13.1714],[-83.8463,13.23542,12.7336],[-83.83586,13.23121,13.104],[-83.81863,13.22656,11.2523],[-83.81093,13.22276,12.3364],[-83.8072,13.21816,10.8941],[-83.80782,13.2125,17.0422],[-83.81002,13.20677,19.1821],[-83.81366,13.2008,14.1143],[-83.83255,13.17814,26.9611],[-83.83614,13.1724,18.5583],[-83.83834,13.16669,26.7802],[-83.83904,13.16103,24.653199999999998],[-83.83816,13.15579,24.7637],[-83.83524,13.15129,34.0084],[-83.83092,13.14729,21.6904],[-83.75573,13.09365,24.4344],[-83.65729,13.03745,41.5613],[-83.63895,13.0315,42.8967],[-83.59817,13.03336,14.8239],[-83.54797,13.03026,1.5197],[-83.52965,13.03259,0.0],[-83.52957,13.0326,0.0],[-83.52957,13.03262,0.0],[-83.56298,13.23066,0.0],[-83.56859,13.24291,0.0],[-83.56115,13.24917,0.0],[-83.56823,13.26301,0.0],[-83.57014,13.2871,0.0],[-83.55915,13.41584,2.6459],[-83.54133,13.48188,0.0],[-83.52038,13.53164,0.0],[-83.52017,13.55077,0.0],[-83.51602,13.57465,0.0],[-83.51749,13.62368,0.0],[-83.4938,13.73774,0.0],[-83.45531,13.86392,0.0],[-83.43126,13.95673,0.0],[-83.41739,13.98859,0.0],[-83.39729,14.0163,0.4851],[-83.34968,14.04877,0.0],[-83.34264,14.06098,0.0],[-83.33751,14.07754,0.0],[-83.30167,14.11994,0.0],[-83.21858,14.25031,0.0],[-83.1914,14.31342,0.0],[-83.18659,14.34764,0.0],[-83.1918,14.38691,0.0],[-83.24031,14.52399,0.0],[-83.24861,14.57172,0.0],[-83.25796,14.5904,0.0],[-83.26012,14.59601,0.0],[-83.29922,14.77119,0.0],[-83.30818,14.77985,0.0],[-83.31542,14.77277,7.0697],[-83.31477,14.74995,6.9725],[-83.32299,14.76341,8.1404],[-83.33349,14.77326,2.4735],[-83.34504,14.77656,5.001],[-83.35631,14.77045,11.2872],[-83.34789,14.76708,16.969],[-83.32946,14.75609,5.117],[-83.32217,14.74995,0.0],[-83.33751,14.73143,0.0],[-83.35265,14.73623,0.0],[-83.36705,14.7497,0.0],[-83.38024,14.75739,0.0],[-83.38695,14.76655,0.0],[-83.39782,14.8076,0.0],[-83.41153,14.81826,0.0],[-83.41487,14.81391,0.0],[-83.42463,14.80394,0.5411],[-83.41413,14.8277,0.0],[-83.36986,14.883,0.0],[-83.35017,14.90082,0.0],[-83.33837,14.90803,0.0],[-83.32217,14.91389,1.3573],[-83.30785,14.91059,1.2096],[-83.30167,14.89057,1.4709],[-83.29894,14.87043,1.9262],[-83.2882,14.84455,2.4852],[-83.28742,14.82567,0.0],[-83.29507,14.83519,8.4112],[-83.30508,14.83877,0.0],[-83.31648,14.83735,0.0],[-83.32844,14.83185,0.0],[-83.32844,14.82567,8.719],[-83.31949,14.82026,9.4466],[-83.31627,14.82103,13.1226],[-83.3085,14.82567,5.853],[-83.30858,14.81904,10.887],[-83.30944,14.81411,10.0851],[-83.31139,14.80952,8.0194],[-83.31477,14.80394,7.7128],[-83.31477,14.81143,5.4001],[-83.32323,14.8017,6.0273],[-83.326,14.79694,8.3004],[-83.32844,14.79096,6.7511],[-83.29402,14.80427,0.0],[-83.28197,14.81318,0.0],[-83.27379,14.82567,0.0],[-83.27135,14.83552,0.0],[-83.26952,14.85692,0.0],[-83.26696,14.86664,0.0],[-83.26183,14.87377,0.0],[-83.24909,14.88589,0.0],[-83.24645,14.89057,0.0],[-83.24291,14.90436,0.0],[-83.23388,14.92133,0.0],[-83.22167,14.9357,0.0],[-83.20889,14.94172,0.0],[-83.20149,14.95307,0.0],[-83.19188,14.97427,0.0],[-83.17984,14.98599,10.6975],[-83.16515,14.96906,0.0],[-83.15608,14.97846,0.0],[-83.13777,14.98672,0.0],[-83.13044,14.99701,2.7782],[-83.14365,14.9949,6.7059],[-83.1774,14.99681,1.8961],[-83.19133,14.99425,3.2036],[-83.21773,14.9825,3.6315],[-83.26202,14.9832,2.4391],[-83.26615,14.9825,2.6151],[-83.27832,14.98712,1.8631],[-83.28566,14.99211,4.5518],[-83.28489,14.99738,7.2801],[-83.27297,15.00304,0.3382],[-83.31705,15.00756,4.5929],[-83.33424,15.00645,14.5174],[-83.34935,14.99681,1.1785],[-83.35455,15.01007,5.0735]]]]}}