{"type":"Feature","properties":{"featurecla":"River","scalerank":7,"rivernum":523,"dissolve":"523River","name":"Ro2","name_alt":null,"note":null,"min_zoom":6.0,"strokeweig":0.25,"name_en":"Ro Grande de Matagalpa","min_label":7.0},
"geometry":{"type": "LineString","coordinates": [[-84.4482421875,13.03095123905662,41.3103],[-84.418505859374989,13.02631256718162,45.1549],[-84.411474609374991,13.023211981244117,89.6166],[-84.390795898437489,12.99725983280662,69.5296],[-84.376879882812489,12.98737213749412,9.5652],[-84.370532226562489,12.99933502811912,36.3562],[-84.362353515624989,13.00141022343162,28.69],[-84.315283203124991,13.036883856244117,20.5898],[-84.289965820312489,13.06610748905662,44.6732],[-84.265625,13.08795807499412,8.2025],[-84.235278320312489,13.102899481244108,2.0],[-84.153735351562489,13.11749909061912,9.0014],[-84.132666015624991,13.126727606244117,20.1546],[-84.123461914062489,13.142694403119108,17.3106],[-84.121191406249991,13.15265534061912,7.2811],[-84.115478515625,13.152850653119117,10.7428],[-84.107836914062489,13.14874909061912,16.0865],[-84.099902343749989,13.14606354374412,21.0303],[-84.091894531249991,13.15009186405662,12.0471],[-84.102587890624989,13.15851471561912,17.1707],[-84.117919921875,13.16583893436912,21.4348],[-84.123461914062489,13.16657135624412,15.0682],[-84.1265625,13.168817449994108,10.3191],[-84.134375,13.17194244999412,2.4556],[-84.137792968749991,13.17401764530662,12.808],[-84.137792968749991,13.18024323124412,5.9225],[-84.12841796875,13.18854401249412,12.3991],[-84.126318359374991,13.19281647343162,14.501],[-84.123461914062489,13.20136139530662,19.2099],[-84.117285156249991,13.20136139530662,11.0091],[-84.108691406249989,13.19721100468162,15.1369],[-84.084570312499991,13.204364324994117,4.769],[-84.06884765625,13.20136139530662,14.6434],[-84.071948242187489,13.205829168744117,8.0857],[-84.077392578125,13.215838934369117,19.9034],[-84.08251953125,13.221210028119117,8.6013],[-84.063574218749991,13.21771881718162,13.7485],[-84.048144531249989,13.21198151249412,14.832],[-84.036181640624989,13.214471746869123,9.1224],[-84.027929687499991,13.235467840619123,13.9554],[-84.02109375,13.23090241093162,15.6614],[-84.016528320312489,13.230487371869117,20.164],[-84.007421874999991,13.235467840619123,2.1162],[-84.000585937499991,13.235467840619123,15.5524],[-83.991552734374991,13.23004791874412,2.7471],[-83.987719726562489,13.234393621869117,10.3401],[-83.988818359374989,13.24433014530662,22.8895],[-83.994384765625,13.255975653119123,14.517],[-83.983935546874989,13.254169012494117,8.0229],[-83.974951171874991,13.24835846561912,3.0],[-83.968798828124989,13.24030182499412,14.5545],[-83.966479492187489,13.232049871869123,8.4715],[-83.961523437499991,13.226922918744123,2.9713],[-83.938574218749991,13.21869537968162,5.9844],[-83.931738281249991,13.21503327030662,19.3263],[-83.918066406249991,13.177118231244108,15.6061],[-83.913500976562489,13.170526434369108,2.9649],[-83.903076171875,13.16303131718162,15.2636],[-83.884521484375,13.153583074994117,2.9219],[-83.889257812499991,13.15131256718162,8.8582],[-83.89306640625,13.14838287968162,5.9949],[-83.895800781249989,13.14447662968162,6.5979],[-83.897558593749991,13.139276434369108,12.2117],[-83.890722656249991,13.139276434369108,4.6596],[-83.890722656249991,13.133075262494117,5.7314],[-83.893237304687489,13.12201569218162,6.6285],[-83.869433593749989,13.11701080936912,14.9644],[-83.86279296875,13.102069403119117,13.6739],[-83.863208007812489,13.08197662968162,8.918],[-83.861572265625,13.068622137494117,8.815],[-83.853930664062489,13.055682684369117,9.488],[-83.836108398437489,13.036883856244117,6.8958],[-83.844775390624989,13.020135809369108,9.5447],[-83.83056640625,13.004510809369108,7.3493],[-83.807958984374991,12.99298737186912,3.4617],[-83.791430664062489,12.98847077030662,4.0453],[-83.776611328125,12.979120184369108,7.4578],[-83.743823242187489,12.94293854374412,3.8529],[-83.733691406249989,12.941278387494108,0.5],[-83.720556640624991,12.93390534061912,2.8433],[-83.702075195312489,12.934833074994117,2.4839],[-83.685595703124989,12.93109772343162,12.1679],[-83.678466796875,12.909930731244117,11.7321],[-83.667041015624989,12.906756903119117,6.0833],[-83.595947265625,12.900262762494108,10.2796],[-83.595996093749989,12.89826080936912,3.0976],[-83.593310546874989,12.89423248905662,3.5315],[-83.588623046875,12.891376043744117,2.2991],[-83.582861328124991,12.89288971561912,1.9219],[-83.579931640624991,12.897967840619117,8.8206],[-83.582446289062489,12.902362371869117,8.7824],[-83.58759765625,12.90534088749412,5.6945],[-83.592529296875,12.906512762494117,8.1339],[-83.596777343749991,12.908319403119108,10.1955],[-83.596118164062489,12.912469793744108,0.0],[-83.592700195312489,12.91693756718162,5.0567],[-83.589111328125,12.919549871869108,5.4078],[-83.585253906249989,12.91950104374412,5.3724],[-83.577929687499989,12.91461823124412,2.2328],[-83.572021484375,12.913348699994117,2.1359],[-83.567187499999989,12.91156647343162,1.0457],[-83.5517578125,12.903094793744117,0.4668],[-83.541308593749989,12.900262762494108,6.0035],[-83.529467773437489,12.900165106244117,0.0],[-83.507666015624991,12.90277741093162,4.4677]]}}