{"type":"Feature","properties":{"featurecla":"River","scalerank":11,"rivernum":22177,"dissolve":"22177River","name":"null974","name_alt":null,"note":"ID is link back to CEC data","name_full":null,"min_zoom":6.7,"strokeweig":0.2,"uident":2057901,"min_label":7.7},
"geometry":{"type": "LineString","coordinates": [[-85.715931769916224,13.123317775514877,604.0027],[-85.663685676166224,13.105047918744035,572.6283],[-85.555490689187067,13.097113348431535,308.5754],[-85.477528449603724,13.129339910931535,380.0252],[-85.4164119131454,13.196071681764877,261.7793],[-85.398060676166224,13.204169012494035,241.055],[-85.2486873037704,13.206976629681535,250.6904],[-85.111561652728724,13.243760483848206,262.3139],[-84.958363410541224,13.226874090619035,127.468],[-84.8805232412704,13.249090887494035,85.9319],[-84.736154751687067,13.237168686973206,66.5938],[-84.682362433978724,13.223211981244035,92.3271],[-84.508900519916224,13.099229233848206,82.9866],[-84.4735408193954,13.047430731244035,43.5694]]}}