{"type": "Feature","bbox": [-86.546,12.1259,-86.2933,12.291],"geometry": {"type": "MultiPolygon","coordinates": [[[[-86.5192,12.1582,214.5794],[-86.4873,12.1585,223.4265],[-86.4854,12.1259,204.4572],[-86.4511,12.1309,276.1539],[-86.4005,12.1418,268.2082],[-86.379,12.1488,126.3358],[-86.3632,12.1558,106.7415],[-86.3644,12.1662,93.0414],[-86.353,12.1685,91.1159],[-86.3496,12.163,100.4318],[-86.3331,12.1703,40.6248],[-86.3323,12.1787,40.0],[-86.3046,12.197,40.0],[-86.2985,12.2029,40.0],[-86.295,12.2099,40.0],[-86.2933,12.2206,47.7637],[-86.294,12.2286,45.5279],[-86.2966,12.2355,76.6234],[-86.2967,12.2478,50.5863],[-86.3045,12.2699,45.8052],[-86.3085,12.2755,49.1947],[-86.3174,12.282,58.9903],[-86.3227,12.2882,52.6967],[-86.3312,12.2897,51.7364],[-86.3417,12.2879,57.4933],[-86.3555,12.2892,46.258],[-86.373,12.2824,44.7081],[-86.3847,12.2754,48.601],[-86.398,12.2649,40.8931],[-86.4043,12.2542,40.0],[-86.413,12.2451,40.0],[-86.4178,12.2423,40.0],[-86.4249,12.2413,40.0],[-86.4367,12.2442,40.0],[-86.4949,12.2796,40.0],[-86.5086,12.2844,40.0],[-86.5281,12.2886,53.0016],[-86.5318,12.291,49.268],[-86.5437,12.254,104.7058],[-86.5382,12.2168,152.3279],[-86.546,12.1958,186.2023],[-86.5451,12.1918,175.0245],[-86.542,12.19,180.7911],[-86.5288,12.1872,227.3879],[-86.5172,12.1815,251.2366],[-86.5129,12.1712,225.429],[-86.5135,12.1677,220.38],[-86.5192,12.1582,214.5794]]]]}
,"properties": {"GID_2": "NIC.13.3_1","GID_0": "NIC","country": "Nicaragua","GID_1": "NIC.13_1","province": "Managua","NL_NAME_1": "NA","county": "Mateare","VARNAME_2": "NA","NL_NAME_2": "NA","TYPE_2": "Municipio","ENGTYPE_2": "Municipality","CC_2": "NA","HASC_2": "NI.MN.MT","name": "Mateare.county","area_km2": 339.9709,"hist_schema_id": "Elevation0-9000","hist_area_km2": {"50": 43.7203,"75": 54.8087,"100": 34.9786,"125": 23.9741,"150": 21.7776,"175": 19.1675,"200": 21.0542,"225": 23.3142,"250": 22.8588,"275": 22.1746,"300": 19.1281,"325": 14.3205,"350": 9.7405,"375": 5.8859,"400": 2.3627,"425": 0.4767,"450": 0.1243,"475": 0.0829,"500": 0.0207}}}