{"type":"Feature","properties":{"GID_2":"NIC.4.5_1","GID_0":"NIC","country":"Nicaragua","GID_1":"NIC.4_1","province":"Carazo","NL_NAME_1":"NA","county":"LaConquista","VARNAME_2":"LaConquiSanta","NL_NAME_2":"NA","TYPE_2":"Municipio","ENGTYPE_2":"Municipality","CC_2":"NA","HASC_2":"NI.CA.LC","name":"La_Conquista.county"},
"geometry":{"type": "MultiPolygon","coordinates": [[[[-86.1736,11.8209,458.8287],[-86.1739,11.8307,485.0746],[-86.1774,11.8328,493.513],[-86.1837,11.821,472.035],[-86.1905,11.8023,422.0474],[-86.2127,11.7232,136.7469],[-86.2237,11.698,150.5864],[-86.2223,11.6927,134.8968],[-86.22,11.6918,146.5927],[-86.2158,11.693,159.2633],[-86.2106,11.6973,177.7852],[-86.2058,11.6982,180.2422],[-86.2015,11.6963,202.6765],[-86.1996,11.6864,172.9851],[-86.204,11.6602,294.0453],[-86.2035,11.6403,270.2593],[-86.2008,11.6273,156.4806],[-86.193,11.6221,182.6945],[-86.1877,11.6218,304.0782],[-86.1751,11.626,361.6913],[-86.1683,11.6323,291.5165],[-86.1655,11.6409,314.7681],[-86.1684,11.6491,375.5584],[-86.177,11.6568,340.251],[-86.1759,11.6612,265.4487],[-86.1686,11.6703,261.9324],[-86.1661,11.6776,209.4575],[-86.1642,11.6854,230.4548],[-86.1616,11.7165,222.006],[-86.1624,11.7329,212.9106],[-86.171,11.7693,300.575],[-86.1707,11.7944,369.8174],[-86.1752,11.8116,433.1967],[-86.1736,11.8209,458.8287]]]]}}