{"type": "Feature","bbox": [-86.2362,13.4326,-86.0625,13.6117],"geometry": {"type": "MultiPolygon","coordinates": [[[[-86.0625,13.496,384.8474],[-86.073,13.5068,518.8287],[-86.0935,13.5201,1072.4771],[-86.1013,13.5273,951.7101],[-86.1041,13.549,730.1839],[-86.1135,13.5616,879.6362],[-86.1488,13.587,762.6533],[-86.175,13.6116,836.0646],[-86.1805,13.6117,735.8893],[-86.1855,13.6079,851.0369],[-86.1894,13.6074,878.2723],[-86.191,13.605,911.015],[-86.2093,13.6067,796.948],[-86.2184,13.6008,850.8216],[-86.225,13.5607,852.1397],[-86.229,13.55,899.54],[-86.2362,13.5412,937.6354],[-86.2188,13.5362,1217.4862],[-86.2059,13.5284,1209.3657],[-86.1871,13.5106,1198.9933],[-86.1806,13.501,1254.312],[-86.1798,13.4345,495.7345],[-86.1557,13.4349,550.6307],[-86.1442,13.4326,668.4267],[-86.1337,13.435,514.4935],[-86.1197,13.4346,527.2366],[-86.11,13.4428,479.1334],[-86.0853,13.4556,710.4272],[-86.0833,13.4578,695.7878],[-86.0818,13.4674,393.3299],[-86.0766,13.4735,453.1344],[-86.0764,13.481,413.4713],[-86.0735,13.4888,370.3036],[-86.0657,13.4925,402.5288],[-86.0625,13.496,384.8474]]]]}
,"properties": {"GID_2": "NIC.12.4_1","GID_0": "NIC","country": "Nicaragua","GID_1": "NIC.12_1","province": "Madriz","NL_NAME_1": "NA","county": "SanJuandelRíoCoco","VARNAME_2": "SanJuandelRioCoco","NL_NAME_2": "NA","TYPE_2": "Municipio","ENGTYPE_2": "Municipality","CC_2": "NA","HASC_2": "NI.MD.SR","name": "San_Juandel_Río_Coco.county","area_km2": 201.9418,"hist_schema_id": "Elevation0-9000","hist_area_km2": {"350": 0.3505,"375": 2.3505,"400": 2.3094,"425": 2.227,"450": 2.5775,"475": 3.0518,"500": 3.3611,"525": 3.1961,"550": 3.6291,"575": 3.1548,"600": 3.1548,"625": 3.5465,"650": 2.4949,"675": 3.3813,"700": 4.1645,"725": 4.4941,"750": 5.4423,"775": 7.0499,"800": 7.6475,"825": 8.5543,"850": 9.4612,"875": 10.6568,"900": 9.9971,"925": 9.8736,"950": 9.8116,"975": 8.1009,"1000": 7.2146,"1025": 6.7199,"1050": 5.7513,"1075": 4.6174,"1100": 4.4938,"1125": 4.9474,"1150": 4.7413,"1175": 4.8856,"1200": 4.2054,"1225": 5.1124,"1250": 4.9063,"1275": 4.4735,"1300": 2.5769,"1325": 1.4636,"1350": 0.9482,"1375": 0.3298,"1400": 0.3092,"1425": 0.1237,"1450": 0.0206,"1475": 0.0618}}}