{"type": "Feature","bbox": [-86.2352,13.6074,-86.009,13.8111],"geometry": {"type": "MultiPolygon","coordinates": [[[[-86.1777,13.6123,724.5884],[-86.1711,13.618,689.6216],[-86.1558,13.6409,538.0874],[-86.1419,13.656,521.7542],[-86.1338,13.6498,510.9584],[-86.1184,13.6466,552.6584],[-86.11,13.6484,533.2655],[-86.0952,13.6578,485.7965],[-86.0862,13.6517,512.437],[-86.0743,13.6524,628.2574],[-86.0658,13.6491,481.6509],[-86.0568,13.6538,461.1694],[-86.0516,13.6534,579.0489],[-86.0451,13.65,509.5722],[-86.0404,13.6376,473.2632],[-86.0381,13.6353,434.3533],[-86.0235,13.632,467.7164],[-86.016,13.6232,420.9542],[-86.0135,13.6228,503.1144],[-86.0095,13.628,477.8139],[-86.009,13.6343,440.484],[-86.0121,13.6446,548.9943],[-86.0213,13.6542,560.4596],[-86.0239,13.659,565.0922],[-86.023,13.6655,624.9342],[-86.0185,13.6686,851.5185],[-86.0162,13.6724,708.8478],[-86.0132,13.6846,839.7745],[-86.0137,13.693,753.0925],[-86.0179,13.7029,827.4345],[-86.0185,13.7267,1029.8253],[-86.0404,13.7401,892.7737],[-86.045,13.7444,867.4061],[-86.0467,13.7487,890.7966],[-86.0447,13.7578,915.5232],[-86.0456,13.7631,919.5406],[-86.050299999999993,13.7668,960.405],[-86.0592,13.7701,1005.0464],[-86.0623,13.7763,951.6864],[-86.0617,13.7879,919.7555],[-86.0576,13.8001,1006.6527],[-86.0694,13.8111,780.0609],[-86.0792,13.8037,773.4396],[-86.1149,13.8004,831.1873],[-86.1484,13.8007,693.3164],[-86.1778,13.8056,600.1434],[-86.1802,13.7984,692.0225],[-86.1861,13.7892,726.1281],[-86.2099,13.7619,652.1027],[-86.2223,13.7368,780.4628],[-86.2301,13.7257,798.5332],[-86.2332,13.7182,708.8004],[-86.2352,13.7023,726.046],[-86.2309,13.6896,700.4539],[-86.2315,13.6768,670.2108],[-86.2276,13.6551,729.0783],[-86.2001,13.6279,682.8077],[-86.1894,13.6074,878.2723],[-86.1855,13.6079,851.0369],[-86.1777,13.6123,724.5884]]]]}
,"properties": {"GID_2": "NIC.16.2_1","GID_0": "NIC","country": "Nicaragua","GID_1": "NIC.16_1","province": "NuevaSegovia","NL_NAME_1": "NA","county": "CiudadSandino","VARNAME_2": "ElJícaro","NL_NAME_2": "NA","TYPE_2": "Municipio","ENGTYPE_2": "Municipality","CC_2": "NA","HASC_2": "NI.NS.EJ","name": "Ciudad_Sandino.county","area_km2": 363.7164,"hist_schema_id": "Elevation0-9000","hist_area_km2": {"400": 0.1854,"425": 0.5151,"450": 0.9478,"475": 2.5959,"500": 5.8302,"525": 11.1652,"550": 24.019,"575": 35.6769,"600": 39.8577,"625": 37.4265,"650": 35.5718,"675": 30.3399,"700": 26.0556,"725": 22.2454,"750": 17.3838,"775": 13.5113,"800": 11.2252,"825": 8.8568,"850": 7.8474,"875": 7.1676,"900": 6.8173,"925": 5.252,"950": 4.5722,"975": 3.769,"1000": 2.245,"1025": 1.174,"1050": 0.9269,"1075": 0.4738,"1100": 0.0618}}}