{"type": "Feature","bbox": [-86.6191,13.269,-86.42,13.4296],"geometry": {"type": "MultiPolygon","coordinates": [[[[-86.4251,13.4028,577.7431],[-86.435,13.4017,608.3358],[-86.4455,13.403,623.0576],[-86.4691,13.4135,664.0659],[-86.5186,13.429,819.9189],[-86.5317,13.4296,871.5],[-86.5469,13.4254,990.2043],[-86.5602,13.4104,1077.427],[-86.5688,13.3931,1129.1348],[-86.5972,13.3477,1541.0728],[-86.6191,13.2965,1459.1128],[-86.5871,13.2929,887.5425],[-86.5699,13.2885,891.1617],[-86.5544,13.2818,598.234],[-86.5444,13.273,1026.308],[-86.537,13.269,969.8995],[-86.5228,13.2704,1155.3805],[-86.5039,13.281,1344.0945],[-86.4669,13.2929,854.0505],[-86.4632,13.2962,902.7022],[-86.4517,13.3134,854.0258],[-86.4474,13.3227,747.6669],[-86.446,13.3382,804.9097],[-86.449,13.3561,704.561],[-86.443,13.3607,637.4822],[-86.4254,13.3622,658.9182],[-86.4203,13.3645,696.7609],[-86.42,13.3793,545.7429],[-86.4251,13.4028,577.7431]]]]}
,"properties": {"GID_2": "NIC.7.4_1","GID_0": "NIC","country": "Nicaragua","GID_1": "NIC.7_1","province": "Estelí","NL_NAME_1": "NA","county": "PuebloNuevo","VARNAME_2": "PluebloNuevo","NL_NAME_2": "NA","TYPE_2": "Municipio","ENGTYPE_2": "Municipality","CC_2": "NA","HASC_2": "NI.ES.PN","name": "Pueblo_Nuevo.county","area_km2": 243.6321,"hist_schema_id": "Elevation0-9000","hist_area_km2": {"550": 0.7426,"575": 4.8679,"600": 8.3332,"625": 9.8802,"650": 16.2953,"675": 17.3066,"700": 16.2755,"725": 13.7382,"750": 13.2433,"775": 11.8819,"800": 11.4488,"825": 10.3143,"850": 9.3861,"875": 8.5818,"900": 8.7057,"925": 7.7157,"950": 7.5303,"975": 6.5816,"1000": 6.2515,"1025": 6.2102,"1050": 5.6532,"1075": 5.7152,"1100": 4.0645,"1125": 2.8472,"1150": 2.7853,"1175": 2.7853,"1200": 2.8473,"1225": 2.806,"1250": 2.7029,"1275": 2.1665,"1300": 1.8157,"1325": 1.1967,"1350": 1.011,"1375": 0.9697,"1400": 1.176,"1425": 1.1142,"1450": 1.0522,"1475": 1.2172,"1500": 1.1966,"1525": 0.6602,"1550": 0.5777,"1575": 0.6189,"1600": 0.2063,"1625": 0.3714,"1650": 0.4126,"1675": 0.3095,"1700": 0.0619}}}