{"type":"Feature","properties":{"GID_2":"NIC.18.2_1","GID_0":"NIC","country":"Nicaragua","GID_1":"NIC.18_1","province":"Rivas","NL_NAME_1":"NA","county":"Belén","VARNAME_2":"NA","NL_NAME_2":"NA","TYPE_2":"Municipio","ENGTYPE_2":"Municipality","CC_2":"NA","HASC_2":"NI.RI.BE","name":"Belén.county"},
"geometry":{"type": "MultiPolygon","coordinates": [[[[-86.1442,11.5736,55.2996],[-86.0974,11.5801,173.8639],[-86.0954,11.5797,172.0418],[-86.094,11.5769,168.9515],[-86.0918,11.5621,144.2211],[-86.0877,11.5589,84.4591],[-86.0608,11.5651,95.1491],[-86.0468,11.5661,169.8607],[-86.0412,11.5649,111.4869],[-86.026,11.5475,215.5479],[-86.0245,11.5433,92.7995],[-86.0245,11.5267,157.8535],[-86.0201,11.5181,138.4516],[-86.0158,11.5143,150.881],[-86.0046,11.5086,210.3473],[-85.9892,11.5074,226.9452],[-85.9743,11.5013,245.7402],[-85.9329,11.4719,80.5616],[-85.914,11.4607,117.6047],[-85.8939,11.4447,201.302],[-85.8853,11.4457,146.2724],[-85.8786,11.4518,121.2752],[-85.8748,11.4588,111.8678],[-85.8683,11.4658,137.3615],[-85.8609,11.4673,93.2585],[-85.863,11.4753,80.2064],[-85.8795,11.4975,70.9251],[-85.8878,11.5136,71.0917],[-85.8906,11.5229,63.5935],[-85.8939,11.5583,58.7095],[-85.899,11.5744,55.6097],[-85.9056,11.5807,63.526],[-85.9233,11.5909,82.504],[-85.9393,11.6033,62.4105],[-85.9648,11.6453,52.863],[-85.9805,11.6465,56.9631],[-85.9943,11.6532,71.3023],[-86.004,11.6515,106.7286],[-86.0176,11.641,160.8787],[-86.0205,11.6358,138.9142],[-86.0241,11.6224,93.9289],[-86.0268,11.6192,91.0893],[-86.0323,11.6169,109.5258],[-86.0567,11.616,91.9994],[-86.0679,11.6131,100.8181],[-86.0853,11.6009,69.8719],[-86.0922,11.6023,109.1879],[-86.0954,11.6052,81.3262],[-86.1003,11.6062,76.1879],[-86.1135,11.6048,66.1713],[-86.1178,11.5985,61.6359],[-86.1442,11.5736,55.2996]]]]}}