{"type": "Feature","bbox": [-86.0752,12.9844,-85.6609,13.3459],"geometry": {"type": "MultiPolygon","coordinates": [[[[-85.8173,13.3459,592.1506],[-85.8568,13.3459,804.9628],[-85.8749,13.3439,1091.2229],[-85.8791,13.3328,1056.1545],[-85.8945,13.3054,1033.8744],[-85.9131,13.2815,1060.4946],[-85.9271,13.2687,1026.9249],[-85.9487,13.2592,1094.9896],[-85.9565,13.2572,1158.871],[-85.9686,13.2573,1059.2319],[-85.9799,13.2595,1056.2695],[-85.9991,13.2688,1027.0184],[-86.0086,13.2771,922.2939],[-86.0142,13.2687,929.333],[-86.0272,13.2618,1015.7815],[-86.0306,13.2554,1057.012],[-86.0373,13.2332,1262.1675],[-86.0379,13.2203,1311.4602],[-86.0487,13.2066,1175.8955],[-86.0493,13.2003,1095.7174],[-86.0457,13.1793,1173.2811],[-86.0468,13.1746,1162.9684],[-86.0579,13.1562,971.8484],[-86.067,13.1261,1147.0189],[-86.0685,13.0834,608.5106],[-86.0752,13.0629,622.889],[-86.0745,13.0446,588.1197],[-86.0717,13.0293,640.7176],[-86.0582,13.0274,688.7224],[-86.0474,13.0215,800.5264],[-86.0414,13.0137,905.7533],[-86.0362,12.9993,993.2244],[-86.0338,12.987,1012.5513],[-86.0032,12.9844,1210.7939],[-85.9966,12.9851,1174.7688],[-85.9955,12.9904,1176.5339],[-85.9969,13.0058,986.3924],[-85.9931,13.0087,915.0164],[-85.9766,13.0037,924.8678],[-85.9402,13.0003,1084.9812],[-85.9213,13.0065,1410.7034],[-85.8819,13.0463,1239.2616],[-85.8202,13.0978,1094.2103],[-85.8009,13.1164,829.5801],[-85.7914,13.1207,785.4514],[-85.7735,13.1215,554.2538],[-85.7681,13.1241,534.449],[-85.7584,13.1359,1002.3104],[-85.744,13.1638,842.2903],[-85.7365,13.1736,909.6368],[-85.7159,13.1943,832.0503],[-85.6801,13.2261,1080.2645],[-85.6626,13.2489,1292.1288],[-85.6609,13.2529,1476.9131],[-85.6777,13.2554,1547.7046],[-85.6846,13.2537,1631.0387],[-85.6987,13.2453,1142.2981],[-85.7256,13.2391,920.3085],[-85.743,13.2464,762.9879],[-85.7478,13.2525,761.6938],[-85.754,13.2554,780.2366],[-85.7614,13.2616,748.4238],[-85.774,13.2753,749.1406],[-85.7847,13.2968,589.4404],[-85.788,13.3002,599.6603],[-85.7943,13.3023,634.0845],[-85.8104,13.3039,857.41],[-85.8164,13.3085,683.7646],[-85.8185,13.315,558.4074],[-85.8183,13.3199,628.361],[-85.8142,13.3252,730.6133],[-85.8129,13.3297,600.1725],[-85.8136,13.3359,569.3479],[-85.8178,13.3438,593.8766],[-85.8173,13.3459,592.1506]]]]}
,"properties": {"GID_2": "NIC.9.2_1","GID_0": "NIC","country": "Nicaragua","GID_1": "NIC.9_1","province": "Jinotega","NL_NAME_1": "NA","county": "Jinotega","VARNAME_2": "NA","NL_NAME_2": "NA","TYPE_2": "Municipio","ENGTYPE_2": "Municipality","CC_2": "NA","HASC_2": "NI.JI.JI","name": "Jinotega.county","area_km2": 950.3292,"hist_schema_id": "Elevation0-9000","hist_area_km2": {"475": 0.2682,"500": 0.8873,"525": 1.486,"550": 1.5067,"575": 2.4568,"600": 4.7693,"625": 4.5838,"650": 4.6249,"675": 5.4505,"700": 7.0194,"725": 8.5259,"750": 9.4139,"775": 10.1156,"800": 12.7162,"825": 16.4527,"850": 18.4139,"875": 21.0557,"900": 20.5817,"925": 23.5949,"950": 87.8171,"975": 84.4092,"1000": 80.031,"1025": 76.1496,"1050": 57.84,"1075": 52.1453,"1100": 48.3266,"1125": 39.8231,"1150": 28.5329,"1175": 23.6211,"1200": 21.7434,"1225": 22.5903,"1250": 20.1543,"1275": 17.4911,"1300": 15.0546,"1325": 14.3939,"1350": 13.0931,"1375": 11.379,"1400": 10.6562,"1425": 10.553,"1450": 9.4998,"1475": 9.8097,"1500": 7.6413,"1525": 4.9772,"1550": 3.0978,"1575": 2.2717,"1600": 1.5281,"1625": 0.8258,"1650": 0.4129,"1675": 0.3096,"1700": 0.1445,"1725": 0.0826}}}