{"type":"Feature","properties":{"GID_2":"NIC.3.5_1","GID_0":"NIC","country":"Nicaragua","GID_1":"NIC.3_1","province":"Boaco","NL_NAME_1":"NA","county":"SantaLucía","VARNAME_2":"NA","NL_NAME_2":"NA","TYPE_2":"Municipio","ENGTYPE_2":"Municipality","CC_2":"NA","HASC_2":"NI.BO.SL","name":"Santa_Lucía.county"},
"geometry":{"type": "MultiPolygon","coordinates": [[[[-85.6642,12.5496,793.2733],[-85.6692,12.5513,770.5079],[-85.6786,12.5465,793.4246],[-85.6902,12.5456,773.2294],[-85.6927,12.5427,752.9305],[-85.7073,12.5368,569.6789],[-85.7393,12.5351,891.9424],[-85.7421,12.5326,783.7598],[-85.753,12.5054,315.5846],[-85.7595,12.4953,255.6392],[-85.755,12.4849,252.0941],[-85.7487,12.4764,260.4585],[-85.7502,12.4642,230.2439],[-85.7435,12.4492,201.0269],[-85.7429,12.4445,193.6792],[-85.7455,12.4345,181.7855],[-85.7369,12.4217,214.1097],[-85.7199,12.4224,334.0917],[-85.7072,12.4152,367.0261],[-85.702,12.4137,397.6397],[-85.6937,12.4139,412.2994],[-85.683,12.4171,534.4664],[-85.6758,12.4277,384.1112],[-85.6687,12.4313,465.3941],[-85.6937,12.4779,572.4528],[-85.6863,12.4851,515.0012],[-85.6717,12.5124,734.0144],[-85.6654,12.5373,740.3427],[-85.6642,12.5496,793.2733]]]]}}