{"type": "Feature","bbox": [-86.0737,12.7278,-85.6705,13.1072],"geometry": {"type": "MultiPolygon","coordinates": [[[[-86.0338,12.987,1012.5513],[-86.0737,12.941,544.3816],[-86.0604,12.8907,602.1603],[-86.0293,12.8878,539.6676],[-86.0365,12.8503,580.9702],[-86.0248,12.8462,618.7672],[-85.9851,12.8538,695.0101],[-85.9774,12.8497,812.9379],[-85.9693,12.8424,915.5266],[-85.9582,12.8301,704.796],[-85.9504,12.8175,789.3605],[-85.9428,12.8098,940.2208],[-85.9336,12.8046,1012.6543],[-85.9185,12.8016,613.8652],[-85.8939,12.807,600.78],[-85.8753,12.8236,585.4239],[-85.8685,12.8277,521.9515],[-85.8491,12.8341,536.0414],[-85.8416,12.839,614.8616],[-85.837,12.8398,566.9336],[-85.8331,12.8383,555.2637],[-85.8102,12.8207,722.7479],[-85.8166,12.8008,1052.8676],[-85.8158,12.7857,816.0309],[-85.8118,12.7766,839.528],[-85.8012,12.7667,482.8175],[-85.7947,12.7567,465.7909],[-85.7956,12.7341,358.2092],[-85.7942,12.7278,381.7221],[-85.7706,12.7324,380.0134],[-85.7565,12.7448,376.5066],[-85.7334,12.745,406.6045],[-85.73,12.7465,396.086],[-85.7216,12.7549,332.0114],[-85.7111,12.7573,317.0825],[-85.7088,12.7838,309.4826],[-85.7044,12.7952,301.9702],[-85.6977,12.8008,290.806],[-85.6705,12.8124,367.9606],[-85.6852,12.8272,428.2938],[-85.6875,12.8276,455.1589],[-85.6925,12.822,565.8797],[-85.7048,12.8257,514.3335],[-85.7199,12.8249,448.4882],[-85.7261,12.8282,463.1058],[-85.7299,12.8336,585.9474],[-85.7403,12.8313,519.0104],[-85.7559,12.8336,659.7299],[-85.7719,12.8297,485.9283],[-85.776,12.8328,516.8057],[-85.7806,12.8408,531.7578],[-85.7857,12.8447,559.4482],[-85.799,12.8487,671.8967],[-85.82,12.8509,579.4163],[-85.8431,12.8556,635.3643],[-85.855,12.8616,595.9424],[-85.8612,12.8682,639.4946],[-85.8624,12.8739,671.4233],[-85.8616,12.9625,1032.7238],[-85.8028,13.0367,715.1986],[-85.8105,13.1072,841.2469],[-85.8819,13.0463,1239.2616],[-85.9213,13.0065,1410.7034],[-85.9402,13.0003,1084.9812],[-85.9766,13.0037,924.8678],[-85.9931,13.0087,915.0164],[-85.9969,13.0058,986.3924],[-85.9955,12.9904,1176.5339],[-85.9966,12.9851,1174.7688],[-86.0032,12.9844,1210.7939],[-86.0338,12.987,1012.5513]]]]}
,"properties": {"GID_2": "NIC.15.3_1","GID_0": "NIC","country": "Nicaragua","GID_1": "NIC.15_1","province": "Matagalpa","NL_NAME_1": "NA","county": "Matagalpa","VARNAME_2": "NA","NL_NAME_2": "NA","TYPE_2": "Municipio","ENGTYPE_2": "Municipality","CC_2": "NA","HASC_2": "NI.MT.MP","name": "Matagalpa.county","area_km2": 605.1201,"hist_schema_id": "Elevation0-9000","hist_area_km2": {"275": 1.0546,"300": 14.6397,"325": 15.4049,"350": 9.6561,"375": 8.4981,"400": 7.8983,"425": 9.0974,"450": 9.0971,"475": 7.9392,"500": 5.6028,"525": 7.2978,"550": 8.1861,"575": 12.0509,"600": 16.9899,"625": 20.9785,"650": 22.9001,"675": 24.284,"700": 23.0022,"725": 22.9395,"750": 23.9102,"775": 26.8032,"800": 27.9808,"825": 24.7359,"850": 22.6694,"875": 21.6982,"900": 18.6805,"925": 17.3169,"950": 16.4695,"975": 14.0307,"1000": 12.6881,"1025": 12.3363,"1050": 12.2122,"1075": 11.3855,"1100": 10.9101,"1125": 11.7572,"1150": 8.6576,"1175": 7.6653,"1200": 7.3347,"1225": 7.3758,"1250": 7.2925,"1275": 5.867,"1300": 5.8667,"1325": 5.2885,"1350": 3.6357,"1375": 4.2347,"1400": 3.1192,"1425": 2.0038,"1450": 1.0949,"1475": 0.847,"1500": 0.5784,"1525": 0.5991,"1550": 0.4338,"1575": 0.0826,"1600": 0.0413}}}