{"type": "Feature","bbox": [-85.6762,11.6153,-84.5721,12.6448],"geometry": {"type": "MultiPolygon","coordinates": [[[[-85.2111,11.7182,31.0],[-85.2137,11.715,31.0],[-85.2127,11.7129,31.0],[-85.2078,11.7147,31.0],[-85.2082,11.7174,31.0],[-85.2111,11.7182,31.0]]],
[[[-85.2168,11.7158,31.0],[-85.2164,11.7197,31.0],[-85.2223,11.7216,31.0],[-85.2221,11.7164,31.0],[-85.2168,11.7158,31.0]]],
[[[-85.2108,11.7271,31.0],[-85.2129,11.7279,31.0],[-85.2171,11.726,31.0],[-85.2125,11.7216,31.0],[-85.2107,11.7238,31.0],[-85.2108,11.7271,31.0]]],
[[[-85.2228,11.7294,31.0],[-85.2227,11.7263,31.0],[-85.2208,11.7243,31.0],[-85.2185,11.7245,31.0],[-85.2179,11.7279,31.0],[-85.22,11.7299,31.0],[-85.2228,11.7294,31.0]]],
[[[-85.2218,11.7334,31.0],[-85.2173,11.7326,31.0],[-85.2182,11.7362,31.0],[-85.2206,11.7384,31.0],[-85.2239,11.7384,31.0],[-85.2249,11.7365,31.0],[-85.2218,11.7334,31.0]]],
[[[-85.2346,11.7346,31.0],[-85.2329,11.7297,31.0],[-85.2292,11.7302,31.0],[-85.2281,11.7355,31.0],[-85.2324,11.7434,31.0],[-85.2362,11.7473,31.0],[-85.2411,11.7472,31.0],[-85.2419,11.7425,31.0],[-85.2354,11.737,31.0],[-85.2346,11.7346,31.0]]],
[[[-85.6161,11.9345,31.0],[-85.6173,11.9312,31.0],[-85.6162,11.9295,31.0],[-85.612,11.9299,31.0],[-85.612799999999993,11.9351,31.0],[-85.6161,11.9345,31.0]]],
[[[-85.6184,11.9411,31.0],[-85.6145,11.9421,31.0],[-85.6125,11.946,31.0],[-85.6142,11.9481,31.0],[-85.6188,11.9478,31.0],[-85.6196,11.9435,31.0],[-85.6184,11.9411,31.0]]],
[[[-85.6069,11.9728,31.0],[-85.6082,11.9758,31.0],[-85.6187,11.9727,31.0],[-85.6192,11.968,31.0],[-85.6172,11.9627,31.0],[-85.6149,11.9612,31.0],[-85.6122,11.9632,31.0],[-85.609,11.9667,31.0],[-85.6069,11.9728,31.0]]],
[[[-85.4578,12.3166,416.7944],[-85.4699,12.3089,467.0182],[-85.4788,12.3113,461.2888],[-85.488,12.3161,451.1543],[-85.5054,12.3121,456.3829],[-85.5314,12.313,369.4558],[-85.5442,12.3116,201.8729],[-85.5671,12.3017,267.6823],[-85.5821,12.2846,144.6228],[-85.5886,12.2716,150.8963],[-85.5922,12.259,200.0331],[-85.5967,12.227,442.0289],[-85.5973,12.2098,307.2418],[-85.5989,12.2046,256.1049],[-85.6032,12.2003,213.2948],[-85.632,12.1857,217.2151],[-85.6351,12.1819,237.8099],[-85.6391,12.1721,358.3256],[-85.6416,12.1606,314.1319],[-85.6381,12.1416,73.1191],[-85.6394,12.1373,69.3794],[-85.6481,12.1252,49.0111],[-85.6606,12.1029,70.6528],[-85.6659,12.0886,35.442],[-85.6762,12.0757,35.6494],[-85.6748,12.0593,31.0],[-85.669,12.0371,31.0],[-85.6632,12.0331,31.0],[-85.6527,12.0304,31.0],[-85.6517,12.0285,31.0],[-85.6531,12.0254,31.0],[-85.6597,12.0237,31.0],[-85.6613,12.0218,31.0],[-85.6466,12.0125,31.0],[-85.6397,12.0178,31.0],[-85.6305,12.0159,31.0],[-85.6261,12.0168,31.0],[-85.6077,12.026,31.0],[-85.5927,12.0241,31.0],[-85.5807,12.0178,31.0],[-85.5656,12.0064,31.0],[-85.5458,11.982,31.0],[-85.5303,11.9673,31.0],[-85.5128,11.9416,31.0],[-85.4827,11.8907,31.0],[-85.4733,11.8811,31.0],[-85.4705,11.8801,31.0],[-85.4608,11.8813,31.0],[-85.4482,11.869,31.0],[-85.438,11.8629,31.0],[-85.4347,11.8654,31.0],[-85.4321,11.8766,31.0],[-85.4284,11.8786,31.0],[-85.4208,11.8772,31.0],[-85.4023,11.8679,31.0],[-85.3709,11.8651,31.0],[-85.3545,11.8522,31.0],[-85.3436,11.8451,31.0],[-85.3342,11.8421,31.0],[-85.3285,11.8376,31.0],[-85.3139,11.8229,31.0],[-85.3071,11.8102,31.0],[-85.2929,11.792,31.0],[-85.2708,11.7686,31.0],[-85.2513,11.7638,31.0],[-85.2354,11.7522,31.4902],[-85.2297,11.7512,31.0],[-85.2169,11.7526,35.5708],[-85.2106,11.7508,31.0],[-85.204,11.7466,31.0],[-85.1958,11.7379,31.0],[-85.1921,11.7212,31.0],[-85.1835,11.7139,31.0],[-85.1825,11.7107,31.0],[-85.1856,11.7054,31.0],[-85.1839,11.7026,31.0],[-85.1792,11.7014,31.0],[-85.1744,11.6944,31.0],[-85.1719,11.6951,31.0],[-85.171,11.6982,31.0],[-85.1673,11.7001,31.0],[-85.1628,11.6981,31.0],[-85.1508,11.6838,31.0],[-85.1507,11.6641,31.0],[-85.1357,11.6574,31.0],[-85.1295,11.6523,31.0],[-85.126,11.646,31.0],[-85.1203,11.6233,31.0],[-85.1164,11.6153,31.0],[-85.1133,11.6153,31.0],[-85.1147,11.6247,31.0],[-85.1059,11.6324,31.0],[-85.1067,11.639,31.0],[-85.1014,11.6412,31.0],[-85.0985,11.6448,33.5381],[-85.0986,11.6521,33.2193],[-85.0964,11.6567,34.507],[-85.0725,11.6607,74.2548],[-85.0619,11.6715,40.241],[-85.0557,11.6743,42.6088],[-85.0545,11.677,42.4214],[-85.0558,11.6826,40.1104],[-85.0507,11.6832,43.4086],[-85.0507,11.6886,39.9505],[-85.0479,11.6896,41.5846],[-85.0366,11.6861,48.5901],[-85.0308,11.6796,50.9886],[-85.028,11.6798,71.6672],[-85.0234,11.6884,49.0079],[-85.0159,11.6883,45.3242],[-85.0139,11.6899,43.4386],[-85.0057,11.7068,48.4771],[-85.0016,11.7116,49.4533],[-84.9944,11.714,48.2693],[-84.9849,11.7143,45.1125],[-84.9836,11.7189,48.8684],[-84.9765,11.7231,48.3865],[-84.9754,11.7256,47.3017],[-84.9754,11.7315,49.1783],[-84.9795,11.7369,54.2364],[-84.9799,11.7425,62.2469],[-84.9787,11.7444,52.8377],[-84.9691,11.748,56.4305],[-84.9665,11.7596,53.6558],[-84.9613,11.7651,57.6553],[-84.944,11.7675,66.8771],[-84.9394,11.7708,66.3283],[-84.9292,11.7735,67.4769],[-84.9215,11.7814,68.1328],[-84.9184,11.7798,80.0454],[-84.9133,11.78,72.8985],[-84.9055,11.7846,101.915],[-84.8965,11.7856,165.1493],[-84.8832,11.7997,83.1634],[-84.8796,11.8073,81.0274],[-84.8681,11.8116,83.9209],[-84.82,11.8388,132.1911],[-84.7933,11.8478,177.2442],[-84.782,11.8491,176.4701],[-84.7679,11.8476,171.3454],[-84.7376,11.8582,149.8248],[-84.732,11.8581,165.957],[-84.716,11.8573,154.3553],[-84.7068,11.8543,142.2064],[-84.6934,11.8572,143.4848],[-84.6807,11.8569,124.504],[-84.6721,11.8527,116.9577],[-84.6572,11.8493,114.0143],[-84.6439,11.8473,121.0237],[-84.61,11.8462,144.2768],[-84.6157,11.8598,115.5651],[-84.6217,11.8667,113.5606],[-84.6273,11.877,109.9753],[-84.63,11.8904,105.1977],[-84.6281,11.8949,96.7977],[-84.6016,11.9044,88.9432],[-84.5738,11.9061,147.1342],[-84.5721,11.9089,185.5743],[-84.5771,11.9136,107.7463],[-84.6189,11.9329,98.9236],[-84.6553,11.9462,115.6333],[-84.6802,11.9576,132.6539],[-84.7084,11.9674,111.3493],[-84.7231,11.9786,127.847],[-84.7311,11.9893,121.4624],[-84.7344,12.0062,177.7948],[-84.7399,12.0732,229.8684],[-84.7434,12.0921,126.319],[-84.7524,12.1096,270.9966],[-84.7669,12.1288,427.1134],[-84.7706,12.1367,393.0142],[-84.7751,12.1545,147.4266],[-84.7849,12.1793,213.445],[-84.7877,12.2015,247.1298],[-84.7957,12.2235,359.8258],[-84.7961,12.234,307.5241],[-84.7819,12.2574,222.8917],[-84.7818,12.2669,203.5332],[-84.8053,12.299,298.7524],[-84.8209,12.3314,336.073],[-84.823,12.3342,346.1868],[-84.8299,12.3372,338.3814],[-84.8372,12.3432,346.3008],[-84.8491,12.3604,262.1971],[-84.863,12.3869,194.519],[-84.8694,12.4086,188.2102],[-84.8703,12.4149,133.6615],[-84.8691,12.4198,173.7828],[-84.862799999999993,12.4276,155.0035],[-84.8562,12.4414,143.4259],[-84.8465,12.4504,147.478],[-84.8453,12.4534,173.7263],[-84.8485,12.463,140.7429],[-84.8474,12.4654,134.2735],[-84.8358,12.4725,170.724],[-84.8489,12.4807,136.4167],[-84.8641,12.4848,155.3734],[-84.8733,12.4929,127.2781],[-84.8784,12.5008,120.0686],[-84.8899,12.5271,120.2928],[-84.8953,12.5516,134.5731],[-84.9053,12.5569,133.8376],[-84.9092,12.579,140.1374],[-84.9162,12.586,163.8495],[-84.9444,12.6076,167.2355],[-84.9581,12.6279,174.1474],[-84.9643,12.6435,181.9625],[-84.9681,12.6448,193.3788],[-85.0046,12.5862,436.7919],[-85.0112,12.573,350.8254],[-85.0275,12.5507,398.789],[-85.0332,12.5315,459.4837],[-85.0325,12.4998,538.2563],[-85.0355,12.484,448.3989],[-85.0393,12.4768,323.9672],[-85.0777,12.4269,282.4727],[-85.0957,12.4244,269.4355],[-85.1044,12.4213,267.5427],[-85.1201,12.4085,258.4519],[-85.127,12.4092,265.2649],[-85.1424,12.4208,333.7636],[-85.1769,12.4082,396.636],[-85.1971,12.3963,417.3132],[-85.2115,12.3787,346.6298],[-85.2286,12.3613,335.7328],[-85.248,12.3512,457.3692],[-85.2652,12.3372,359.1906],[-85.2826,12.3282,363.748],[-85.2861,12.3276,340.5051],[-85.2927,12.3304,304.6786],[-85.3004,12.3374,351.6621],[-85.3172,12.3245,369.0549],[-85.3429,12.3221,537.0314],[-85.4061,12.3102,604.8837],[-85.4318,12.308,495.4422],[-85.4396,12.3098,459.4012],[-85.4455,12.3174,476.7638],[-85.4523,12.3184,442.2316],[-85.4578,12.3166,416.7944]]],
[[[-85.2112,11.738,39.848],[-85.2154,11.7378,31.0],[-85.215,11.7343,34.0347],[-85.212,11.7341,31.0],[-85.2105,11.736,31.0],[-85.2112,11.738,39.848]]],
[[[-85.2068,11.7434,31.0],[-85.2104,11.741,31.0],[-85.2084,11.7387,37.9095],[-85.2061,11.7387,31.0],[-85.2068,11.7434,31.0]]],
[[[-85.2105,11.7488,31.0],[-85.2144,11.749,39.4443],[-85.2153,11.7461,31.0],[-85.211,11.745,31.0],[-85.2105,11.7488,31.0]]],
[[[-85.2052,11.7263,31.0],[-85.2075,11.7252,31.0],[-85.2077,11.7227,31.0],[-85.2047,11.7183,31.0],[-85.2029,11.7197,31.0],[-85.2052,11.7263,31.0]]]]}
,"properties": {"GID_1": "NIC.6_1","GID_0": "NIC","country": "Nicaragua","province": "Chontales","VARNAME_1": "NA","NL_NAME_1": "NA","TYPE_1": "Departamento","ENGTYPE_1": "Department","CC_1": "NA","HASC_1": "NI.CO","ISO_1": "NI-CO","name": "Chontales.province","area_km2": 6302.661,"hist_schema_id": "Elevation0-9000","hist_area_km2": {"25": 347.057,"50": 648.753,"75": 394.094,"100": 326.437,"125": 340.908,"150": 316.337,"175": 306.115,"200": 311.283,"225": 329.607,"250": 379.977,"275": 351.988,"300": 319.718,"325": 323.158,"350": 298.147,"375": 233.972,"400": 211.022,"425": 164.194,"450": 134.989,"475": 114.182,"500": 100.322,"525": 92.074,"550": 67.558,"575": 55.974,"600": 43.042,"625": 30.71,"650": 19.436,"675": 12.329,"700": 8.931,"725": 6.403,"750": 4.227,"775": 2.487,"800": 2.238,"825": 1.513,"850": 1.202,"875": 0.912,"900": 0.684,"925": 0.477,"950": 0.186}}}