{"type":"Feature","properties":{"ISO3166-1-Alpha-3":"NIC","country":"Nicaragua","fill":"#00F","id":"669","name":"Chontales"},
"geometry":{"type": "Polygon","coordinates": [[[-84.60741,11.86251,111.1616],[-84.61258,11.8792,96.4358],[-84.61971,11.89243,105.9553],[-84.62072,11.89532,109.0567],[-84.62157,11.89964,104.5615],[-84.61362,11.90651,104.7536],[-84.57463,11.92253,79.3881],[-84.70242,11.98273,103.0839],[-84.70932,11.99294,109.2952],[-84.7727,12.15003,234.3855],[-84.78598,12.20969,293.4405],[-84.7874,12.24269,307.5053],[-84.7811,12.26517,211.2762],[-84.78423,12.28028,234.853],[-84.81965,12.34196,379.7028],[-84.82554,12.34824,371.1392],[-84.83278,12.35418,252.1134],[-84.8396,12.36149,270.9768],[-84.84693,12.37356,302.1944],[-84.85215,12.38986,191.7141],[-84.85634,12.42214,139.855],[-84.85515,12.43916,123.847],[-84.85236,12.45146,136.9203],[-84.84665,12.46498,134.2735],[-84.84533,12.47082,148.3575],[-84.84735,12.47758,145.8374],[-84.85368,12.48808,118.9906],[-84.86701,12.50081,142.7027],[-84.88786,12.53179,135.5006],[-84.90972,12.57949,142.5418],[-84.91561,12.58918,160.1388],[-84.9445,12.61525,167.7766],[-84.96853,12.64951,193.5599],[-84.98122,12.62445,250.565],[-85.01928,12.56967,370.0901],[-85.02323,12.56171,433.9136],[-85.02571,12.55365,390.455],[-85.02713,12.54246,395.7173],[-85.02762,12.50565,500.6674],[-85.03044,12.49456,404.9576],[-85.03566,12.48319,410.6093],[-85.0523,12.46255,291.2293],[-85.0633,12.45185,294.8739],[-85.07801,12.44087,269.5365],[-85.10738,12.42663,259.3705],[-85.12172,12.42438,259.1218],[-85.12774,12.42413,255.4069],[-85.13795,12.42537,275.9327],[-85.14862,12.42296,493.0715],[-85.16371,12.41705,497.5515],[-85.22223,12.37749,320.1479],[-85.23415,12.37105,329.624],[-85.27505,12.35744,315.3092],[-85.32905,12.35144,365.7899],[-85.40085,12.33889,518.1621],[-85.44372,12.34072,488.5915],[-85.47284,12.34121,460.7731],[-85.49759,12.34516,499.7998],[-85.50855,12.34553,480.5359],[-85.52281,12.34134,486.2497],[-85.56056,12.32312,218.1778],[-85.58635,12.30468,172.1601],[-85.59107,12.3001,188.8583],[-85.59911,12.28938,150.009],[-85.6011,12.2845,268.5262],[-85.60226,12.27809,128.7611],[-85.60211,12.25377,202.0052],[-85.5997,12.23558,374.197],[-85.59994,12.22894,365.4803],[-85.60208,12.22197,423.882],[-85.62213,12.1768,350.0499],[-85.6233,12.17517,349.8393],[-85.62446,12.17324,269.6802],[-85.62588,12.17138,231.6983],[-85.63526,12.15657,121.3133],[-85.64004,12.14698,78.5767],[-85.65665,12.04647,33.0571],[-85.52291,11.68053,31.0],[-85.10152,11.63146,31.0],[-85.0833,11.66221,63.2881],[-85.08087,11.66513,104.4692],[-85.07669,11.66893,55.5074],[-85.06118,11.67652,42.4635],[-85.04116,11.69035,46.0531],[-85.03199,11.69531,84.9702],[-85.02571,11.69776,49.046],[-85.02106,11.696,42.4784],[-85.01855,11.69538,43.5798],[-85.01369,11.69593,42.7118],[-84.99504,11.70283,45.0173],[-84.98899,11.70629,43.4417],[-84.98569,11.70864,45.977],[-84.98238,11.71419,47.2443],[-84.9778,11.72014,48.1902],[-84.97083,11.72748,66.7506],[-84.96943,11.72928,86.7764],[-84.96845,11.73151,57.1714],[-84.9669,11.73383,53.7281],[-84.96274,11.73841,52.8368],[-84.96078,11.74132,50.1692],[-84.9598,11.74536,50.2833],[-84.95977,11.74652,53.2005],[-84.95698,11.75303,69.212],[-84.94212,11.77561,66.6913],[-84.89936,11.78481,143.6881],[-84.87427,11.80106,76.471],[-84.80823,11.8608,137.4993],[-84.80497,11.86561,131.2239],[-84.80017,11.86705,253.7407],[-84.79497,11.86783,306.1215],[-84.72131,11.86692,123.8761],[-84.70087,11.87049,115.5396],[-84.6965,11.87054,113.3208],[-84.68803,11.86816,125.4758],[-84.684,11.86785,119.4437],[-84.66891,11.86933,104.2645],[-84.66552,11.86886,102.4176],[-84.66175,11.86801,104.8952],[-84.65695,11.86607,107.3864],[-84.64571,11.86375,118.232],[-84.60741,11.86251,111.1616]]]}}