{"type":"Feature","properties":{"featurecla":"Lake Centerline","scalerank":5,"rivernum":159,"dissolve":"159Lake Centerline","name":"San30","name_alt":null,"note":null,"min_zoom":4.7,"strokeweig":0.2,"name_en":"San Juan","min_label":5.7},
"geometry":{"type": "LineString","coordinates": [[-84.769824218749989,11.117547918744108,32.9969],[-84.796630859375,11.111590887494117,31.0],[-84.840258789062489,11.10785553593162,31.0],[-84.879150390625,11.13056061405662,31.0],[-84.912524414062489,11.16266510624412,31.0],[-85.047119140625,11.237420965619108,31.0],[-85.108081054687489,11.292840887494108,31.0],[-85.353613281249991,11.57538483280662,31.0],[-85.37353515625,11.60370514530662,31.0],[-85.418701171875,11.65265534061912,31.0],[-85.534521484374991,11.749872137494108,31.0],[-85.560400390624991,11.798114324994117,31.0],[-85.605810546874991,11.84357330936912,31.0],[-85.684985351562489,11.90033600468162,31.0],[-85.748828124999989,11.96259186405662,31.0],[-85.78466796875,11.994989324994108,31.0],[-85.871386718749989,12.097772528119108,31.6556]]}}