{"type": "Feature","bbox": [-86.8991,12.4742,-86.7092,12.7514],"geometry": {"type": "MultiPolygon","coordinates": [[[[-86.881,12.6662,129.4321],[-86.8991,12.6376,249.472],[-86.8898,12.5986,267.9525],[-86.892,12.5442,135.7637],[-86.8864,12.506,101.9825],[-86.8879,12.4742,93.8221],[-86.8818,12.476,96.9182],[-86.8626,12.4874,122.4813],[-86.8408,12.4961,145.9655],[-86.8153,12.5017,174.343],[-86.7636,12.5095,246.4984],[-86.7456,12.5182,257.1819],[-86.7271,12.5323,250.7407],[-86.7247,12.5354,245.8721],[-86.722,12.5612,234.6026],[-86.7139,12.5769,142.3704],[-86.7092,12.592,124.5147],[-86.7102,12.6182,96.4514],[-86.7159,12.6483,89.9476],[-86.7204,12.6598,62.8203],[-86.7236,12.6643,59.5062],[-86.7374,12.6819,48.992],[-86.7444,12.6867,46.1913],[-86.7514,12.6887,43.5037],[-86.7803,12.6902,33.5985],[-86.7881,12.6934,35.6276],[-86.7915,12.6992,33.8301],[-86.7943,12.7157,28.1668],[-86.7953,12.7359,33.4978],[-86.7921,12.7506,33.3768],[-86.8072,12.7514,22.1089],[-86.8144,12.7477,19.5119],[-86.8182,12.7425,19.6522],[-86.8201,12.7298,32.7583],[-86.8172,12.7149,25.1465],[-86.8196,12.706,23.8301],[-86.8226,12.7024,25.6643],[-86.8352,12.6954,30.3639],[-86.8466,12.6826,51.706],[-86.85,12.6805,54.9617],[-86.8658,12.6777,76.124],[-86.8725,12.6749,90.3217],[-86.881,12.6662,129.4321]]]]}
,"properties": {"GID_2": "NIC.11.10_1","GID_0": "NIC","country": "Nicaragua","GID_1": "NIC.11_1","province": "León","NL_NAME_1": "NA","county": "Telica","VARNAME_2": "NA","NL_NAME_2": "NA","TYPE_2": "Municipio","ENGTYPE_2": "Municipality","CC_2": "NA","HASC_2": "NI.LE.TE","name": "Telica.county","area_km2": 399.2852,"hist_schema_id": "Elevation0-9000","hist_area_km2": {"25": 24.0125,"50": 41.0201,"75": 29.7286,"100": 34.5141,"125": 31.104,"150": 29.6353,"175": 25.0196,"200": 26.3645,"225": 24.4192,"250": 17.5069,"275": 16.6169,"300": 12.5814,"325": 10.305,"350": 7.739,"375": 7.4493,"400": 5.9594,"425": 5.9801,"450": 5.173,"475": 4.8834,"500": 4.9868,"525": 4.5522,"550": 4.2212,"575": 3.3935,"600": 3.6211,"625": 2.7934,"650": 2.8761,"675": 2.152,"700": 1.8002,"725": 1.9243,"750": 1.2829,"775": 1.4898,"800": 1.0553,"825": 1.2415,"850": 0.9104,"875": 0.3517,"900": 0.2483,"925": 0.0828,"950": 0.0828,"975": 0.0414,"1000": 0.1448,"1025": 0.0207}}}