{"type":"Feature","properties":{"GID_1":"NIC.5_1","GID_0":"NIC","country":"Nicaragua","province":"Chinandega","VARNAME_1":"NA","NL_NAME_1":"NA","TYPE_1":"Departamento","ENGTYPE_1":"Department","CC_1":"NA","HASC_1":"NI.CI","ISO_1":"NI-CI","name":"Chinandega.province"},
"geometry":{"type": "MultiPolygon","coordinates": [[[[-87.1882,12.5113,0.7715],[-87.1907,12.5149,0.7949],[-87.1957,12.5176,0.0],[-87.1968,12.5199,0.0],[-87.196,12.5254,0.0],[-87.2007,12.5271,3.0946],[-87.1954,12.5276,0.5632],[-87.1926,12.5179,0.0],[-87.184,12.5093,0.5983],[-87.1818,12.5085,0.0],[-87.1799,12.5099,0.4879],[-87.1712,12.5068,0.0],[-87.1668,12.5026,0.0],[-87.1643,12.5129,0.8858],[-87.1674,12.5182,0.0],[-87.1643,12.5201,0.0],[-87.1621,12.5132,1.1514],[-87.1629,12.5001,0.0],[-87.1574,12.5007,1.6949],[-87.1621,12.496,2.9285],[-87.1621,12.4899,0.0],[-87.1535,12.4918,0.0],[-87.1462,12.4913,0.0],[-87.1415,12.4943,0.0],[-87.1401,12.4937,0.0],[-87.139,12.4918,2.4186],[-87.1435,12.4901,2.6614],[-87.1571,12.4893,0.0],[-87.1585,12.486,0.6579],[-87.1513,12.4768,0.0],[-87.1482,12.4751,0.5331],[-87.1485,12.4738,0.5331],[-87.1393,12.4763,2.2457],[-87.1296,12.4724,0.6479],[-87.1312,12.4721,0.0],[-87.1382,12.4749,2.3946],[-87.1462,12.4726,0.0],[-87.1487,12.4704,0.0],[-87.1493,12.4629,0.0],[-87.1387,12.4601,0.0],[-87.1338,12.4565,0.0],[-87.1274,12.4565,0.0],[-87.1251,12.4607,3.1303],[-87.1229,12.4574,1.0746],[-87.1243,12.4568,0.0],[-87.1232,12.454,1.1412],[-87.126,12.4532,0.0],[-87.1212,12.4493,0.9432],[-87.1179,12.4493,1.0607],[-87.1174,12.4507,2.6972],[-87.0978,12.4574,3.5772],[-87.0954,12.4548,4.0305],[-87.0893,12.4547,5.5622],[-87.0736,12.4559,12.3157],[-87.0584,12.4602,15.3363],[-87.0532,12.4631,16.0991],[-87.0357,12.479,22.6109],[-86.992,12.4964,42.7141],[-86.9844,12.5003,44.8518],[-86.9794,12.5054,50.6804],[-86.9598,12.515,63.9846],[-86.9498,12.5223,71.42],[-86.945,12.5291,78.9748],[-86.9407,12.5404,92.0221],[-86.9381,12.5708,128.6015],[-86.9402,12.5918,159.0758],[-86.9387,12.6021,185.1081],[-86.9107,12.6207,253.2589],[-86.881,12.6662,129.4321],[-86.8744,12.6735,98.6979],[-86.8677,12.6772,78.6933],[-86.85,12.6805,54.9617],[-86.8437,12.6851,44.8221],[-86.8352,12.6954,30.3639],[-86.8226,12.7024,25.6643],[-86.8196,12.706,23.8301],[-86.8172,12.7149,25.1465],[-86.8201,12.7298,32.7583],[-86.8192,12.7399,20.5688],[-86.8144,12.7477,19.5119],[-86.8072,12.7514,22.1089],[-86.7887,12.7508,36.0054],[-86.7695,12.757,44.7437],[-86.7531,12.7574,122.097],[-86.7378,12.7605,182.1372],[-86.7132,12.7585,91.5259],[-86.7041,12.7598,94.8854],[-86.693,12.765,48.8381],[-86.6827,12.7727,44.8466],[-86.674,12.7834,54.9182],[-86.6617,12.8101,188.853],[-86.6571,12.8388,96.3376],[-86.6601,12.8558,165.7494],[-86.6685,12.8766,137.7392],[-86.6721,12.8896,100.3906],[-86.6756,12.9096,141.9312],[-86.6756,12.9358,161.5095],[-86.6698,12.9561,121.3875],[-86.6731,12.9644,121.5762],[-86.6881,12.9861,191.4626],[-86.6979,13.0046,168.9159],[-86.7148,13.0221,284.356],[-86.7167,13.026,358.4063],[-86.719,13.0546,231.8783],[-86.7309,13.0734,171.763],[-86.7346,13.0905,153.5888],[-86.7401,13.0995,176.0993],[-86.7436,13.1088,161.0765],[-86.7471,13.1279,277.1223],[-86.7472,13.1497,198.4324],[-86.7442,13.1612,298.7835],[-86.7305,13.1877,261.6258],[-86.7162,13.201599999999999,286.9436],[-86.7181,13.2064,298.0571],[-86.7128,13.216,294.1087],[-86.7085,13.2297,328.8046],[-86.7087,13.2381,371.4831],[-86.713,13.2535,395.6197],[-86.7189,13.2668,566.2514],[-86.7226,13.2681,551.711],[-86.7386,13.2636,686.5229],[-86.7492,13.2677,900.0961],[-86.7563,13.267,928.4045],[-86.7618,13.2686,747.0526],[-86.7957,13.2936,1228.6923],[-86.8192,13.3063,1409.7878],[-86.8288,13.3054,1180.6006],[-86.8402,13.3001,1252.3186],[-86.8646,13.2942,744.7234],[-86.8706,13.2886,575.0774],[-86.8769,13.2749,482.5868],[-86.8988,13.263,331.8148],[-86.9079,13.2563,251.759],[-86.9087,13.2542,264.2302],[-86.9053,13.2463,275.1997],[-86.9111,13.2219,237.0778],[-86.9164,13.2155,165.0097],[-86.9152,13.2091,173.954],[-86.9165,13.203,187.8768],[-86.929,13.1823,142.4279],[-86.9286,13.1707,111.9625],[-86.9183,13.1455,89.258],[-86.9224,13.1452,71.1206],[-86.926,13.1415,90.224],[-86.9234,13.1337,67.8762],[-86.9333,13.1211,70.1791],[-86.9275,13.1116,59.7656],[-86.9263,13.1024,48.6945],[-86.9179,13.0923,46.5978],[-86.9184,13.0893,61.0044],[-86.9283,13.079,48.2575],[-86.9481,13.0641,39.8753],[-86.9525,13.0589,37.0621],[-86.9561,13.0511,51.583],[-86.959,13.0322,24.7003],[-86.9604,13.0306,23.9765],[-86.9656,13.0299,22.9638],[-86.9684,13.0256,21.7684],[-86.9776,13.0201,18.1405],[-86.9787,13.0176,20.297],[-86.9773,13.0157,29.1973],[-86.9823,13.0151,24.5167],[-86.9907,13.0181,20.4372],[-86.9944,13.0165,20.9187],[-87.0079,13.0044,12.6723],[-87.0123,13.0025,11.6247],[-87.0219,13.006,13.7682],[-87.024,13.0046,13.8452],[-87.0277,12.9888,11.9499],[-87.0315,12.9867,10.4819],[-87.0488,12.9845,10.8672],[-87.0544,12.9865,11.0183],[-87.0667,12.9971,8.297],[-87.0853,12.9985,11.41],[-87.1227,12.9983,2.0191],[-87.2813,12.9852,5.4073],[-87.309,12.9878,5.2403],[-87.3115,12.9906,0.0],[-87.3118,12.989,0.0],[-87.3085,12.9854,0.0],[-87.316,12.9774,0.0],[-87.3249,12.9713,3.1639],[-87.3304,12.9699,0.0],[-87.3337,12.9654,4.6291],[-87.3374,12.9654,0.0],[-87.3385,12.9632,0.0],[-87.3501,12.9576,1.1192],[-87.3604,12.9557,0.0],[-87.3751,12.9499,0.0],[-87.3818,12.946,0.0],[-87.3824,12.9421,1.9597],[-87.3849,12.9424,0.0],[-87.3838,12.9379,0.0],[-87.3796,12.9354,0.0],[-87.3793,12.9329,0.0],[-87.3679,12.9265,0.0],[-87.3707,12.9132,4.1177],[-87.3796,12.9135,2.1721],[-87.384,12.9118,4.4109],[-87.3846,12.914,0.0],[-87.3924,12.9124,0.0],[-87.4024,12.9135,3.6811],[-87.4212,12.9174,0.0],[-87.4257,12.9199,0.0],[-87.4307,12.9199,2.823],[-87.4351,12.9229,1.1486],[-87.4371,12.9226,2.4634],[-87.4393,12.9262,0.0],[-87.4449,12.9268,3.4271],[-87.4638,12.9365,1.694],[-87.464,12.9391,0.0],[-87.4654,12.9391,0.0],[-87.4662,12.9365,2.222],[-87.4735,12.9396,0.0],[-87.4729,12.9477,0.0],[-87.4757,12.9507,2.206],[-87.4765,12.9615,2.9338],[-87.4671,12.961,0.0],[-87.4662,12.9632,0.0],[-87.4721,12.9704,15.8838],[-87.4784,12.9832,7.8056],[-87.4835,12.9885,1.5867],[-87.4879,12.9977,0.0],[-87.4962,13.0018,1.9682],[-87.5038,13.009,0.0],[-87.5043,13.0115,0.0],[-87.5124,13.0193,0.0],[-87.5146,13.0243,0.0],[-87.5371,13.0365,1.1513],[-87.5501,13.0499,1.4063],[-87.5596,13.0504,15.9084],[-87.5738,13.0541,0.0],[-87.5813,13.0526,3.129],[-87.5882,13.054,1.983],[-87.5868,13.056,0.0],[-87.5843,13.056,0.0],[-87.5837,13.0577,0.0],[-87.5868,13.0596,1.5026],[-87.5807,13.0654,0.0],[-87.5815,13.0718,0.7609],[-87.5785,13.0799,0.0],[-87.5826,13.0743,2.359],[-87.5832,13.076,2.1143],[-87.5829,13.0818,2.7306],[-87.5804,13.0865,0.8859],[-87.5757,13.0832,0.0],[-87.5762,13.0749,2.4072],[-87.5746,13.076,1.1971],[-87.5743,13.0821,0.0],[-87.5768,13.0874,1.8793],[-87.5813,13.0871,0.0],[-87.5843,13.0813,2.7306],[-87.5862,13.0749,0.0],[-87.5851,13.074,0.0],[-87.5868,13.0735,0.0],[-87.589,13.0557,0.9731],[-87.5946,13.0426,3.2517],[-87.6007,13.0315,16.6434],[-87.6054,13.0273,2.1199],[-87.6068,13.0277,2.1199],[-87.6099,13.0193,0.0],[-87.6115,13.019,0.0],[-87.6162,13.0107,3.0067],[-87.6246,13.0068,5.3537],[-87.6276,13.0032,54.3018],[-87.6329,13.0021,0.0],[-87.6365,12.9985,21.3146],[-87.6485,12.996,13.8346],[-87.6518,12.9968,0.0],[-87.6551,12.9926,0.0],[-87.6554,12.9896,20.2147],[-87.659,12.9904,19.0573],[-87.6612,12.989,0.0],[-87.6624,12.9765,112.7951],[-87.664,12.9765,0.0],[-87.6671,12.9721,0.0],[-87.6707,12.971,28.7173],[-87.6718,12.966,7.7467],[-87.6748,12.9649,41.9009],[-87.6754,12.9543,14.9442],[-87.6793,12.9496,97.4598],[-87.6821,12.949,0.0],[-87.6868,12.9351,29.8919],[-87.6854,12.9276,71.5371],[-87.6888,12.924,37.0686],[-87.6874,12.9179,63.0225],[-87.691,12.9124,4.9609],[-87.6901,12.9096,0.0],[-87.681,12.9004,0.0],[-87.6774,12.8995,10.3176],[-87.6732,12.8951,0.0],[-87.6715,12.8957,38.3886],[-87.6543,12.8793,39.0397],[-87.6421,12.8729,48.947],[-87.6393,12.8693,0.0],[-87.6354,12.8682,38.7574],[-87.634,12.8651,7.5155],[-87.6188,12.8574,26.072],[-87.6032,12.8451,0.0],[-87.5862,12.8374,5.1244],[-87.5576,12.8188,7.3282],[-87.5249,12.801,6.5054],[-87.4995,12.7813,4.247],[-87.4912,12.769,1.5918],[-87.4843,12.7662,0.0],[-87.4824,12.7732,4.1003],[-87.4865,12.7779,0.0],[-87.4871,12.7813,0.0],[-87.4971,12.7901,12.875],[-87.5057,12.8015,2.5423],[-87.5165,12.8046,1.4398],[-87.5229,12.809,0.0],[-87.5243,12.8168,1.2526],[-87.521,12.8174,0.0],[-87.5215,12.8212,0.0],[-87.5252,12.8251,5.6824],[-87.5343,12.8271,0.0],[-87.5362,12.8299,4.1982],[-87.5368,12.8351,0.0],[-87.541,12.8379,2.3537],[-87.5426,12.8407,0.0],[-87.5421,12.8413,0.0],[-87.5404,12.8385,2.3537],[-87.5365,12.8365,2.1955],[-87.5335,12.8276,0.0],[-87.5271,12.8271,6.839],[-87.5215,12.8232,1.3156],[-87.5182,12.8176,6.1596],[-87.5165,12.8074,3.05],[-87.5082,12.8057,2.6022],[-87.5068,12.8093,1.7958],[-87.5113,12.8237,2.5458],[-87.5135,12.8257,0.0],[-87.5171,12.8251,2.5859],[-87.5165,12.8296,0.0],[-87.5263,12.8365,0.0],[-87.524,12.8393,0.0],[-87.5251,12.8396,3.5822],[-87.5243,12.8432,0.0],[-87.5265,12.8446,0.0],[-87.5229,12.8477,2.4207],[-87.5174,12.846,1.3933],[-87.5126,12.8529,2.1172],[-87.5096,12.8482,0.0],[-87.5046,12.8499,2.3398],[-87.5029,12.8418,0.0],[-87.5054,12.8376,0.0],[-87.504,12.8335,5.4255],[-87.5057,12.8285,0.0],[-87.5099,12.8276,5.5945],[-87.5088,12.8221,0.0],[-87.5068,12.8201,0.0],[-87.5046,12.808,0.0],[-87.4868,12.7913,0.0],[-87.4804,12.7988,6.4127],[-87.4788,12.8031,0.0],[-87.4776,12.801,3.422],[-87.4796,12.8004,0.0],[-87.4818,12.7954,4.3831],[-87.4826,12.7849,0.0],[-87.4785,12.7782,0.0],[-87.4749,12.7796,0.0],[-87.4774,12.7774,0.0],[-87.4762,12.774,0.0],[-87.469,12.7749,0.0],[-87.471,12.7729,0.0],[-87.4749,12.7724,0.0],[-87.4751,12.771,0.0],[-87.4563,12.7776,0.0],[-87.449,12.7863,1.9942],[-87.4424,12.7863,2.3004],[-87.449,12.7846,0.0],[-87.4546,12.7771,0.0],[-87.4629,12.7729,0.0],[-87.4646,12.7699,0.0],[-87.4615,12.769,0.0],[-87.4524,12.751,3.692],[-87.4463,12.7493,3.5203],[-87.4413,12.7518,1.6035],[-87.4368,12.751,2.5285],[-87.4388,12.7504,0.8939],[-87.4385,12.7485,1.2492],[-87.4404,12.7496,0.8939],[-87.4474,12.7476,1.3894],[-87.4529,12.7488,0.0],[-87.4574,12.7521,0.0],[-87.459,12.7557,0.0],[-87.4582,12.7588,0.0],[-87.4638,12.761,1.7915],[-87.4651,12.7646,0.0],[-87.4743,12.7654,5.055],[-87.4746,12.7607,3.7881],[-87.4454,12.7369,0.0],[-87.4315,12.7176,1.5644],[-87.4185,12.7101,0.0],[-87.4118,12.7024,0.9767],[-87.3962,12.6915,0.0],[-87.3926,12.6843,1.9087],[-87.3938,12.6804,0.0],[-87.3921,12.6771,0.0],[-87.3926,12.6743,0.0],[-87.3887,12.6715,0.0],[-87.3868,12.674,3.6408],[-87.3857,12.6707,0.0],[-87.3871,12.6679,0.0],[-87.3849,12.6651,0.0],[-87.3829,12.6659,9.2406],[-87.3804,12.6638,18.3156],[-87.3807,12.6601,0.0],[-87.3774,12.6596,1.1801],[-87.3726,12.6518,3.8234],[-87.364,12.6432,7.2971],[-87.3635,12.6415,7.2625],[-87.366,12.6388,0.0],[-87.3629,12.6379,5.6401],[-87.3624,12.6346,16.1008],[-87.3665,12.6318,0.0],[-87.3618,12.6321,12.4471],[-87.3562,12.629,14.5107],[-87.3524,12.624,1.0081],[-87.3424,12.6165,2.0019],[-87.3401,12.6191,5.4011],[-87.3399,12.6215,4.8783],[-87.3421,12.6232,6.0936],[-87.3407,12.6285,1.1297],[-87.3276,12.6379,2.9843],[-87.3229,12.6363,0.0],[-87.3165,12.6399,0.0],[-87.3166,12.6443,0.0],[-87.3213,12.6532,3.6641],[-87.3201,12.6538,4.4944],[-87.3154,12.6465,0.0],[-87.3143,12.6435,0.8557],[-87.3176,12.6374,0.0],[-87.3176,12.6335,4.2399],[-87.3236,12.6349,0.0],[-87.3282,12.6332,1.1682],[-87.3343,12.6274,0.0],[-87.3357,12.624,0.0],[-87.3335,12.6224,0.0],[-87.3299,12.6235,0.0],[-87.3229,12.6188,6.1938],[-87.3199,12.6143,2.4729],[-87.3149,12.6129,3.3817],[-87.3207,12.6138,2.4729],[-87.3279,12.6201,0.0],[-87.3304,12.6204,1.7896],[-87.3426,12.6099,2.6542],[-87.3474,12.6121,0.0],[-87.3499,12.6088,0.0],[-87.349,12.6057,0.0],[-87.346,12.6035,0.0],[-87.3424,12.6069,0.0],[-87.3423,12.6087,3.2586],[-87.3387,12.6085,0.0],[-87.3301,12.6057,3.7568],[-87.3165,12.5982,0.0],[-87.3101,12.5985,0.6474],[-87.2979,12.5901,1.8153],[-87.2962,12.5929,1.1058],[-87.2854,12.5826,1.768],[-87.2771,12.5815,0.0],[-87.2774,12.579,0.0],[-87.2779,12.5804,0.0],[-87.2862,12.5801,2.6564],[-87.2924,12.5874,1.5643],[-87.301,12.5907,0.0],[-87.3018,12.5896,4.015],[-87.2543,12.5585,0.0],[-87.2499,12.556,2.6037],[-87.2432,12.5549,0.3393],[-87.2393,12.5576,1.7191],[-87.241,12.5537,3.6121],[-87.2432,12.5521,0.5232],[-87.2229,12.5379,4.1047],[-87.2165,12.5321,1.7985],[-87.2174,12.5304,0.0],[-87.2154,12.5301,0.0],[-87.2157,12.5351,1.0511],[-87.2257,12.5487,3.7714],[-87.2246,12.5493,4.0928],[-87.2146,12.5385,1.1571],[-87.214,12.5326,0.4747],[-87.2085,12.5249,0.9547],[-87.209,12.5215,0.0],[-87.1871,12.5024,5.7928],[-87.1796,12.489,5.6951],[-87.179,12.479,5.1708],[-87.1721,12.4765,0.0],[-87.1693,12.4771,0.6382],[-87.1665,12.4818,0.0],[-87.169,12.5024,0.0],[-87.1821,12.5057,0.8188],[-87.1882,12.5113,0.7715]]],
[[[-87.4674,12.7699,0.0],[-87.4696,12.7704,0.0],[-87.471,12.7682,0.0],[-87.4679,12.7679,0.0],[-87.4674,12.7699,0.0]]],
[[[-87.519,12.8154,1.8925],[-87.5196,12.8171,0.0],[-87.5213,12.8168,2.2867],[-87.5218,12.8124,2.8699],[-87.5201,12.8124,0.0],[-87.519,12.8154,1.8925]]],
[[[-87.0682,12.396,7.0656],[-87.0682,12.3957,7.0656],[-87.068,12.3957,7.0656],[-87.0682,12.396,7.0656]]],
[[[-87.0693,12.3968,1.2807],[-87.0682,12.396,7.0656],[-87.0726,12.4009,7.3091],[-87.087,12.4105,6.5855],[-87.0912,12.4205,4.8183],[-87.1051,12.4307,0.0],[-87.1085,12.4304,5.0384],[-87.1118,12.436,0.9792],[-87.1171,12.4332,1.6397],[-87.1282,12.4379,2.1113],[-87.1349,12.4388,0.0],[-87.1613,12.4527,1.0819],[-87.1626,12.4574,1.0201],[-87.1576,12.4588,1.6526],[-87.1585,12.4624,0.0],[-87.161,12.4638,0.0],[-87.1668,12.4632,5.6887],[-87.1679,12.4654,2.752],[-87.1657,12.4649,0.0],[-87.1665,12.4682,2.2138],[-87.1704,12.4663,2.1492],[-87.1707,12.4621,2.9416],[-87.1735,12.4593,0.0],[-87.1796,12.4624,0.0],[-87.1821,12.4621,0.0],[-87.1818,12.4601,0.0],[-87.179,12.4604,2.1982],[-87.1699,12.4543,0.9614],[-87.161,12.4515,2.3705],[-87.1293,12.4329,0.7138],[-87.1235,12.431,2.38],[-87.0693,12.3968,1.2807]]],
[[[-87.189,12.4749,0.0],[-87.191,12.476,2.7978],[-87.1907,12.474,8.0779],[-87.1918,12.474,2.7255],[-87.1924,12.476,0.0],[-87.194,12.4757,0.0],[-87.1937,12.4732,0.6882],[-87.1888,12.4712,4.7119],[-87.1882,12.4682,0.0],[-87.1835,12.4649,0.0],[-87.184,12.4682,7.8378],[-87.1882,12.4718,4.7119],[-87.189,12.4749,0.0]]],
[[[-87.6793,13.0779,0.0],[-87.6782,13.0785,0.0],[-87.6779,13.0799,0.0],[-87.6813,13.0788,0.0],[-87.6793,13.0779,0.0]]]]}}