{"type":"Feature","properties":{"ISO3166-1-Alpha-3":"NIC","country":"Nicaragua","fill":"#FF0","id":"663","name":"Chinandega"},
"geometry":{"type": "Polygon","coordinates": [[[-86.7493,13.26128,959.8347],[-86.75865,13.26418,802.4025],[-86.81622,13.29193,1012.6603],[-86.83343,13.29335,927.6696],[-86.8495,13.28883,866.8923],[-86.86273,13.27994,634.8689],[-86.91079,13.23958,213.8184],[-86.91885,13.22976,222.8994],[-86.92598,13.21635,259.0332],[-86.93322,13.18819,108.2155],[-86.93492,13.18553,129.7496],[-86.93306,13.17971,88.932],[-86.92552,13.16364,103.0309],[-86.92371,13.16114,111.762],[-86.93234,13.10853,61.7498],[-86.92981,13.10222,55.2506],[-86.92417,13.0998,62.9785],[-86.92025,13.09618,54.2784],[-86.92293,13.08639,45.7401],[-86.928,13.08124,40.9776],[-86.94272,13.07406,37.6798],[-86.94841,13.06969,36.1957],[-86.97182,13.03388,30.3149],[-86.98319,13.02187,18.1336],[-87.00877,13.00608,15.4354],[-87.02962,12.99608,12.4832],[-87.03504,12.97978,11.3778],[-87.04685,12.98055,12.3728],[-87.06985,12.99438,8.4272],[-87.08465,12.99593,6.0112],[-87.31403,12.98156,0.0],[-87.31404,12.98155,0.0],[-87.32059,12.9772,0.0],[-87.36893,12.95356,0.0],[-87.37902,12.93757,2.8804],[-87.36779,12.92853,6.6577],[-87.34166,12.92573,0.0],[-87.28958,12.92703,2.6005],[-87.28958,12.91958,2.2271],[-87.39249,12.9134,0.0],[-87.43505,12.92239,1.1486],[-87.46776,12.95429,0.0],[-87.46898,12.96064,0.0],[-87.46691,12.97573,0.0],[-87.46776,12.98225,0.0],[-87.47106,12.98505,0.0],[-87.48388,12.99262,0.0],[-87.48827,12.99592,5.9779],[-87.50638,13.01968,0.0],[-87.51273,13.02322,3.7196],[-87.53812,13.0445,0.0],[-87.54284,13.04743,0.0],[-87.54764,13.05215,0.0],[-87.55907,13.05557,0.0],[-87.57262,13.05732,0.0],[-87.58385,13.05732,0.0],[-87.58043,13.06318,0.0],[-87.57763,13.08466,0.0],[-87.58385,13.08466,0.0],[-87.58878,13.04633,9.2592],[-87.60997,13.02407,0.0],[-87.63882,13.0065,0.0],[-87.66702,12.98225,0.0],[-87.68582,12.94758,0.0],[-87.68566,12.91828,63.0225],[-87.67093,12.8935,8.9667],[-87.64651,12.87238,0.0],[-87.5292,12.80349,0.8514],[-87.50699,12.78242,0.0],[-87.49222,12.77139,1.3766],[-87.48205,12.76996,4.4563],[-87.48253,12.7812,0.0],[-87.49645,12.79385,0.0],[-87.52298,12.81094,0.0],[-87.52298,12.81717,0.0],[-87.50292,12.81196,8.5084],[-87.48025,12.79999,6.4127],[-87.46349,12.78632,11.668],[-87.46093,12.77619,0.0],[-87.46093,12.76996,21.9878],[-87.45206,12.76419,4.2315],[-87.4473,12.76252,6.7797],[-87.4473,12.75629,4.2181],[-87.45934,12.7624,0.0],[-87.46349,12.76516,0.0],[-87.46776,12.76996,0.0],[-87.45486,12.7438,1.064],[-87.34484,12.61917,8.6701],[-87.34179,12.62409,0.0],[-87.33401,12.63357,1.8048],[-87.33121,12.63898,7.4553],[-87.3258,12.62161,2.9204],[-87.32128,12.61123,4.2866],[-87.31298,12.60281,0.0],[-87.25048,12.55532,0.0],[-87.23807,12.55024,4.3599],[-87.21886,12.53225,0.0],[-87.19274,12.4999,0.0],[-87.17642,12.48591,6.1604],[-87.18663,12.52298,3.1986],[-87.18041,12.52298,5.024],[-87.15787,12.481019999999999,0.0],[-87.14932,12.47451,0.0],[-87.13549,12.47049,4.3739],[-87.12267,12.46035,5.0267],[-87.12084,12.45838,5.4458],[-87.12075,12.45844,5.4458],[-87.09866,12.47133,7.8239],[-87.04938,12.47665,19.0945],[-87.03223,12.48417,25.1761],[-87.0153,12.49391,32.7753],[-87.00579,12.49965,38.4331],[-86.95394,12.55241,97.3372],[-86.93378,12.58437,151.5293],[-86.92611,12.60409,193.2701],[-86.92216,12.6106,220.8074],[-86.90275,12.62874,258.7427],[-86.8773,12.65564,127.7261],[-86.85281,12.68163,93.7419],[-86.83332,12.69036,38.5247],[-86.81408,12.713,25.3389],[-86.8002,12.73935,28.1553],[-86.79304,12.7462,40.3238],[-86.78201,12.75212,46.3434],[-86.70992,12.76134,81.4908],[-86.69571,12.76491,55.2861],[-86.68786,12.76793,45.4347],[-86.67,12.77876,59.74],[-86.65757,12.80697,102.769],[-86.6546,12.83823,110.9489],[-86.6639,12.95916,143.172],[-86.67625,12.98704,290.5194],[-86.68982,13.00861,281.855],[-86.71095,13.05634,296.3894],[-86.7207,13.09023,188.8458],[-86.73222,13.14966,500.3961],[-86.72894,13.18085,283.328],[-86.72641,13.18997,269.8866],[-86.72548,13.19116,280.9004],[-86.71493,13.20036,325.6474],[-86.70589,13.22881,426.9529],[-86.70475,13.23123,421.8496],[-86.7032,13.23661,407.3245],[-86.70271,13.24265,343.669],[-86.7039,13.25015,467.2885],[-86.70685,13.25855,522.8427],[-86.71263,13.26294,374.9377],[-86.73157,13.26679,607.8099],[-86.73272,13.26847,605.9014],[-86.73984,13.26371,749.5104],[-86.7493,13.26128,959.8347]]]}}