{"type":"Feature","properties":{"GID_2":"NIC.18.3_1","GID_0":"NIC","country":"Nicaragua","GID_1":"NIC.18_1","province":"Rivas","NL_NAME_1":"NA","county":"BuenosAires","VARNAME_2":"NA","NL_NAME_2":"NA","TYPE_2":"Municipio","ENGTYPE_2":"Municipality","CC_2":"NA","HASC_2":"NI.RI.BA","name":"Buenos_Aires.county"},
"geometry":{"type": "MultiPolygon","coordinates": [[[[-85.9129,11.6631,51.9624],[-85.8733,11.6026,34.6343],[-85.87,11.6002,32.0],[-85.8476,11.551,36.6277],[-85.8401,11.522,39.4998],[-85.8391,11.508,45.119],[-85.8413,11.495,51.4291],[-85.8494,11.4799,61.6891],[-85.8451,11.4746,63.9533],[-85.8396,11.461,64.1192],[-85.8331,11.4519,64.6128],[-85.8256,11.4481,58.4472],[-85.8163,11.4489,54.4908],[-85.8004,11.4534,51.3226],[-85.7918,11.4525,44.4296],[-85.793,11.477,35.9563],[-85.7962,11.4901,37.2939],[-85.8011,11.4991,38.8274],[-85.8369,11.5489,33.4462],[-85.8522,11.5912,33.2948],[-85.8639,11.6366,39.1062],[-85.8686,11.6774,35.1591],[-85.8758,11.6808,32.1839],[-85.8797,11.6849,32.0169],[-85.8826,11.6845,31.0],[-85.8783,11.6556,41.8905],[-85.8716,11.646,34.6817],[-85.8701,11.6415,36.7825],[-85.8716,11.6394,36.0831],[-85.8749,11.6399,35.4725],[-85.8856,11.655,34.4615],[-85.9004,11.6671,73.9133],[-85.9013,11.6712,80.7769],[-85.9129,11.6631,51.9624]]]]}}