{"type": "Feature","bbox": [-85.9648,11.4673,-85.8391,11.6631],"geometry": {"type": "MultiPolygon","coordinates": [[[[-85.9648,11.6453,52.863],[-85.9393,11.6033,62.4105],[-85.9233,11.5909,82.504],[-85.9056,11.5807,63.526],[-85.899,11.5744,55.6097],[-85.8939,11.5583,58.7095],[-85.8906,11.5229,63.5935],[-85.8878,11.5136,71.0917],[-85.8795,11.4975,70.9251],[-85.863,11.4753,80.2064],[-85.8609,11.4673,93.2585],[-85.8558,11.4688,73.5097],[-85.8413,11.495,51.4291],[-85.8391,11.5156,41.1934],[-85.8491,11.5551,36.0834],[-85.87,11.6002,32.0],[-85.8733,11.6026,34.6343],[-85.9129,11.6631,51.9624],[-85.9199,11.6591,43.8246],[-85.9397,11.6573,46.6771],[-85.962,11.6509,53.1271],[-85.9648,11.6453,52.863]]]]}
,"properties": {"GID_2": "NIC.18.5_1","GID_0": "NIC","country": "Nicaragua","GID_1": "NIC.18_1","province": "Rivas","NL_NAME_1": "NA","county": "Potosí","VARNAME_2": "NA","NL_NAME_2": "NA","TYPE_2": "Municipio","ENGTYPE_2": "Municipality","CC_2": "NA","HASC_2": "NI.RI.PO","name": "Potosí.county","area_km2": 109.71175,"hist_schema_id": "Elevation0-9000","hist_area_km2": {"25": 7.60162,"50": 91.95125,"75": 9.78499,"100": 0.37388}}}